{
"type": "FeatureCollection",
"name": "celdas_criticas_pcsp",
"crs": { "type": "name", "properties": { "name": "urn:ogc:def:crs:OGC:1.3:CRS84" } },
"features": [
{ "type": "Feature", "properties": { "cuadrante": "215B", "grid_id": "G01415", "problematica_pcsp": "Alcohol y drogas en vía pública", "casos_problematica_celda": 1, "peso_problematica": 10.0, "puntaje_celda": 10.0, "es_meta_pcsp": true, "equipo": "Móviles", "tamano_grilla_m": 400 }, "geometry": { "type": "Polygon", "coordinates": [ [ [ -70.747761596526246, -33.473972359078061 ], [ -70.747689181575453, -33.470366165899172 ], [ -70.751992082789741, -33.470305406920616 ], [ -70.752064675807844, -33.473911591833883 ], [ -70.747761596526246, -33.473972359078061 ] ] ] } },
{ "type": "Feature", "properties": { "cuadrante": "215B", "grid_id": "G01416", "problematica_pcsp": "Amenazas o riña", "casos_problematica_celda": 1, "peso_problematica": 2.0, "puntaje_celda": 2.0, "es_meta_pcsp": false, "equipo": "Móviles", "tamano_grilla_m": 400 }, "geometry": { "type": "Polygon", "coordinates": [ [ [ -70.747689181575453, -33.470366165899172 ], [ -70.74761677951588, -33.466759970480332 ], [ -70.751919502694562, -33.466699219766745 ], [ -70.751992082789741, -33.470305406920616 ], [ -70.747689181575453, -33.470366165899172 ] ] ] } },
{ "type": "Feature", "properties": { "cuadrante": "215B", "grid_id": "G01351", "problematica_pcsp": "Robo en lugar habitado", "casos_problematica_celda": 1, "peso_problematica": 10.0, "puntaje_celda": 10.0, "es_meta_pcsp": true, "equipo": "Móviles", "tamano_grilla_m": 400 }, "geometry": { "type": "Polygon", "coordinates": [ [ [ -70.756222212952494, -33.466638319809221 ], [ -70.756149467776268, -33.463032138699454 ], [ -70.760451987082192, -33.462971097804392 ], [ -70.760524910258027, -33.466577270609292 ], [ -70.756222212952494, -33.466638319809221 ] ] ] } },
{ "type": "Feature", "properties": { "cuadrante": "215B", "grid_id": "G01415", "problematica_pcsp": "Robo en lugar habitado", "casos_problematica_celda": 1, "peso_problematica": 10.0, "puntaje_celda": 10.0, "es_meta_pcsp": true, "equipo": "Móviles", "tamano_grilla_m": 400 }, "geometry": { "type": "Polygon", "coordinates": [ [ [ -70.747761596526246, -33.473972359078061 ], [ -70.747689181575453, -33.470366165899172 ], [ -70.751992082789741, -33.470305406920616 ], [ -70.752064675807844, -33.473911591833883 ], [ -70.747761596526246, -33.473972359078061 ] ] ] } },
{ "type": "Feature", "properties": { "cuadrante": "215B", "grid_id": "G01351", "problematica_pcsp": "Robos violentos", "casos_problematica_celda": 1, "peso_problematica": 10.0, "puntaje_celda": 10.0, "es_meta_pcsp": true, "equipo": "Móviles", "tamano_grilla_m": 400 }, "geometry": { "type": "Polygon", "coordinates": [ [ [ -70.756222212952494, -33.466638319809221 ], [ -70.756149467776268, -33.463032138699454 ], [ -70.760451987082192, -33.462971097804392 ], [ -70.760524910258027, -33.466577270609292 ], [ -70.756222212952494, -33.466638319809221 ] ] ] } },
{ "type": "Feature", "properties": { "cuadrante": "215C", "grid_id": "G01479", "problematica_pcsp": "Amenazas con armas", "casos_problematica_celda": 1, "peso_problematica": 2.0, "puntaje_celda": 2.0, "es_meta_pcsp": false, "equipo": "Motoristas", "tamano_grilla_m": 400 }, "geometry": { "type": "Polygon", "coordinates": [ [ [ -70.739299555426271, -33.481305858289005 ], [ -70.73922747095429, -33.477699653117369 ], [ -70.743530754094323, -33.477639176221018 ], [ -70.7436030167013, -33.481245373166274 ], [ -70.739299555426271, -33.481305858289005 ] ] ] } },
{ "type": "Feature", "properties": { "cuadrante": "215C", "grid_id": "G01513", "problematica_pcsp": "Amenazas con armas", "casos_problematica_celda": 1, "peso_problematica": 2.0, "puntaje_celda": 2.0, "es_meta_pcsp": false, "equipo": "Motoristas", "tamano_grilla_m": 400 }, "geometry": { "type": "Polygon", "coordinates": [ [ [ -70.734924174982055, -33.47775998070442 ], [ -70.734852281447729, -33.474153765088502 ], [ -70.739155399314512, -33.47409344570687 ], [ -70.73922747095429, -33.477699653117369 ], [ -70.734924174982055, -33.47775998070442 ] ] ] } },
{ "type": "Feature", "properties": { "cuadrante": "215C", "grid_id": "G01511", "problematica_pcsp": "Amenazas o riña", "casos_problematica_celda": 1, "peso_problematica": 2.0, "puntaje_celda": 2.0, "es_meta_pcsp": false, "equipo": "Motoristas", "tamano_grilla_m": 400 }, "geometry": { "type": "Polygon", "coordinates": [ [ [ -70.735068000454419, -33.484972405221448 ], [ -70.734996081316893, -33.481366194082121 ], [ -70.739299555426271, -33.481305858289005 ], [ -70.739371652732629, -33.484912061221586 ], [ -70.735068000454419, -33.484972405221448 ] ] ] } },
{ "type": "Feature", "properties": { "cuadrante": "215C", "grid_id": "G01613", "problematica_pcsp": "Amenazas o riña", "casos_problematica_celda": 1, "peso_problematica": 2.0, "puntaje_celda": 2.0, "es_meta_pcsp": false, "equipo": "Motoristas", "tamano_grilla_m": 400 }, "geometry": { "type": "Polygon", "coordinates": [ [ [ -70.721942851183854, -33.474333827484493 ], [ -70.721871504682142, -33.470727585138036 ], [ -70.726174482768783, -33.470667721776209 ], [ -70.726246007350724, -33.474273955978809 ], [ -70.721942851183854, -33.474333827484493 ] ] ] } },
{ "type": "Feature", "properties": { "cuadrante": "215C", "grid_id": "G01613", "problematica_pcsp": "Robo de vehículo motorizado", "casos_problematica_celda": 1, "peso_problematica": 2.0, "puntaje_celda": 2.0, "es_meta_pcsp": false, "equipo": "Motoristas", "tamano_grilla_m": 400 }, "geometry": { "type": "Polygon", "coordinates": [ [ [ -70.721942851183854, -33.474333827484493 ], [ -70.721871504682142, -33.470727585138036 ], [ -70.726174482768783, -33.470667721776209 ], [ -70.726246007350724, -33.474273955978809 ], [ -70.721942851183854, -33.474333827484493 ] ] ] } },
{ "type": "Feature", "properties": { "cuadrante": "215C", "grid_id": "G01445", "problematica_pcsp": "Robo por sorpresa", "casos_problematica_celda": 1, "peso_problematica": 2.0, "puntaje_celda": 2.0, "es_meta_pcsp": false, "equipo": "Motoristas", "tamano_grilla_m": 400 }, "geometry": { "type": "Polygon", "coordinates": [ [ [ -70.743675292174316, -33.484851567871814 ], [ -70.7436030167013, -33.481245373166274 ], [ -70.747906465110248, -33.481184738715434 ], [ -70.747978918747776, -33.484790925173641 ], [ -70.743675292174316, -33.484851567871814 ] ] ] } },
{ "type": "Feature", "properties": { "cuadrante": "215C", "grid_id": "G01514", "problematica_pcsp": "Robos violentos", "casos_problematica_celda": 1, "peso_problematica": 10.0, "puntaje_celda": 10.0, "es_meta_pcsp": true, "equipo": "Motoristas", "tamano_grilla_m": 400 }, "geometry": { "type": "Polygon", "coordinates": [ [ [ -70.734852281447729, -33.474153765088502 ], [ -70.734780400711784, -33.470547547234503 ], [ -70.739083340504791, -33.4704872360576 ], [ -70.739155399314512, -33.47409344570687 ], [ -70.734852281447729, -33.474153765088502 ] ] ] } },
{ "type": "Feature", "properties": { "cuadrante": "215C", "grid_id": "G01545", "problematica_pcsp": "Robos violentos", "casos_problematica_celda": 1, "peso_problematica": 10.0, "puntaje_celda": 10.0, "es_meta_pcsp": true, "equipo": "Motoristas", "tamano_grilla_m": 400 }, "geometry": { "type": "Polygon", "coordinates": [ [ [ -70.730692594404829, -33.481426380544157 ], [ -70.730620866209279, -33.47782015898067 ], [ -70.734924174982055, -33.47775998070442 ], [ -70.734996081316893, -33.481366194082121 ], [ -70.730692594404829, -33.481426380544157 ] ] ] } },
{ "type": "Feature", "properties": { "cuadrante": "216B", "grid_id": "G01245", "problematica_pcsp": "Amenazas o riña", "casos_problematica_celda": 1, "peso_problematica": 2.0, "puntaje_celda": 2.0, "es_meta_pcsp": false, "equipo": "Motoristas", "tamano_grilla_m": 400 }, "geometry": { "type": "Polygon", "coordinates": [ [ [ -70.769643585514771, -33.491697754611465 ], [ -70.769570214968397, -33.488091614182359 ], [ -70.773873941850113, -33.48803006705554 ], [ -70.773947490611292, -33.491636199114133 ], [ -70.769643585514771, -33.491697754611465 ] ] ] } },
{ "type": "Feature", "properties": { "cuadrante": "216B", "grid_id": "G01377", "problematica_pcsp": "Amenazas o riña", "casos_problematica_celda": 1, "peso_problematica": 2.0, "puntaje_celda": 2.0, "es_meta_pcsp": false, "equipo": "Motoristas", "tamano_grilla_m": 400 }, "geometry": { "type": "Polygon", "coordinates": [ [ [ -70.752427834818079, -33.491942482786001 ], [ -70.752355177152822, -33.48833630907793 ], [ -70.756658956086625, -33.488275359398834 ], [ -70.75673179197544, -33.491881524817614 ], [ -70.752427834818079, -33.491942482786001 ] ] ] } },
{ "type": "Feature", "properties": { "cuadrante": "216B", "grid_id": "G01213", "problematica_pcsp": "Lesiones", "casos_problematica_celda": 1, "peso_problematica": 2.0, "puntaje_celda": 2.0, "es_meta_pcsp": false, "equipo": "Motoristas", "tamano_grilla_m": 400 }, "geometry": { "type": "Polygon", "coordinates": [ [ [ -70.773873941850113, -33.48803006705554 ], [ -70.773800406181195, -33.484423932752229 ], [ -70.778103941789738, -33.484362244657383 ], [ -70.778177655639553, -33.487968370570577 ], [ -70.773873941850113, -33.48803006705554 ] ] ] } },
{ "type": "Feature", "properties": { "cuadrante": "216B", "grid_id": "G01245", "problematica_pcsp": "Robo de vehículo motorizado", "casos_problematica_celda": 1, "peso_problematica": 2.0, "puntaje_celda": 2.0, "es_meta_pcsp": false, "equipo": "Motoristas", "tamano_grilla_m": 400 }, "geometry": { "type": "Polygon", "coordinates": [ [ [ -70.769643585514771, -33.491697754611465 ], [ -70.769570214968397, -33.488091614182359 ], [ -70.773873941850113, -33.48803006705554 ], [ -70.773947490611292, -33.491636199114133 ], [ -70.769643585514771, -33.491697754611465 ] ] ] } },
{ "type": "Feature", "properties": { "cuadrante": "216B", "grid_id": "G01311", "problematica_pcsp": "Robo en lugar habitado", "casos_problematica_celda": 2, "peso_problematica": 10.0, "puntaje_celda": 20.0, "es_meta_pcsp": true, "equipo": "Motoristas", "tamano_grilla_m": 400 }, "geometry": { "type": "Polygon", "coordinates": [ [ [ -70.761035736165155, -33.491820417464716 ], [ -70.760962722054956, -33.488214260355527 ], [ -70.765266475026124, -33.488153011949528 ], [ -70.765339667355505, -33.491759160728826 ], [ -70.761035736165155, -33.491820417464716 ] ] ] } },
{ "type": "Feature", "properties": { "cuadrante": "216B", "grid_id": "G01313", "problematica_pcsp": "Robo en lugar habitado", "casos_problematica_celda": 1, "peso_problematica": 10.0, "puntaje_celda": 10.0, "es_meta_pcsp": true, "equipo": "Motoristas", "tamano_grilla_m": 400 }, "geometry": { "type": "Polygon", "coordinates": [ [ [ -70.760889720941947, -33.48460810100368 ], [ -70.760816732823912, -33.481001939409296 ], [ -70.765120129451788, -33.480940707661063 ], [ -70.765193295725609, -33.484546860926898 ], [ -70.760889720941947, -33.48460810100368 ] ] ] } },
{ "type": "Feature", "properties": { "cuadrante": "216B", "grid_id": "G01280", "problematica_pcsp": "Robos violentos", "casos_problematica_celda": 1, "peso_problematica": 10.0, "puntaje_celda": 10.0, "es_meta_pcsp": true, "equipo": "Motoristas", "tamano_grilla_m": 400 }, "geometry": { "type": "Polygon", "coordinates": [ [ [ -70.765193295725609, -33.484546860926898 ], [ -70.765120129451788, -33.480940707661063 ], [ -70.769423513055145, -33.480879326592238 ], [ -70.769496857482579, -33.484485471509252 ], [ -70.765193295725609, -33.484546860926898 ] ] ] } },
{ "type": "Feature", "properties": { "cuadrante": "217A", "grid_id": "G01439", "problematica_pcsp": "Alcohol y drogas en vía pública", "casos_problematica_celda": 1, "peso_problematica": 10.0, "puntaje_celda": 10.0, "es_meta_pcsp": true, "equipo": "Móviles", "tamano_grilla_m": 400 }, "geometry": { "type": "Polygon", "coordinates": [ [ [ -70.744109215320833, -33.506488689063552 ], [ -70.744036862606009, -33.502882507799143 ], [ -70.748341380477555, -33.502821823854205 ], [ -70.748413911547104, -33.506427996867245 ], [ -70.744109215320833, -33.506488689063552 ] ] ] } },
{ "type": "Feature", "properties": { "cuadrante": "217A", "grid_id": "G01376", "problematica_pcsp": "Amenazas o riña", "casos_problematica_celda": 1, "peso_problematica": 2.0, "puntaje_celda": 2.0, "es_meta_pcsp": false, "equipo": "Móviles", "tamano_grilla_m": 400 }, "geometry": { "type": "Polygon", "coordinates": [ [ [ -70.752500505419306, -33.495548654252602 ], [ -70.752427834818079, -33.491942482786001 ], [ -70.75673179197544, -33.491881524817614 ], [ -70.756804640831916, -33.495487687994242 ], [ -70.752500505419306, -33.495548654252602 ] ] ] } },
{ "type": "Feature", "properties": { "cuadrante": "217A", "grid_id": "G01408", "problematica_pcsp": "Amenazas o riña", "casos_problematica_celda": 1, "peso_problematica": 2.0, "puntaje_celda": 2.0, "es_meta_pcsp": false, "equipo": "Móviles", "tamano_grilla_m": 400 }, "geometry": { "type": "Polygon", "coordinates": [ [ [ -70.748268862318753, -33.499215648599957 ], [ -70.748196357068537, -33.495609471104636 ], [ -70.752500505419306, -33.495548654252602 ], [ -70.75257318895865, -33.499154823477582 ], [ -70.748268862318753, -33.499215648599957 ] ] ] } },
{ "type": "Feature", "properties": { "cuadrante": "217A", "grid_id": "G01376", "problematica_pcsp": "Lesiones", "casos_problematica_celda": 1, "peso_problematica": 2.0, "puntaje_celda": 2.0, "es_meta_pcsp": false, "equipo": "Móviles", "tamano_grilla_m": 400 }, "geometry": { "type": "Polygon", "coordinates": [ [ [ -70.752500505419306, -33.495548654252602 ], [ -70.752427834818079, -33.491942482786001 ], [ -70.75673179197544, -33.491881524817614 ], [ -70.756804640831916, -33.495487687994242 ], [ -70.752500505419306, -33.495548654252602 ] ] ] } },
{ "type": "Feature", "properties": { "cuadrante": "217A", "grid_id": "G01441", "problematica_pcsp": "Lesiones", "casos_problematica_celda": 1, "peso_problematica": 2.0, "puntaje_celda": 2.0, "es_meta_pcsp": false, "equipo": "Móviles", "tamano_grilla_m": 400 }, "geometry": { "type": "Polygon", "coordinates": [ [ [ -70.743964522770241, -33.499276324294193 ], [ -70.743892195811355, -33.49567013854886 ], [ -70.748196357068537, -33.495609471104636 ], [ -70.748268862318753, -33.499215648599957 ], [ -70.743964522770241, -33.499276324294193 ] ] ] } },
{ "type": "Feature", "properties": { "cuadrante": "217A", "grid_id": "G01376", "problematica_pcsp": "Robo en lugar habitado", "casos_problematica_celda": 1, "peso_problematica": 10.0, "puntaje_celda": 10.0, "es_meta_pcsp": true, "equipo": "Móviles", "tamano_grilla_m": 400 }, "geometry": { "type": "Polygon", "coordinates": [ [ [ -70.752500505419306, -33.495548654252602 ], [ -70.752427834818079, -33.491942482786001 ], [ -70.75673179197544, -33.491881524817614 ], [ -70.756804640831916, -33.495487687994242 ], [ -70.752500505419306, -33.495548654252602 ] ] ] } },
{ "type": "Feature", "properties": { "cuadrante": "217A", "grid_id": "G01408", "problematica_pcsp": "Robo en lugar habitado", "casos_problematica_celda": 1, "peso_problematica": 10.0, "puntaje_celda": 10.0, "es_meta_pcsp": true, "equipo": "Móviles", "tamano_grilla_m": 400 }, "geometry": { "type": "Polygon", "coordinates": [ [ [ -70.748268862318753, -33.499215648599957 ], [ -70.748196357068537, -33.495609471104636 ], [ -70.752500505419306, -33.495548654252602 ], [ -70.75257318895865, -33.499154823477582 ], [ -70.748268862318753, -33.499215648599957 ] ] ] } },
{ "type": "Feature", "properties": { "cuadrante": "217A", "grid_id": "G01373", "problematica_pcsp": "Robo por sorpresa", "casos_problematica_celda": 1, "peso_problematica": 2.0, "puntaje_celda": 2.0, "es_meta_pcsp": false, "equipo": "Móviles", "tamano_grilla_m": 400 }, "geometry": { "type": "Polygon", "coordinates": [ [ [ -70.752718594860454, -33.506367155202192 ], [ -70.752645885438312, -33.502760990460828 ], [ -70.756950377456576, -33.50270000762054 ], [ -70.757023265229122, -33.506306164069905 ], [ -70.752718594860454, -33.506367155202192 ] ] ] } },
{ "type": "Feature", "properties": { "cuadrante": "217A", "grid_id": "G01408", "problematica_pcsp": "Robos violentos", "casos_problematica_celda": 1, "peso_problematica": 10.0, "puntaje_celda": 10.0, "es_meta_pcsp": true, "equipo": "Móviles", "tamano_grilla_m": 400 }, "geometry": { "type": "Polygon", "coordinates": [ [ [ -70.748268862318753, -33.499215648599957 ], [ -70.748196357068537, -33.495609471104636 ], [ -70.752500505419306, -33.495548654252602 ], [ -70.75257318895865, -33.499154823477582 ], [ -70.748268862318753, -33.499215648599957 ] ] ] } },
{ "type": "Feature", "properties": { "cuadrante": "217A", "grid_id": "G01409", "problematica_pcsp": "Robos violentos", "casos_problematica_celda": 1, "peso_problematica": 10.0, "puntaje_celda": 10.0, "es_meta_pcsp": true, "equipo": "Móviles", "tamano_grilla_m": 400 }, "geometry": { "type": "Polygon", "coordinates": [ [ [ -70.748196357068537, -33.495609471104636 ], [ -70.748123864724761, -33.492003291368377 ], [ -70.752427834818079, -33.491942482786001 ], [ -70.752500505419306, -33.495548654252602 ], [ -70.748196357068537, -33.495609471104636 ] ] ] } },
{ "type": "Feature", "properties": { "cuadrante": "217B", "grid_id": "G01368", "problematica_pcsp": "Alcohol y drogas en vía pública", "casos_problematica_celda": 1, "peso_problematica": 10.0, "puntaje_celda": 10.0, "es_meta_pcsp": true, "equipo": "Motoristas", "tamano_grilla_m": 400 }, "geometry": { "type": "Polygon", "coordinates": [ [ [ -70.753082336184718, -33.52439794527573 ], [ -70.753009562017468, -33.520791791745921 ], [ -70.757314946105041, -33.520730767438955 ], [ -70.757387898781374, -33.524336912673412 ], [ -70.753082336184718, -33.52439794527573 ] ] ] } },
{ "type": "Feature", "properties": { "cuadrante": "217B", "grid_id": "G01437", "problematica_pcsp": "Alcohol y drogas en vía pública", "casos_problematica_celda": 1, "peso_problematica": 10.0, "puntaje_celda": 10.0, "es_meta_pcsp": true, "equipo": "Motoristas", "tamano_grilla_m": 400 }, "geometry": { "type": "Polygon", "coordinates": [ [ [ -70.744253959396275, -33.513701044870139 ], [ -70.744181580916873, -33.510094868087258 ], [ -70.748486455529616, -33.510034167638914 ], [ -70.748559012427251, -33.513640336169082 ], [ -70.744253959396275, -33.513701044870139 ] ] ] } },
{ "type": "Feature", "properties": { "cuadrante": "217B", "grid_id": "G01368", "problematica_pcsp": "Amenazas con armas", "casos_problematica_celda": 1, "peso_problematica": 2.0, "puntaje_celda": 2.0, "es_meta_pcsp": false, "equipo": "Motoristas", "tamano_grilla_m": 400 }, "geometry": { "type": "Polygon", "coordinates": [ [ [ -70.753082336184718, -33.52439794527573 ], [ -70.753009562017468, -33.520791791745921 ], [ -70.757314946105041, -33.520730767438955 ], [ -70.757387898781374, -33.524336912673412 ], [ -70.753082336184718, -33.52439794527573 ] ] ] } },
{ "type": "Feature", "properties": { "cuadrante": "217B", "grid_id": "G01367", "problematica_pcsp": "Amenazas o riña", "casos_problematica_celda": 1, "peso_problematica": 2.0, "puntaje_celda": 2.0, "es_meta_pcsp": false, "equipo": "Motoristas", "tamano_grilla_m": 400 }, "geometry": { "type": "Polygon", "coordinates": [ [ [ -70.75315512330755, -33.52800409656281 ], [ -70.753082336184718, -33.52439794527573 ], [ -70.757387898781374, -33.524336912673412 ], [ -70.757460864445022, -33.527943055664451 ], [ -70.75315512330755, -33.52800409656281 ] ] ] } },
{ "type": "Feature", "properties": { "cuadrante": "217B", "grid_id": "G01469", "problematica_pcsp": "Amenazas o riña", "casos_problematica_celda": 1, "peso_problematica": 2.0, "puntaje_celda": 2.0, "es_meta_pcsp": false, "equipo": "Motoristas", "tamano_grilla_m": 400 }, "geometry": { "type": "Polygon", "coordinates": [ [ [ -70.740021106392618, -33.517367786835315 ], [ -70.739948893479763, -33.513761604060321 ], [ -70.744253959396275, -33.513701044870139 ], [ -70.744326350761241, -33.517307219412068 ], [ -70.740021106392618, -33.517367786835315 ] ] ] } },
{ "type": "Feature", "properties": { "cuadrante": "217B", "grid_id": "G01368", "problematica_pcsp": "Lesiones", "casos_problematica_celda": 1, "peso_problematica": 2.0, "puntaje_celda": 2.0, "es_meta_pcsp": false, "equipo": "Motoristas", "tamano_grilla_m": 400 }, "geometry": { "type": "Polygon", "coordinates": [ [ [ -70.753082336184718, -33.52439794527573 ], [ -70.753009562017468, -33.520791791745921 ], [ -70.757314946105041, -33.520730767438955 ], [ -70.757387898781374, -33.524336912673412 ], [ -70.753082336184718, -33.52439794527573 ] ] ] } },
{ "type": "Feature", "properties": { "cuadrante": "217B", "grid_id": "G01367", "problematica_pcsp": "Porte de arma cortante o punzante", "casos_problematica_celda": 1, "peso_problematica": 2.0, "puntaje_celda": 2.0, "es_meta_pcsp": false, "equipo": "Motoristas", "tamano_grilla_m": 400 }, "geometry": { "type": "Polygon", "coordinates": [ [ [ -70.75315512330755, -33.52800409656281 ], [ -70.753082336184718, -33.52439794527573 ], [ -70.757387898781374, -33.524336912673412 ], [ -70.757460864445022, -33.527943055664451 ], [ -70.75315512330755, -33.52800409656281 ] ] ] } },
{ "type": "Feature", "properties": { "cuadrante": "217B", "grid_id": "G01404", "problematica_pcsp": "Robo de vehículo motorizado", "casos_problematica_celda": 1, "peso_problematica": 2.0, "puntaje_celda": 2.0, "es_meta_pcsp": false, "equipo": "Motoristas", "tamano_grilla_m": 400 }, "geometry": { "type": "Polygon", "coordinates": [ [ [ -70.748559012427251, -33.513640336169082 ], [ -70.748486455529616, -33.510034167638914 ], [ -70.752791317227263, -33.50997331770153 ], [ -70.752864052540914, -33.513579477958679 ], [ -70.748559012427251, -33.513640336169082 ] ] ] } },
{ "type": "Feature", "properties": { "cuadrante": "217B", "grid_id": "G01569", "problematica_pcsp": "Robo de vehículo motorizado", "casos_problematica_celda": 1, "peso_problematica": 2.0, "puntaje_celda": 2.0, "es_meta_pcsp": false, "equipo": "Motoristas", "tamano_grilla_m": 400 }, "geometry": { "type": "Polygon", "coordinates": [ [ [ -70.727033618734296, -33.513942384550731 ], [ -70.726961953949342, -33.510336174960152 ], [ -70.731266879905235, -33.510276072482988 ], [ -70.731338723117034, -33.513882273902119 ], [ -70.727033618734296, -33.513942384550731 ] ] ] } },
{ "type": "Feature", "properties": { "cuadrante": "217B", "grid_id": "G01403", "problematica_pcsp": "Robo en lugar habitado", "casos_problematica_celda": 1, "peso_problematica": 10.0, "puntaje_celda": 10.0, "es_meta_pcsp": true, "equipo": "Motoristas", "tamano_grilla_m": 400 }, "geometry": { "type": "Polygon", "coordinates": [ [ [ -70.74863158224214, -33.517246502457638 ], [ -70.748559012427251, -33.513640336169082 ], [ -70.752864052540914, -33.513579477958679 ], [ -70.752936800803596, -33.517185635973526 ], [ -70.74863158224214, -33.517246502457638 ] ] ] } },
{ "type": "Feature", "properties": { "cuadrante": "217B", "grid_id": "G01569", "problematica_pcsp": "Robo por sorpresa", "casos_problematica_celda": 1, "peso_problematica": 2.0, "puntaje_celda": 2.0, "es_meta_pcsp": false, "equipo": "Motoristas", "tamano_grilla_m": 400 }, "geometry": { "type": "Polygon", "coordinates": [ [ [ -70.727033618734296, -33.513942384550731 ], [ -70.726961953949342, -33.510336174960152 ], [ -70.731266879905235, -33.510276072482988 ], [ -70.731338723117034, -33.513882273902119 ], [ -70.727033618734296, -33.513942384550731 ] ] ] } },
{ "type": "Feature", "properties": { "cuadrante": "218A", "grid_id": "G01309", "problematica_pcsp": "Amenazas con armas", "casos_problematica_celda": 3, "peso_problematica": 2.0, "puntaje_celda": 6.0, "es_meta_pcsp": false, "equipo": "Móviles", "tamano_grilla_m": 400 }, "geometry": { "type": "Polygon", "coordinates": [ [ [ -70.76118180338581, -33.499032724954489 ], [ -70.761108763274706, -33.495426572331091 ], [ -70.765412872715942, -33.495365307264628 ], [ -70.765486091109651, -33.498971451556791 ], [ -70.76118180338581, -33.499032724954489 ] ] ] } },
{ "type": "Feature", "properties": { "cuadrante": "218A", "grid_id": "G01243", "problematica_pcsp": "Amenazas con armas", "casos_problematica_celda": 1, "peso_problematica": 2.0, "puntaje_celda": 2.0, "es_meta_pcsp": false, "equipo": "Móviles", "tamano_grilla_m": 400 }, "geometry": { "type": "Polygon", "coordinates": [ [ [ -70.769790365798031, -33.498910028737001 ], [ -70.76971696912392, -33.4953038927964 ], [ -70.774021052466935, -33.495242328927894 ], [ -70.774094627419245, -33.498848456496646 ], [ -70.769790365798031, -33.498910028737001 ] ] ] } },
{ "type": "Feature", "properties": { "cuadrante": "218A", "grid_id": "G01273", "problematica_pcsp": "Amenazas o riña", "casos_problematica_celda": 1, "peso_problematica": 2.0, "puntaje_celda": 2.0, "es_meta_pcsp": false, "equipo": "Móviles", "tamano_grilla_m": 400 }, "geometry": { "type": "Polygon", "coordinates": [ [ [ -70.76570582451221, -33.509789870970089 ], [ -70.765632567005582, -33.506183733409664 ], [ -70.769937198349936, -33.506122293884737 ], [ -70.770010634232108, -33.509728423091566 ], [ -70.76570582451221, -33.509789870970089 ] ] ] } },
{ "type": "Feature", "properties": { "cuadrante": "218A", "grid_id": "G01341", "problematica_pcsp": "Amenazas o riña", "casos_problematica_celda": 1, "peso_problematica": 2.0, "puntaje_celda": 2.0, "es_meta_pcsp": false, "equipo": "Móviles", "tamano_grilla_m": 400 }, "geometry": { "type": "Polygon", "coordinates": [ [ [ -70.756950377456576, -33.50270000762054 ], [ -70.756877502658241, -33.499093848928595 ], [ -70.76118180338581, -33.499032724954489 ], [ -70.761254856500656, -33.502638875334803 ], [ -70.756950377456576, -33.50270000762054 ] ] ] } },
{ "type": "Feature", "properties": { "cuadrante": "218A", "grid_id": "G01342", "problematica_pcsp": "Robo de vehículo motorizado", "casos_problematica_celda": 1, "peso_problematica": 2.0, "puntaje_celda": 2.0, "es_meta_pcsp": false, "equipo": "Móviles", "tamano_grilla_m": 400 }, "geometry": { "type": "Polygon", "coordinates": [ [ [ -70.756877502658241, -33.499093848928595 ], [ -70.756804640831916, -33.495487687994242 ], [ -70.761108763274706, -33.495426572331091 ], [ -70.76118180338581, -33.499032724954489 ], [ -70.756877502658241, -33.499093848928595 ] ] ] } },
{ "type": "Feature", "properties": { "cuadrante": "218A", "grid_id": "G01343", "problematica_pcsp": "Robo de vehículo motorizado", "casos_problematica_celda": 1, "peso_problematica": 2.0, "puntaje_celda": 2.0, "es_meta_pcsp": false, "equipo": "Móviles", "tamano_grilla_m": 400 }, "geometry": { "type": "Polygon", "coordinates": [ [ [ -70.756804640831916, -33.495487687994242 ], [ -70.75673179197544, -33.491881524817614 ], [ -70.761035736165155, -33.491820417464716 ], [ -70.761108763274706, -33.495426572331091 ], [ -70.756804640831916, -33.495487687994242 ] ] ] } },
{ "type": "Feature", "properties": { "cuadrante": "218A", "grid_id": "G01241", "problematica_pcsp": "Robo en lugar habitado", "casos_problematica_celda": 1, "peso_problematica": 10.0, "puntaje_celda": 10.0, "es_meta_pcsp": true, "equipo": "Móviles", "tamano_grilla_m": 400 }, "geometry": { "type": "Polygon", "coordinates": [ [ [ -70.769937198349936, -33.506122293884737 ], [ -70.769863775539292, -33.50251616243316 ], [ -70.774168215470439, -33.502454581820274 ], [ -70.774241816622705, -33.506060704898623 ], [ -70.769937198349936, -33.506122293884737 ] ] ] } },
{ "type": "Feature", "properties": { "cuadrante": "218A", "grid_id": "G01273", "problematica_pcsp": "Robo en lugar habitado", "casos_problematica_celda": 1, "peso_problematica": 10.0, "puntaje_celda": 10.0, "es_meta_pcsp": true, "equipo": "Móviles", "tamano_grilla_m": 400 }, "geometry": { "type": "Polygon", "coordinates": [ [ [ -70.76570582451221, -33.509789870970089 ], [ -70.765632567005582, -33.506183733409664 ], [ -70.769937198349936, -33.506122293884737 ], [ -70.770010634232108, -33.509728423091566 ], [ -70.76570582451221, -33.509789870970089 ] ] ] } },
{ "type": "Feature", "properties": { "cuadrante": "218A", "grid_id": "G01342", "problematica_pcsp": "Robo por sorpresa", "casos_problematica_celda": 1, "peso_problematica": 2.0, "puntaje_celda": 2.0, "es_meta_pcsp": false, "equipo": "Móviles", "tamano_grilla_m": 400 }, "geometry": { "type": "Polygon", "coordinates": [ [ [ -70.756877502658241, -33.499093848928595 ], [ -70.756804640831916, -33.495487687994242 ], [ -70.761108763274706, -33.495426572331091 ], [ -70.76118180338581, -33.499032724954489 ], [ -70.756877502658241, -33.499093848928595 ] ] ] } },
{ "type": "Feature", "properties": { "cuadrante": "218A", "grid_id": "G01242", "problematica_pcsp": "Robos violentos", "casos_problematica_celda": 1, "peso_problematica": 10.0, "puntaje_celda": 10.0, "es_meta_pcsp": true, "equipo": "Móviles", "tamano_grilla_m": 400 }, "geometry": { "type": "Polygon", "coordinates": [ [ [ -70.769863775539292, -33.50251616243316 ], [ -70.769790365798031, -33.498910028737001 ], [ -70.774094627419245, -33.498848456496646 ], [ -70.774168215470439, -33.502454581820274 ], [ -70.769863775539292, -33.50251616243316 ] ] ] } },
{ "type": "Feature", "properties": { "cuadrante": "218A", "grid_id": "G01340", "problematica_pcsp": "Robos violentos", "casos_problematica_celda": 1, "peso_problematica": 10.0, "puntaje_celda": 10.0, "es_meta_pcsp": true, "equipo": "Móviles", "tamano_grilla_m": 400 }, "geometry": { "type": "Polygon", "coordinates": [ [ [ -70.757023265229122, -33.506306164069905 ], [ -70.756950377456576, -33.50270000762054 ], [ -70.761254856500656, -33.502638875334803 ], [ -70.761327922621419, -33.506245023471898 ], [ -70.757023265229122, -33.506306164069905 ] ] ] } },
{ "type": "Feature", "properties": { "cuadrante": "218B", "grid_id": "G01272", "problematica_pcsp": "Amenazas con armas", "casos_problematica_celda": 2, "peso_problematica": 2.0, "puntaje_celda": 4.0, "es_meta_pcsp": false, "equipo": "Motoristas", "tamano_grilla_m": 400 }, "geometry": { "type": "Polygon", "coordinates": [ [ [ -70.765779095060878, -33.513396006286314 ], [ -70.76570582451221, -33.509789870970089 ], [ -70.770010634232108, -33.509728423091566 ], [ -70.770084083188053, -33.513334550053514 ], [ -70.765779095060878, -33.513396006286314 ] ] ] } },
{ "type": "Feature", "properties": { "cuadrante": "218B", "grid_id": "G01303", "problematica_pcsp": "Amenazas o riña", "casos_problematica_celda": 1, "peso_problematica": 2.0, "puntaje_celda": 2.0, "es_meta_pcsp": false, "equipo": "Motoristas", "tamano_grilla_m": 400 }, "geometry": { "type": "Polygon", "coordinates": [ [ [ -70.761620317207488, -33.520669593585005 ], [ -70.761547199041132, -33.517063454422299 ], [ -70.765852378653761, -33.517002139358191 ], [ -70.765925675293062, -33.520608270185598 ], [ -70.761620317207488, -33.520669593585005 ] ] ] } },
{ "type": "Feature", "properties": { "cuadrante": "218B", "grid_id": "G01305", "problematica_pcsp": "Amenazas o riña", "casos_problematica_celda": 1, "peso_problematica": 2.0, "puntaje_celda": 2.0, "es_meta_pcsp": false, "equipo": "Motoristas", "tamano_grilla_m": 400 }, "geometry": { "type": "Polygon", "coordinates": [ [ [ -70.761474093889461, -33.51345731301577 ], [ -70.761401001750286, -33.509851169365596 ], [ -70.76570582451221, -33.509789870970089 ], [ -70.765779095060878, -33.513396006286314 ], [ -70.761474093889461, -33.51345731301577 ] ] ] } },
{ "type": "Feature", "properties": { "cuadrante": "218B", "grid_id": "G01335", "problematica_pcsp": "Lesiones", "casos_problematica_celda": 1, "peso_problematica": 2.0, "puntaje_celda": 2.0, "es_meta_pcsp": false, "equipo": "Motoristas", "tamano_grilla_m": 400 }, "geometry": { "type": "Polygon", "coordinates": [ [ [ -70.757387898781374, -33.524336912673412 ], [ -70.757314946105041, -33.520730767438955 ], [ -70.761620317207488, -33.520669593585005 ], [ -70.761693448390702, -33.524275730503788 ], [ -70.757387898781374, -33.524336912673412 ] ] ] } },
{ "type": "Feature", "properties": { "cuadrante": "218B", "grid_id": "G01237", "problematica_pcsp": "Porte de arma cortante o punzante", "casos_problematica_celda": 1, "peso_problematica": 2.0, "puntaje_celda": 2.0, "es_meta_pcsp": false, "equipo": "Motoristas", "tamano_grilla_m": 400 }, "geometry": { "type": "Polygon", "coordinates": [ [ [ -70.770231020330016, -33.520546797242233 ], [ -70.770157545219959, -33.51694067477046 ], [ -70.774462698707993, -33.516879060660607 ], [ -70.774536352286617, -33.520485174756431 ], [ -70.770231020330016, -33.520546797242233 ] ] ] } },
{ "type": "Feature", "properties": { "cuadrante": "218B", "grid_id": "G01272", "problematica_pcsp": "Porte de arma cortante o punzante", "casos_problematica_celda": 1, "peso_problematica": 2.0, "puntaje_celda": 2.0, "es_meta_pcsp": false, "equipo": "Motoristas", "tamano_grilla_m": 400 }, "geometry": { "type": "Polygon", "coordinates": [ [ [ -70.765779095060878, -33.513396006286314 ], [ -70.76570582451221, -33.509789870970089 ], [ -70.770010634232108, -33.509728423091566 ], [ -70.770084083188053, -33.513334550053514 ], [ -70.765779095060878, -33.513396006286314 ] ] ] } },
{ "type": "Feature", "properties": { "cuadrante": "218B", "grid_id": "G01302", "problematica_pcsp": "Robo de vehículo motorizado", "casos_problematica_celda": 1, "peso_problematica": 2.0, "puntaje_celda": 2.0, "es_meta_pcsp": false, "equipo": "Motoristas", "tamano_grilla_m": 400 }, "geometry": { "type": "Polygon", "coordinates": [ [ [ -70.761693448390702, -33.524275730503788 ], [ -70.761620317207488, -33.520669593585005 ], [ -70.765925675293062, -33.520608270185598 ], [ -70.765998984980982, -33.524214398768386 ], [ -70.761693448390702, -33.524275730503788 ] ] ] } },
{ "type": "Feature", "properties": { "cuadrante": "218B", "grid_id": "G01237", "problematica_pcsp": "Robo en lugar habitado", "casos_problematica_celda": 1, "peso_problematica": 10.0, "puntaje_celda": 10.0, "es_meta_pcsp": true, "equipo": "Motoristas", "tamano_grilla_m": 400 }, "geometry": { "type": "Polygon", "coordinates": [ [ [ -70.770231020330016, -33.520546797242233 ], [ -70.770157545219959, -33.51694067477046 ], [ -70.774462698707993, -33.516879060660607 ], [ -70.774536352286617, -33.520485174756431 ], [ -70.770231020330016, -33.520546797242233 ] ] ] } },
{ "type": "Feature", "properties": { "cuadrante": "218C", "grid_id": "218C_D00259", "problematica_pcsp": "Alcohol y drogas en vía pública", "casos_problematica_celda": 1, "peso_problematica": 10.0, "puntaje_celda": 10.0, "es_meta_pcsp": true, "equipo": "Delta", "tamano_grilla_m": 50 }, "geometry": { "type": "Polygon", "coordinates": [ [ [ -70.757114393193106, -33.51081385647781 ], [ -70.757105279484179, -33.510363087394715 ], [ -70.757643387453612, -33.510355451826072 ], [ -70.757652503950069, -33.510806220779408 ], [ -70.757114393193106, -33.51081385647781 ] ] ] } },
{ "type": "Feature", "properties": { "cuadrante": "218C", "grid_id": "218C_D00208", "problematica_pcsp": "Amenazas con armas", "casos_problematica_celda": 1, "peso_problematica": 2.0, "puntaje_celda": 2.0, "es_meta_pcsp": false, "equipo": "Delta", "tamano_grilla_m": 50 }, "geometry": { "type": "Polygon", "coordinates": [ [ [ -70.758701359249699, -33.509438636188975 ], [ -70.758692237787088, -33.50898786739014 ], [ -70.759230336785549, -33.508980225203864 ], [ -70.759239461035492, -33.509430993872826 ], [ -70.758701359249699, -33.509438636188975 ] ] ] } },
{ "type": "Feature", "properties": { "cuadrante": "218C", "grid_id": "218C_D00227", "problematica_pcsp": "Amenazas con armas", "casos_problematica_celda": 1, "peso_problematica": 2.0, "puntaje_celda": 2.0, "es_meta_pcsp": false, "equipo": "Delta", "tamano_grilla_m": 50 }, "geometry": { "type": "Polygon", "coordinates": [ [ [ -70.758154138585667, -33.508995507240783 ], [ -70.758145020113318, -33.508544738277052 ], [ -70.75868311652745, -33.508537098556253 ], [ -70.758692237787088, -33.50898786739014 ], [ -70.758154138585667, -33.508995507240783 ] ] ] } },
{ "type": "Feature", "properties": { "cuadrante": "218C", "grid_id": "218C_D00060", "problematica_pcsp": "Amenazas o riña", "casos_problematica_celda": 1, "peso_problematica": 2.0, "puntaje_celda": 2.0, "es_meta_pcsp": false, "equipo": "Delta", "tamano_grilla_m": 50 }, "geometry": { "type": "Polygon", "coordinates": [ [ [ -70.763042744927318, -33.511180502945614 ], [ -70.763033600352188, -33.510729735327118 ], [ -70.763571708874281, -33.510722073935121 ], [ -70.76358085623697, -33.511172841423424 ], [ -70.763042744927318, -33.511180502945614 ] ] ] } },
{ "type": "Feature", "properties": { "cuadrante": "218C", "grid_id": "218C_D00193", "problematica_pcsp": "Amenazas o riña", "casos_problematica_celda": 1, "peso_problematica": 2.0, "puntaje_celda": 2.0, "es_meta_pcsp": false, "equipo": "Delta", "tamano_grilla_m": 50 }, "geometry": { "type": "Polygon", "coordinates": [ [ [ -70.759212088894728, -33.508078687760772 ], [ -70.759202965253849, -33.507627918986657 ], [ -70.759741055687627, -33.507620274854474 ], [ -70.759750182115653, -33.508071043498688 ], [ -70.759212088894728, -33.508078687760772 ] ] ] } },
{ "type": "Feature", "properties": { "cuadrante": "218C", "grid_id": "218C_D00262", "problematica_pcsp": "Crímenes y simples delitos Ley de Armas", "casos_problematica_celda": 1, "peso_problematica": 2.0, "puntaje_celda": 2.0, "es_meta_pcsp": false, "equipo": "Delta", "tamano_grilla_m": 50 }, "geometry": { "type": "Polygon", "coordinates": [ [ [ -70.75708705267472, -33.509461549123394 ], [ -70.757077939574174, -33.509010779935174 ], [ -70.757616039181343, -33.509003144755795 ], [ -70.757625155069249, -33.509453913814262 ], [ -70.75708705267472, -33.509461549123394 ] ] ] } },
{ "type": "Feature", "properties": { "cuadrante": "218C", "grid_id": "218C_D00386", "problematica_pcsp": "Crímenes y simples delitos Ley de Armas", "casos_problematica_celda": 1, "peso_problematica": 2.0, "puntaje_celda": 2.0, "es_meta_pcsp": false, "equipo": "Delta", "tamano_grilla_m": 50 }, "geometry": { "type": "Polygon", "coordinates": [ [ [ -70.75333851802344, -33.510416470973794 ], [ -70.753329424029786, -33.509965700948463 ], [ -70.753867530629961, -33.509958081859679 ], [ -70.753876627411117, -33.510408851755543 ], [ -70.75333851802344, -33.510416470973794 ] ] ] } },
{ "type": "Feature", "properties": { "cuadrante": "218C", "grid_id": "218C_D00101", "problematica_pcsp": "Lesiones", "casos_problematica_celda": 2, "peso_problematica": 2.0, "puntaje_celda": 4.0, "es_meta_pcsp": false, "equipo": "Delta", "tamano_grilla_m": 50 }, "geometry": { "type": "Polygon", "coordinates": [ [ [ -70.761920828731121, -33.508941979238102 ], [ -70.761911690747851, -33.508491211184044 ], [ -70.76244978573996, -33.508483555114154 ], [ -70.762458926510476, -33.508934323038098 ], [ -70.761920828731121, -33.508941979238102 ] ] ] } },
{ "type": "Feature", "properties": { "cuadrante": "218C", "grid_id": "218C_D00205", "problematica_pcsp": "Lesiones", "casos_problematica_celda": 1, "peso_problematica": 2.0, "puntaje_celda": 2.0, "es_meta_pcsp": false, "equipo": "Delta", "tamano_grilla_m": 50 }, "geometry": { "type": "Polygon", "coordinates": [ [ [ -70.758728724855374, -33.510790942375216 ], [ -70.758719602783842, -33.51034017368152 ], [ -70.75925771014451, -33.510332531105618 ], [ -70.759266835003558, -33.510783299669441 ], [ -70.758728724855374, -33.510790942375216 ] ] ] } },
{ "type": "Feature", "properties": { "cuadrante": "218C", "grid_id": "218C_D00313", "problematica_pcsp": "Porte de arma cortante o punzante", "casos_problematica_celda": 2, "peso_problematica": 2.0, "puntaje_celda": 4.0, "es_meta_pcsp": false, "equipo": "Delta", "tamano_grilla_m": 50 }, "geometry": { "type": "Polygon", "coordinates": [ [ [ -70.755500059705668, -33.510836749558202 ], [ -70.755490954359388, -33.510385980086077 ], [ -70.756029062937017, -33.510378351524722 ], [ -70.756038171070841, -33.510829120867214 ], [ -70.755500059705668, -33.510836749558202 ] ] ] } },
{ "type": "Feature", "properties": { "cuadrante": "218C", "grid_id": "218C_D00259", "problematica_pcsp": "Robo de vehículo motorizado", "casos_problematica_celda": 1, "peso_problematica": 2.0, "puntaje_celda": 2.0, "es_meta_pcsp": false, "equipo": "Delta", "tamano_grilla_m": 50 }, "geometry": { "type": "Polygon", "coordinates": [ [ [ -70.757114393193106, -33.51081385647781 ], [ -70.757105279484179, -33.510363087394715 ], [ -70.757643387453612, -33.510355451826072 ], [ -70.757652503950069, -33.510806220779408 ], [ -70.757114393193106, -33.51081385647781 ] ] ] } },
{ "type": "Feature", "properties": { "cuadrante": "218C", "grid_id": "218C_D00137", "problematica_pcsp": "Robo en lugar habitado", "casos_problematica_celda": 1, "peso_problematica": 10.0, "puntaje_celda": 10.0, "es_meta_pcsp": true, "equipo": "Delta", "tamano_grilla_m": 50 }, "geometry": { "type": "Polygon", "coordinates": [ [ [ -70.760844632562467, -33.508957284631258 ], [ -70.760835500153732, -33.508506516317112 ], [ -70.761373595552442, -33.508498864918359 ], [ -70.761382730748437, -33.508949633102496 ], [ -70.760844632562467, -33.508957284631258 ] ] ] } },
{ "type": "Feature", "properties": { "cuadrante": "218C", "grid_id": "218C_D00169", "problematica_pcsp": "Robo en lugar habitado", "casos_problematica_celda": 1, "peso_problematica": 10.0, "puntaje_celda": 10.0, "es_meta_pcsp": true, "equipo": "Delta", "tamano_grilla_m": 50 }, "geometry": { "type": "Polygon", "coordinates": [ [ [ -70.759804944948726, -33.510775654627871 ], [ -70.759795817302134, -33.510324886193963 ], [ -70.760333924256656, -33.51031723894657 ], [ -70.760343054690765, -33.510768007250526 ], [ -70.759804944948726, -33.510775654627871 ] ] ] } },
{ "type": "Feature", "properties": { "cuadrante": "218C", "grid_id": "218C_D00172", "problematica_pcsp": "Robo por sorpresa", "casos_problematica_celda": 1, "peso_problematica": 2.0, "puntaje_celda": 2.0, "es_meta_pcsp": false, "equipo": "Delta", "tamano_grilla_m": 50 }, "geometry": { "type": "Polygon", "coordinates": [ [ [ -70.759777562618254, -33.509423349221009 ], [ -70.759768435580966, -33.508972580681949 ], [ -70.760306534173296, -33.508964933824416 ], [ -70.760315663997929, -33.509415702233525 ], [ -70.759777562618254, -33.509423349221009 ] ] ] } },
{ "type": "Feature", "properties": { "cuadrante": "218C", "grid_id": "218C_D00259", "problematica_pcsp": "Robo por sorpresa", "casos_problematica_celda": 1, "peso_problematica": 2.0, "puntaje_celda": 2.0, "es_meta_pcsp": false, "equipo": "Delta", "tamano_grilla_m": 50 }, "geometry": { "type": "Polygon", "coordinates": [ [ [ -70.757114393193106, -33.51081385647781 ], [ -70.757105279484179, -33.510363087394715 ], [ -70.757643387453612, -33.510355451826072 ], [ -70.757652503950069, -33.510806220779408 ], [ -70.757114393193106, -33.51081385647781 ] ] ] } },
{ "type": "Feature", "properties": { "cuadrante": "218C", "grid_id": "218C_D00269", "problematica_pcsp": "Robos violentos", "casos_problematica_celda": 1, "peso_problematica": 10.0, "puntaje_celda": 10.0, "es_meta_pcsp": true, "equipo": "Delta", "tamano_grilla_m": 50 }, "geometry": { "type": "Polygon", "coordinates": [ [ [ -70.757023265229122, -33.506306164069905 ], [ -70.757014153547956, -33.50585539463637 ], [ -70.75755223364537, -33.505847760365249 ], [ -70.75756134811347, -33.506298529669031 ], [ -70.757023265229122, -33.506306164069905 ] ] ] } },
{ "type": "Feature", "properties": { "cuadrante": "218C", "grid_id": "218C_D00313", "problematica_pcsp": "Robos violentos", "casos_problematica_celda": 1, "peso_problematica": 10.0, "puntaje_celda": 10.0, "es_meta_pcsp": true, "equipo": "Delta", "tamano_grilla_m": 50 }, "geometry": { "type": "Polygon", "coordinates": [ [ [ -70.755500059705668, -33.510836749558202 ], [ -70.755490954359388, -33.510385980086077 ], [ -70.756029062937017, -33.510378351524722 ], [ -70.756038171070841, -33.510829120867214 ], [ -70.755500059705668, -33.510836749558202 ] ] ] } },
{ "type": "Feature", "properties": { "cuadrante": "219", "grid_id": "G01207", "problematica_pcsp": "Alcohol y drogas en vía pública", "casos_problematica_celda": 1, "peso_problematica": 10.0, "puntaje_celda": 10.0, "es_meta_pcsp": true, "equipo": "Móviles", "tamano_grilla_m": 400 }, "geometry": { "type": "Polygon", "coordinates": [ [ [ -70.774315430878247, -33.509666825731557 ], [ -70.774241816622705, -33.506060704898623 ], [ -70.7785464217922, -33.50599896645285 ], [ -70.778620214418908, -33.509605078891582 ], [ -70.774315430878247, -33.509666825731557 ] ] ] } },
{ "type": "Feature", "properties": { "cuadrante": "219", "grid_id": "G01171", "problematica_pcsp": "Crímenes y simples delitos Ley de Armas", "casos_problematica_celda": 1, "peso_problematica": 2.0, "puntaje_celda": 2.0, "es_meta_pcsp": false, "equipo": "Móviles", "tamano_grilla_m": 400 }, "geometry": { "type": "Polygon", "coordinates": [ [ [ -70.778841671131104, -33.52042340272974 ], [ -70.778767839086129, -33.516817297030158 ], [ -70.783072966322649, -33.516755383880664 ], [ -70.783146976831745, -33.520361481163661 ], [ -70.778841671131104, -33.52042340272974 ] ] ] } },
{ "type": "Feature", "properties": { "cuadrante": "219", "grid_id": "G01172", "problematica_pcsp": "Crímenes y simples delitos Ley de Armas", "casos_problematica_celda": 1, "peso_problematica": 2.0, "puntaje_celda": 2.0, "es_meta_pcsp": false, "equipo": "Móviles", "tamano_grilla_m": 400 }, "geometry": { "type": "Polygon", "coordinates": [ [ [ -70.778767839086129, -33.516817297030158 ], [ -70.778694020182812, -33.51321118908406 ], [ -70.782998968986917, -33.513149284350433 ], [ -70.783072966322649, -33.516755383880664 ], [ -70.778767839086129, -33.516817297030158 ] ] ] } },
{ "type": "Feature", "properties": { "cuadrante": "219", "grid_id": "G01171", "problematica_pcsp": "Lesiones", "casos_problematica_celda": 2, "peso_problematica": 2.0, "puntaje_celda": 4.0, "es_meta_pcsp": false, "equipo": "Móviles", "tamano_grilla_m": 400 }, "geometry": { "type": "Polygon", "coordinates": [ [ [ -70.778841671131104, -33.52042340272974 ], [ -70.778767839086129, -33.516817297030158 ], [ -70.783072966322649, -33.516755383880664 ], [ -70.783146976831745, -33.520361481163661 ], [ -70.778841671131104, -33.52042340272974 ] ] ] } },
{ "type": "Feature", "properties": { "cuadrante": "219", "grid_id": "G01139", "problematica_pcsp": "Lesiones", "casos_problematica_celda": 1, "peso_problematica": 2.0, "puntaje_celda": 2.0, "es_meta_pcsp": false, "equipo": "Móviles", "tamano_grilla_m": 400 }, "geometry": { "type": "Polygon", "coordinates": [ [ [ -70.783072966322649, -33.516755383880664 ], [ -70.782998968986917, -33.513149284350433 ], [ -70.787303904619876, -33.513087230119595 ], [ -70.787378080385778, -33.516693321213623 ], [ -70.783072966322649, -33.516755383880664 ] ] ] } },
{ "type": "Feature", "properties": { "cuadrante": "219", "grid_id": "G01204", "problematica_pcsp": "Porte de arma cortante o punzante", "casos_problematica_celda": 1, "peso_problematica": 2.0, "puntaje_celda": 2.0, "es_meta_pcsp": false, "equipo": "Móviles", "tamano_grilla_m": 400 }, "geometry": { "type": "Polygon", "coordinates": [ [ [ -70.774536352286617, -33.520485174756431 ], [ -70.774462698707993, -33.516879060660607 ], [ -70.778767839086129, -33.516817297030158 ], [ -70.778841671131104, -33.52042340272974 ], [ -70.774536352286617, -33.520485174756431 ] ] ] } },
{ "type": "Feature", "properties": { "cuadrante": "219", "grid_id": "G01210", "problematica_pcsp": "Porte de arma cortante o punzante", "casos_problematica_celda": 1, "peso_problematica": 2.0, "puntaje_celda": 2.0, "es_meta_pcsp": false, "equipo": "Móviles", "tamano_grilla_m": 400 }, "geometry": { "type": "Polygon", "coordinates": [ [ [ -70.774094627419245, -33.498848456496646 ], [ -70.774021052466935, -33.495242328927894 ], [ -70.778325122713284, -33.495180615660651 ], [ -70.778398875941605, -33.498786734837239 ], [ -70.774094627419245, -33.498848456496646 ] ] ] } },
{ "type": "Feature", "properties": { "cuadrante": "219", "grid_id": "G01138", "problematica_pcsp": "Robo de vehículo motorizado", "casos_problematica_celda": 1, "peso_problematica": 2.0, "puntaje_celda": 2.0, "es_meta_pcsp": false, "equipo": "Móviles", "tamano_grilla_m": 400 }, "geometry": { "type": "Polygon", "coordinates": [ [ [ -70.783146976831745, -33.520361481163661 ], [ -70.783072966322649, -33.516755383880664 ], [ -70.787378080385778, -33.516693321213623 ], [ -70.787452269356805, -33.520299410059728 ], [ -70.783146976831745, -33.520361481163661 ] ] ] } },
{ "type": "Feature", "properties": { "cuadrante": "219", "grid_id": "G01172", "problematica_pcsp": "Robo de vehículo motorizado", "casos_problematica_celda": 1, "peso_problematica": 2.0, "puntaje_celda": 2.0, "es_meta_pcsp": false, "equipo": "Móviles", "tamano_grilla_m": 400 }, "geometry": { "type": "Polygon", "coordinates": [ [ [ -70.778767839086129, -33.516817297030158 ], [ -70.778694020182812, -33.51321118908406 ], [ -70.782998968986917, -33.513149284350433 ], [ -70.783072966322649, -33.516755383880664 ], [ -70.778767839086129, -33.516817297030158 ] ] ] } },
{ "type": "Feature", "properties": { "cuadrante": "219", "grid_id": "G01137", "problematica_pcsp": "Robo en lugar habitado", "casos_problematica_celda": 2, "peso_problematica": 10.0, "puntaje_celda": 20.0, "es_meta_pcsp": true, "equipo": "Móviles", "tamano_grilla_m": 400 }, "geometry": { "type": "Polygon", "coordinates": [ [ [ -70.783221000516448, -33.523967576199311 ], [ -70.783146976831745, -33.520361481163661 ], [ -70.787452269356805, -33.520299410059728 ], [ -70.787526471535159, -33.523905496657818 ], [ -70.783221000516448, -33.523967576199311 ] ] ] } },
{ "type": "Feature", "properties": { "cuadrante": "219", "grid_id": "G01172", "problematica_pcsp": "Robo en lugar habitado", "casos_problematica_celda": 1, "peso_problematica": 10.0, "puntaje_celda": 10.0, "es_meta_pcsp": true, "equipo": "Móviles", "tamano_grilla_m": 400 }, "geometry": { "type": "Polygon", "coordinates": [ [ [ -70.778767839086129, -33.516817297030158 ], [ -70.778694020182812, -33.51321118908406 ], [ -70.782998968986917, -33.513149284350433 ], [ -70.783072966322649, -33.516755383880664 ], [ -70.778767839086129, -33.516817297030158 ] ] ] } },
{ "type": "Feature", "properties": { "cuadrante": "219", "grid_id": "G01172", "problematica_pcsp": "Robos violentos", "casos_problematica_celda": 1, "peso_problematica": 10.0, "puntaje_celda": 10.0, "es_meta_pcsp": true, "equipo": "Móviles", "tamano_grilla_m": 400 }, "geometry": { "type": "Polygon", "coordinates": [ [ [ -70.778767839086129, -33.516817297030158 ], [ -70.778694020182812, -33.51321118908406 ], [ -70.782998968986917, -33.513149284350433 ], [ -70.783072966322649, -33.516755383880664 ], [ -70.778767839086129, -33.516817297030158 ] ] ] } },
{ "type": "Feature", "properties": { "cuadrante": "219", "grid_id": "G01205", "problematica_pcsp": "Robos violentos", "casos_problematica_celda": 1, "peso_problematica": 10.0, "puntaje_celda": 10.0, "es_meta_pcsp": true, "equipo": "Móviles", "tamano_grilla_m": 400 }, "geometry": { "type": "Polygon", "coordinates": [ [ [ -70.774462698707993, -33.516879060660607 ], [ -70.774389058239279, -33.513272944318928 ], [ -70.778694020182812, -33.51321118908406 ], [ -70.778767839086129, -33.516817297030158 ], [ -70.774462698707993, -33.516879060660607 ] ] ] } },
{ "type": "Feature", "properties": { "cuadrante": "220B", "grid_id": "G01072", "problematica_pcsp": "Alcohol y drogas en vía pública", "casos_problematica_celda": 1, "peso_problematica": 10.0, "puntaje_celda": 10.0, "es_meta_pcsp": true, "equipo": "Motoristas", "tamano_grilla_m": 400 }, "geometry": { "type": "Polygon", "coordinates": [ [ [ -70.791757548674539, -33.520237189419483 ], [ -70.791683181243812, -33.516631109030577 ], [ -70.795988268865003, -33.516568747333075 ], [ -70.796062814753185, -33.520174819244488 ], [ -70.791757548674539, -33.520237189419483 ] ] ] } },
{ "type": "Feature", "properties": { "cuadrante": "220B", "grid_id": "G01039", "problematica_pcsp": "Amenazas con armas", "casos_problematica_celda": 1, "peso_problematica": 2.0, "puntaje_celda": 2.0, "es_meta_pcsp": false, "equipo": "Motoristas", "tamano_grilla_m": 400 }, "geometry": { "type": "Polygon", "coordinates": [ [ [ -70.796062814753185, -33.520174819244488 ], [ -70.795988268865003, -33.516568747333075 ], [ -70.800293343217618, -33.516506236122666 ], [ -70.800368067561024, -33.520112299536244 ], [ -70.796062814753185, -33.520174819244488 ] ] ] } },
{ "type": "Feature", "properties": { "cuadrante": "220B", "grid_id": "G01072", "problematica_pcsp": "Amenazas con armas", "casos_problematica_celda": 1, "peso_problematica": 2.0, "puntaje_celda": 2.0, "es_meta_pcsp": false, "equipo": "Motoristas", "tamano_grilla_m": 400 }, "geometry": { "type": "Polygon", "coordinates": [ [ [ -70.791757548674539, -33.520237189419483 ], [ -70.791683181243812, -33.516631109030577 ], [ -70.795988268865003, -33.516568747333075 ], [ -70.796062814753185, -33.520174819244488 ], [ -70.791757548674539, -33.520237189419483 ] ] ] } },
{ "type": "Feature", "properties": { "cuadrante": "220B", "grid_id": "G01040", "problematica_pcsp": "Robo en lugar habitado", "casos_problematica_celda": 1, "peso_problematica": 10.0, "puntaje_celda": 10.0, "es_meta_pcsp": true, "equipo": "Motoristas", "tamano_grilla_m": 400 }, "geometry": { "type": "Polygon", "coordinates": [ [ [ -70.795988268865003, -33.516568747333075 ], [ -70.795913736245396, -33.512962673172389 ], [ -70.800218632174492, -33.512900170459105 ], [ -70.800293343217618, -33.516506236122666 ], [ -70.795988268865003, -33.516568747333075 ] ] ] } },
{ "type": "Feature", "properties": { "cuadrante": "220B", "grid_id": "G01071", "problematica_pcsp": "Robo en lugar habitado", "casos_problematica_celda": 1, "peso_problematica": 10.0, "puntaje_celda": 10.0, "es_meta_pcsp": true, "equipo": "Motoristas", "tamano_grilla_m": 400 }, "geometry": { "type": "Polygon", "coordinates": [ [ [ -70.791831929344326, -33.523843267559691 ], [ -70.791757548674539, -33.520237189419483 ], [ -70.796062814753185, -33.520174819244488 ], [ -70.796137373912188, -33.523780888906472 ], [ -70.791831929344326, -33.523843267559691 ] ] ] } },
{ "type": "Feature", "properties": { "cuadrante": "220B", "grid_id": "G01038", "problematica_pcsp": "Robos violentos", "casos_problematica_celda": 1, "peso_problematica": 10.0, "puntaje_celda": 10.0, "es_meta_pcsp": true, "equipo": "Motoristas", "tamano_grilla_m": 400 }, "geometry": { "type": "Polygon", "coordinates": [ [ [ -70.796137373912188, -33.523780888906472 ], [ -70.796062814753185, -33.520174819244488 ], [ -70.800368067561024, -33.520112299536244 ], [ -70.800442805206998, -33.523718360699725 ], [ -70.796137373912188, -33.523780888906472 ] ] ] } },
{ "type": "Feature", "properties": { "cuadrante": "221C", "grid_id": "G01268", "problematica_pcsp": "Amenazas con armas", "casos_problematica_celda": 1, "peso_problematica": 2.0, "puntaje_celda": 2.0, "es_meta_pcsp": false, "equipo": "Móviles", "tamano_grilla_m": 400 }, "geometry": { "type": "Polygon", "coordinates": [ [ [ -70.76607230771971, -33.527820525106399 ], [ -70.765998984980982, -33.524214398768386 ], [ -70.770304508520439, -33.524152917468705 ], [ -70.770378009793433, -33.527759035449741 ], [ -70.76607230771971, -33.527820525106399 ] ] ] } },
{ "type": "Feature", "properties": { "cuadrante": "221C", "grid_id": "G01266", "problematica_pcsp": "Amenazas o riña", "casos_problematica_celda": 1, "peso_problematica": 2.0, "puntaje_celda": 2.0, "es_meta_pcsp": false, "equipo": "Móviles", "tamano_grilla_m": 400 }, "geometry": { "type": "Polygon", "coordinates": [ [ [ -70.766218992358418, -33.535032771047575 ], [ -70.766145643511464, -33.53142664919951 ], [ -70.77045152415117, -33.531365151185177 ], [ -70.770525051595897, -33.534971264674894 ], [ -70.766218992358418, -33.535032771047575 ] ] ] } },
{ "type": "Feature", "properties": { "cuadrante": "221C", "grid_id": "G01268", "problematica_pcsp": "Amenazas o riña", "casos_problematica_celda": 1, "peso_problematica": 2.0, "puntaje_celda": 2.0, "es_meta_pcsp": false, "equipo": "Móviles", "tamano_grilla_m": 400 }, "geometry": { "type": "Polygon", "coordinates": [ [ [ -70.76607230771971, -33.527820525106399 ], [ -70.765998984980982, -33.524214398768386 ], [ -70.770304508520439, -33.524152917468705 ], [ -70.770378009793433, -33.527759035449741 ], [ -70.76607230771971, -33.527820525106399 ] ] ] } },
{ "type": "Feature", "properties": { "cuadrante": "221C", "grid_id": "G01267", "problematica_pcsp": "Crímenes y simples delitos Ley de Armas", "casos_problematica_celda": 1, "peso_problematica": 2.0, "puntaje_celda": 2.0, "es_meta_pcsp": false, "equipo": "Móviles", "tamano_grilla_m": 400 }, "geometry": { "type": "Polygon", "coordinates": [ [ [ -70.766145643511464, -33.53142664919951 ], [ -70.76607230771971, -33.527820525106399 ], [ -70.770378009793433, -33.527759035449741 ], [ -70.77045152415117, -33.531365151185177 ], [ -70.766145643511464, -33.53142664919951 ] ] ] } },
{ "type": "Feature", "properties": { "cuadrante": "221C", "grid_id": "G01266", "problematica_pcsp": "Lesiones", "casos_problematica_celda": 1, "peso_problematica": 2.0, "puntaje_celda": 2.0, "es_meta_pcsp": false, "equipo": "Móviles", "tamano_grilla_m": 400 }, "geometry": { "type": "Polygon", "coordinates": [ [ [ -70.766218992358418, -33.535032771047575 ], [ -70.766145643511464, -33.53142664919951 ], [ -70.77045152415117, -33.531365151185177 ], [ -70.770525051595897, -33.534971264674894 ], [ -70.766218992358418, -33.535032771047575 ] ] ] } },
{ "type": "Feature", "properties": { "cuadrante": "221C", "grid_id": "G01268", "problematica_pcsp": "Lesiones", "casos_problematica_celda": 1, "peso_problematica": 2.0, "puntaje_celda": 2.0, "es_meta_pcsp": false, "equipo": "Móviles", "tamano_grilla_m": 400 }, "geometry": { "type": "Polygon", "coordinates": [ [ [ -70.76607230771971, -33.527820525106399 ], [ -70.765998984980982, -33.524214398768386 ], [ -70.770304508520439, -33.524152917468705 ], [ -70.770378009793433, -33.527759035449741 ], [ -70.76607230771971, -33.527820525106399 ] ] ] } },
{ "type": "Feature", "properties": { "cuadrante": "221C", "grid_id": "G01267", "problematica_pcsp": "Robo de vehículo motorizado", "casos_problematica_celda": 1, "peso_problematica": 2.0, "puntaje_celda": 2.0, "es_meta_pcsp": false, "equipo": "Móviles", "tamano_grilla_m": 400 }, "geometry": { "type": "Polygon", "coordinates": [ [ [ -70.766145643511464, -33.53142664919951 ], [ -70.76607230771971, -33.527820525106399 ], [ -70.770378009793433, -33.527759035449741 ], [ -70.77045152415117, -33.531365151185177 ], [ -70.766145643511464, -33.53142664919951 ] ] ] } },
{ "type": "Feature", "properties": { "cuadrante": "221C", "grid_id": "G01202", "problematica_pcsp": "Robo en lugar habitado", "casos_problematica_celda": 1, "peso_problematica": 10.0, "puntaje_celda": 10.0, "es_meta_pcsp": true, "equipo": "Móviles", "tamano_grilla_m": 400 }, "geometry": { "type": "Polygon", "coordinates": [ [ [ -70.774683698782368, -33.527697396210016 ], [ -70.774610018977341, -33.524091286606293 ], [ -70.778915516319927, -33.52402950618265 ], [ -70.778989374654799, -33.527635607388746 ], [ -70.774683698782368, -33.527697396210016 ] ] ] } },
{ "type": "Feature", "properties": { "cuadrante": "221C", "grid_id": "G01233", "problematica_pcsp": "Robo en lugar habitado", "casos_problematica_celda": 1, "peso_problematica": 10.0, "puntaje_celda": 10.0, "es_meta_pcsp": true, "equipo": "Móviles", "tamano_grilla_m": 400 }, "geometry": { "type": "Polygon", "coordinates": [ [ [ -70.770525051595897, -33.534971264674894 ], [ -70.77045152415117, -33.531365151185177 ], [ -70.774757391703915, -33.531303503567457 ], [ -70.774831097744197, -33.534909608678511 ], [ -70.770525051595897, -33.534971264674894 ] ] ] } }
]
}
