{
"type": "FeatureCollection",
"name": "cuadrantes_focalizados_pcsp",
"crs": { "type": "name", "properties": { "name": "urn:ogc:def:crs:OGC:1.3:CRS84" } },
"features": [
{ "type": "Feature", "properties": { "CUA_CODIGO": "39582232", "CUA_SUP": 5.8, "COMUNA": "MAIPU", "UNIDAD": "52A. COM. RINCONADA DE MAIPU", "DESTACAMEN": "SCOM. MAIPU ORIENTE 52A.COM.", "PREFECTURA": "PREF. STGO. RINCONADA", "ZONA": "METROPOLITANA", "NUM_CUAD": "223B", "CUA_DESCRI": "Cuadrante 223B", "CUA_TIPO": "Urbano", "CUA_ESTADO": "1", "CUA_FTERMI": null, "UNI_CODIGO": "811110520000", "CUA_ANO": "2014", "COD_AUPOL": "3226", "COM_CODIGO": "13119", "SHAPE_LENG": 10.265096159960001, "SHAPE_AREA": 5.8025556168000003, "COD_DESTAC": "811110521000", "TOOLTIP": "Cuadrante 223B&&SCOM. MAIPU ORIENTE 52A.COM.", "COD": "CONPCSP", "SUP_KM2": 0.0, "cuadrante": "223B", "equipo_asignado": "Móviles", "ranking_pcsp": 5, "Total_PCSP": 14 }, "geometry": { "type": "Polygon", "coordinates": [ [ [ -70.759678464821661, -33.56229934462516 ], [ -70.760155325519179, -33.562118138991657 ], [ -70.760401595384224, -33.562024557470636 ], [ -70.761736303554244, -33.561537380395862 ], [ -70.762278535076859, -33.561342296771841 ], [ -70.762764361050642, -33.561168569526558 ], [ -70.763159873974814, -33.561027137461274 ], [ -70.76343998136133, -33.560932655475305 ], [ -70.763600658066423, -33.560909844416415 ], [ -70.763935876019389, -33.560922179991628 ], [ -70.764094014397074, -33.560947319122128 ], [ -70.76420661670852, -33.56096038213861 ], [ -70.764369644523072, -33.560980230049097 ], [ -70.764477635692685, -33.560986581785237 ], [ -70.764586494332036, -33.560981964209923 ], [ -70.764717930019458, -33.560964137991562 ], [ -70.76494757229483, -33.560902574733234 ], [ -70.765080344519447, -33.560855413991526 ], [ -70.765589387371051, -33.560678681058619 ], [ -70.766781807274299, -33.560262735558169 ], [ -70.767463920192995, -33.560024154584994 ], [ -70.768632080770317, -33.559620236386245 ], [ -70.769844251247036, -33.559202845417182 ], [ -70.771634463266025, -33.55857634669826 ], [ -70.772942998416113, -33.558127414868913 ], [ -70.773909055020056, -33.557788956991374 ], [ -70.775129156197238, -33.557367838004318 ], [ -70.77569681258791, -33.557171143833322 ], [ -70.77656743801424, -33.556872149927194 ], [ -70.777810951162337, -33.556442300046406 ], [ -70.778271182181243, -33.556294200896673 ], [ -70.778318353429029, -33.556152129823431 ], [ -70.778317792520284, -33.556089764491283 ], [ -70.778299933162998, -33.556022977402037 ], [ -70.77822492394705, -33.555681913051153 ], [ -70.778867735274105, -33.555472123608283 ], [ -70.77993975156177, -33.555125342242256 ], [ -70.783400505155953, -33.554027573825572 ], [ -70.784843063068024, -33.553579126474574 ], [ -70.787299061297233, -33.552806804089869 ], [ -70.788683798715681, -33.552373019698621 ], [ -70.791855323237542, -33.551364389610455 ], [ -70.789634706228753, -33.549835209447622 ], [ -70.786689754463225, -33.547801959460728 ], [ -70.783744817364493, -33.545799255915931 ], [ -70.780822753918983, -33.543788911849276 ], [ -70.779701238956136, -33.543006896534905 ], [ -70.778350831994032, -33.542064662981147 ], [ -70.777931207581332, -33.541770944861518 ], [ -70.775032035388961, -33.539752961251111 ], [ -70.774810783911562, -33.539600365933204 ], [ -70.77214050469604, -33.537776944775437 ], [ -70.769767754082977, -33.536163319201371 ], [ -70.769763083716555, -33.536160123721913 ], [ -70.769621885019717, -33.536298954991594 ], [ -70.769177118475682, -33.53677728903147 ], [ -70.768766800019705, -33.537190372991468 ], [ -70.768170933519627, -33.537802820491549 ], [ -70.767632744019579, -33.538356916991518 ], [ -70.766955074519558, -33.539048586491624 ], [ -70.766665078784854, -33.539303946055036 ], [ -70.766196904618027, -33.539662560184638 ], [ -70.765875845844619, -33.539899775168294 ], [ -70.765475551019506, -33.540117338491598 ], [ -70.764984085019364, -33.540354358991571 ], [ -70.765130435519438, -33.540452817991593 ], [ -70.762955698019368, -33.541442165991725 ], [ -70.762225731852936, -33.541854742608841 ], [ -70.759775478071106, -33.542968762651292 ], [ -70.758944693609976, -33.54334140403882 ], [ -70.757254856018847, -33.544113515991796 ], [ -70.756910217839618, -33.544262730067203 ], [ -70.756803626070337, -33.544342436692837 ], [ -70.756754141018916, -33.544420068991833 ], [ -70.756743931799292, -33.544460610572571 ], [ -70.756740023506779, -33.544554615676027 ], [ -70.75673916403224, -33.544592989197596 ], [ -70.756954772828578, -33.544950811037609 ], [ -70.757135804210634, -33.545232954282184 ], [ -70.756256668018864, -33.545705154991822 ], [ -70.754805752815628, -33.546487230525258 ], [ -70.753405446018689, -33.547248758992005 ], [ -70.752568343850385, -33.547696106176645 ], [ -70.751275035548076, -33.54840328676238 ], [ -70.750299644714289, -33.54893663017333 ], [ -70.74951990238128, -33.549362993043637 ], [ -70.748874051288226, -33.549716144224583 ], [ -70.748601686690222, -33.54986507271429 ], [ -70.750713984328911, -33.552212571106971 ], [ -70.754202688726366, -33.556121764794113 ], [ -70.755916945200283, -33.558045875894322 ], [ -70.756354217985006, -33.558535260187007 ], [ -70.756609570884564, -33.55882243133339 ], [ -70.757000927093941, -33.559257081228502 ], [ -70.757423064123032, -33.559731244900838 ], [ -70.75772807030944, -33.560076959859082 ], [ -70.757991906064831, -33.560371117159491 ], [ -70.758339289798073, -33.560761862975703 ], [ -70.758582354040243, -33.561028438744628 ], [ -70.758802216869867, -33.561278691966265 ], [ -70.759114422075129, -33.561634314061848 ], [ -70.759409038446165, -33.561976765845024 ], [ -70.759678464821661, -33.56229934462516 ] ] ] } },
{ "type": "Feature", "properties": { "CUA_CODIGO": "39582211", "CUA_SUP": 4.48, "COMUNA": "MAIPU", "UNIDAD": "52A. COM. RINCONADA DE MAIPU", "DESTACAMEN": "52A. COM. RINCONADA DE MAIPU", "PREFECTURA": "PREF. STGO. RINCONADA", "ZONA": "METROPOLITANA", "NUM_CUAD": "221A", "CUA_DESCRI": "Cuadrante 221A", "CUA_TIPO": "Urbano", "CUA_ESTADO": "1", "CUA_FTERMI": null, "UNI_CODIGO": "811110520000", "CUA_ANO": "2014", "COD_AUPOL": "3226", "COM_CODIGO": "13119", "SHAPE_LENG": 10.026962510060001, "SHAPE_AREA": 4.4769008816899998, "COD_DESTAC": "811110520000", "TOOLTIP": "Cuadrante 221A&&52A. COM. RINCONADA DE MAIPU", "COD": "CONPCSP", "SUP_KM2": 0.0, "cuadrante": "221A", "equipo_asignado": "Motoristas", "ranking_pcsp": 10, "Total_PCSP": 10 }, "geometry": { "type": "Polygon", "coordinates": [ [ [ -70.780477114459089, -33.543547902714401 ], [ -70.780822753918983, -33.543788911849276 ], [ -70.783744817364493, -33.545799255915931 ], [ -70.786689754463225, -33.547801959460728 ], [ -70.789634706228753, -33.549835209447622 ], [ -70.792587270159686, -33.551868429122685 ], [ -70.795555113178523, -33.553951256454134 ], [ -70.797813427081223, -33.555480961447934 ], [ -70.797987944963097, -33.555616182948754 ], [ -70.79798955536495, -33.555614825184868 ], [ -70.7979991834153, -33.555606707583188 ], [ -70.798030028362973, -33.555580702786806 ], [ -70.798059140316866, -33.555555181825916 ], [ -70.798155157334293, -33.555467306370808 ], [ -70.800432152621568, -33.554877132573381 ], [ -70.802956504638757, -33.554203644682218 ], [ -70.805988326100135, -33.553522702310651 ], [ -70.80839456205905, -33.553275322198083 ], [ -70.80965889644051, -33.553044593932611 ], [ -70.811708329975204, -33.551940266030279 ], [ -70.811728894772443, -33.551916606665827 ], [ -70.811778655716978, -33.551861626551151 ], [ -70.810898291762953, -33.551295287327548 ], [ -70.810213713144833, -33.550735176660112 ], [ -70.809475789722285, -33.549979472939867 ], [ -70.808640069773389, -33.549010393913697 ], [ -70.805531739522223, -33.544985691915542 ], [ -70.804587765486247, -33.543611872533454 ], [ -70.803989353452721, -33.542330765122642 ], [ -70.803795501859952, -33.541867206243403 ], [ -70.803028523139062, -33.539776977951135 ], [ -70.801789556911331, -33.536186505749981 ], [ -70.800938294846787, -33.533843427426582 ], [ -70.800053319249173, -33.531373923598778 ], [ -70.799497049376328, -33.529789396346246 ], [ -70.799151487373877, -33.528491431680095 ], [ -70.799033490497152, -33.5276654545209 ], [ -70.798999776964024, -33.527159754458694 ], [ -70.799008205591747, -33.525895503325607 ], [ -70.79901123774664, -33.524959555064243 ], [ -70.798324581305508, -33.5250015378437 ], [ -70.795573657136515, -33.524920976980816 ], [ -70.791873421818025, -33.524840202821622 ], [ -70.79188191752111, -33.524909992490961 ], [ -70.79185697302114, -33.526010301490992 ], [ -70.791818950521133, -33.527315514991017 ], [ -70.79182005822031, -33.527601390767124 ], [ -70.791839093908436, -33.527709894189002 ], [ -70.791978054431183, -33.528050633005023 ], [ -70.792314986109659, -33.528941503205658 ], [ -70.792497741521061, -33.529408093990867 ], [ -70.793399611502082, -33.531845884613453 ], [ -70.793386695346726, -33.531918684816382 ], [ -70.793340885316127, -33.532120168941731 ], [ -70.793278191924855, -33.532316530696555 ], [ -70.793011692292168, -33.53282859070498 ], [ -70.792511053696501, -33.533797507226666 ], [ -70.791998993687912, -33.534755002335373 ], [ -70.791900008110133, -33.534943455647131 ], [ -70.791827672495572, -33.53500627341765 ], [ -70.790965355826984, -33.535436479967416 ], [ -70.78985419002089, -33.535988051490961 ], [ -70.78909224412314, -33.536371132250608 ], [ -70.788917115793083, -33.536479635672499 ], [ -70.788787673114371, -33.53658813909442 ], [ -70.78816196002083, -33.537138491491021 ], [ -70.788083812020773, -33.537200844990984 ], [ -70.787114436134971, -33.538065308486914 ], [ -70.786290630020815, -33.538790159491107 ], [ -70.78560109893499, -33.539386385237371 ], [ -70.784834763020683, -33.540060375490945 ], [ -70.784162000918684, -33.540604669272462 ], [ -70.78342341622232, -33.541227136271637 ], [ -70.782753360003028, -33.541802014050617 ], [ -70.782580135241744, -33.541948588848641 ], [ -70.78243072602038, -33.542045866491094 ], [ -70.782119659020395, -33.542168918491257 ], [ -70.78201667887555, -33.542211281343661 ], [ -70.780477114459089, -33.543547902714401 ] ] ] } },
{ "type": "Feature", "properties": { "CUA_CODIGO": "39462182", "CUA_SUP": 2.73, "COMUNA": "MAIPU", "UNIDAD": "25A. COM. MAIPU", "DESTACAMEN": "25A. COM. MAIPU", "PREFECTURA": "PREF. STGO. RINCONADA", "ZONA": "METROPOLITANA", "NUM_CUAD": "218B", "CUA_DESCRI": "Cuadrante 218B", "CUA_TIPO": "Urbano", "CUA_ESTADO": "1", "CUA_FTERMI": null, "UNI_CODIGO": "811110250000", "CUA_ANO": "2014", "COD_AUPOL": "3226", "COM_CODIGO": "13119", "SHAPE_LENG": 6.86318403876, "SHAPE_AREA": 2.7305837848699999, "COD_DESTAC": "811110250000", "TOOLTIP": "Cuadrante 218B&&25A. COM. MAIPU", "COD": "CONPCSP", "SUP_KM2": 0.0, "cuadrante": "218B", "equipo_asignado": "Móviles", "ranking_pcsp": 1, "Total_PCSP": 18 }, "geometry": { "type": "Polygon", "coordinates": [ [ [ -70.764995827622045, -33.509921896279991 ], [ -70.763369495409222, -33.510221804049358 ], [ -70.763179349019424, -33.510265830991777 ], [ -70.763159492296836, -33.510281023928307 ], [ -70.763092183290269, -33.510648552519513 ], [ -70.763081160398713, -33.510715592465317 ], [ -70.763084474107131, -33.510799042584658 ], [ -70.76311596001932, -33.511169093991782 ], [ -70.763192710645797, -33.512188867485115 ], [ -70.763209247455563, -33.512375873528242 ], [ -70.763279294019412, -33.513130534991603 ], [ -70.761358818077042, -33.512895806019692 ], [ -70.759835412093821, -33.512701037805861 ], [ -70.758739563040535, -33.512564235655809 ], [ -70.757424922899872, -33.512400854504612 ], [ -70.757358569068572, -33.512394317235533 ], [ -70.757335688571175, -33.513340384739138 ], [ -70.757343324203816, -33.513996527983402 ], [ -70.757335696393511, -33.514294081030918 ], [ -70.757320440772958, -33.514656485621913 ], [ -70.757320442728542, -33.514961668435141 ], [ -70.757312817851641, -33.515442331953011 ], [ -70.757313161059017, -33.516212565766921 ], [ -70.757312824696228, -33.516251066604013 ], [ -70.757297568097783, -33.516621100960833 ], [ -70.757297570053311, -33.516838543910815 ], [ -70.757289954954558, -33.518490346670532 ], [ -70.757293439830278, -33.518683904923591 ], [ -70.757282329099723, -33.51890997303893 ], [ -70.757282334966703, -33.519573746049161 ], [ -70.757274716934376, -33.520897477675646 ], [ -70.757274723778949, -33.521771063869949 ], [ -70.757260816543123, -33.521824321650179 ], [ -70.757252861170116, -33.521887867831943 ], [ -70.757250088132139, -33.522097549013218 ], [ -70.757228467039852, -33.524005102933749 ], [ -70.757227401238822, -33.524116352996941 ], [ -70.757221340840431, -33.524685561106772 ], [ -70.757213717919115, -33.525398926128439 ], [ -70.759052497366383, -33.525410359532707 ], [ -70.75981547688923, -33.525414169037731 ], [ -70.760273263820807, -33.525417981476267 ], [ -70.760868387515984, -33.525429421724823 ], [ -70.761603038245255, -33.525433726974022 ], [ -70.761657513385103, -33.525447691899949 ], [ -70.762792604109961, -33.525452825344914 ], [ -70.762916565560786, -33.525451663719657 ], [ -70.767074581657539, -33.525131225285733 ], [ -70.769409175618819, -33.524944305310321 ], [ -70.771705629550695, -33.524791725637151 ], [ -70.775232333089491, -33.524564887361066 ], [ -70.775383003641252, -33.524555195072132 ], [ -70.7753898687684, -33.524521782701122 ], [ -70.775380229625512, -33.524002605634912 ], [ -70.775372603770791, -33.523533383343761 ], [ -70.775364969115913, -33.523064164963721 ], [ -70.77534207590702, -33.522594945605938 ], [ -70.775334442229962, -33.522129541619904 ], [ -70.775311547065428, -33.521522991365032 ], [ -70.775349676339033, -33.519817780244175 ], [ -70.775358268259083, -33.519369295114863 ], [ -70.77535934383792, -33.519329972926577 ], [ -70.775372559769835, -33.518581790436592 ], [ -70.775380180735567, -33.518124017194346 ], [ -70.775395438311705, -33.517319095959635 ], [ -70.775410690021147, -33.516445509765113 ], [ -70.775410684154338, -33.515804625074843 ], [ -70.775433569540724, -33.515308703003086 ], [ -70.775433564651678, -33.514751743782035 ], [ -70.775433558784982, -33.514156636709231 ], [ -70.775441187572994, -33.514011675068325 ], [ -70.77544118463976, -33.513649270477458 ], [ -70.77543355291823, -33.513450901453204 ], [ -70.77544880756102, -33.512920645923764 ], [ -70.775479318802184, -33.511970764026209 ], [ -70.775486944656905, -33.511547322285878 ], [ -70.775502199299694, -33.511005622596592 ], [ -70.775509826132307, -33.510627959451661 ], [ -70.775525081752789, -33.510204517711315 ], [ -70.775525078819385, -33.509853557280579 ], [ -70.775540334422047, -33.509353820421374 ], [ -70.772698490677612, -33.509135536425326 ], [ -70.770329184019715, -33.508960929991581 ], [ -70.76985914158179, -33.509012801981221 ], [ -70.769606439519748, -33.509062325491634 ], [ -70.768744184019695, -33.5092309389916 ], [ -70.767980111019597, -33.509378591991648 ], [ -70.767142806257198, -33.509529782677866 ], [ -70.764995827622045, -33.509921896279991 ] ] ] } },
{ "type": "Feature", "properties": { "CUA_CODIGO": "39462221", "CUA_SUP": 2.62, "COMUNA": "MAIPU", "UNIDAD": "25A. COM. MAIPU", "DESTACAMEN": "25A. COM. MAIPU", "PREFECTURA": "PREF. STGO. RINCONADA", "ZONA": "METROPOLITANA", "NUM_CUAD": "222A", "CUA_DESCRI": "Cuadrante 222A", "CUA_TIPO": "Urbano", "CUA_ESTADO": "1", "CUA_FTERMI": null, "UNI_CODIGO": "811110250000", "CUA_ANO": "2014", "COD_AUPOL": "3226", "COM_CODIGO": "13119", "SHAPE_LENG": 6.5987452955799997, "SHAPE_AREA": 2.61629610042, "COD_DESTAC": "811110250000", "TOOLTIP": "Cuadrante 222A&&25A. COM. MAIPU", "COD": "CONPCSP", "SUP_KM2": 0.0, "cuadrante": "222A", "equipo_asignado": "Móviles", "ranking_pcsp": 3, "Total_PCSP": 17 }, "geometry": { "type": "Polygon", "coordinates": [ [ [ -70.736780647309274, -33.503405854616858 ], [ -70.739352879774515, -33.50272553007057 ], [ -70.740346804244723, -33.502248599591901 ], [ -70.741411281999888, -33.501513788999937 ], [ -70.742086454883008, -33.500766131097002 ], [ -70.74275513769436, -33.500021884293346 ], [ -70.743360375753412, -33.499322977266495 ], [ -70.744457723733888, -33.498054360410492 ], [ -70.745311824849523, -33.496984545530601 ], [ -70.745782331999976, -33.496395205999931 ], [ -70.746372789242116, -33.495479033030158 ], [ -70.746789194918165, -33.494681913593119 ], [ -70.747705287405495, -33.492998444931516 ], [ -70.748145487691545, -33.492272709324716 ], [ -70.749008263518533, -33.490771419492141 ], [ -70.749916872977849, -33.489216627262181 ], [ -70.750158776612025, -33.488819491491427 ], [ -70.749671606819504, -33.48833232169892 ], [ -70.749342846338038, -33.488152997266525 ], [ -70.749073860667238, -33.488093222455738 ], [ -70.748700268099583, -33.488018503942151 ], [ -70.748408583802075, -33.487868654284043 ], [ -70.748012859731148, -33.487644912352494 ], [ -70.747549605925258, -33.487390870384395 ], [ -70.747011633605851, -33.486972446708876 ], [ -70.746563322524878, -33.486748292146231 ], [ -70.746309280556886, -33.48658391141651 ], [ -70.746100068719045, -33.486285038340327 ], [ -70.745980520075094, -33.485986164286317 ], [ -70.745726477129324, -33.485702234912885 ], [ -70.74515861740457, -33.485403360858818 ], [ -70.744829856922877, -33.485134375188125 ], [ -70.744650532490482, -33.485044712971899 ], [ -70.744381546819795, -33.484969994458361 ], [ -70.744052785360395, -33.484850445814573 ], [ -70.743709081176064, -33.484775727301106 ], [ -70.743440094527571, -33.484730896193014 ], [ -70.743186052559508, -33.484596402868696 ], [ -70.742991784424305, -33.484521684355109 ], [ -70.742588305429308, -33.484446965841578 ], [ -70.74208022051522, -33.484312473495216 ], [ -70.741587079303997, -33.483998655738617 ], [ -70.741049106984576, -33.483714726365065 ], [ -70.740570909476048, -33.483565289338053 ], [ -70.739958218643153, -33.483430796013749 ], [ -70.739285752999479, -33.483415852311055 ], [ -70.73862823203639, -33.483430796013742 ], [ -70.738254639468721, -33.48356528933806 ], [ -70.737763322830574, -33.483731060497966 ], [ -70.737402850370643, -33.483879106116817 ], [ -70.736805103240442, -33.483983712035865 ], [ -70.735983201547413, -33.483879106116831 ], [ -70.735295792201157, -33.483759557473149 ], [ -70.734757819881679, -33.483490570824529 ], [ -70.734518720638619, -33.483296303667252 ], [ -70.734294566075846, -33.482937654802406 ], [ -70.733756593756482, -33.482593950618188 ], [ -70.733412889572264, -33.482579006915493 ], [ -70.733069184410112, -33.4825790069155 ], [ -70.732650761712421, -33.4825790069155 ], [ -70.732082901987553, -33.482579006915508 ], [ -70.731515042262799, -33.4825790069155 ], [ -70.731291517396073, -33.482537294973156 ], [ -70.731312563323854, -33.487284773773013 ], [ -70.731309347348258, -33.487334348001525 ], [ -70.731327469586745, -33.488396884408417 ], [ -70.731327357171608, -33.488397372740344 ], [ -70.731328373405518, -33.488450916576312 ], [ -70.731328357217706, -33.488451374331198 ], [ -70.731341250797868, -33.489222257001359 ], [ -70.731341365011644, -33.489222391899652 ], [ -70.731342172602979, -33.489277173202709 ], [ -70.731342365057799, -33.489277392637291 ], [ -70.73135737564219, -33.490451420696274 ], [ -70.731356026659114, -33.490510115848906 ], [ -70.731356377394604, -33.49051042161846 ], [ -70.731676311212652, -33.493200461132183 ], [ -70.731678580202185, -33.493341862436843 ], [ -70.731675649311512, -33.493485239551944 ], [ -70.731675842665936, -33.493640720642532 ], [ -70.731663355579371, -33.493740503121501 ], [ -70.731645791819687, -33.493876797176142 ], [ -70.731623124407349, -33.49398812964818 ], [ -70.731581215100675, -33.494163253730967 ], [ -70.731541417402184, -33.494358600868551 ], [ -70.731524528134173, -33.494434053988122 ], [ -70.731515760643617, -33.494455392202326 ], [ -70.731501053130899, -33.49449549926765 ], [ -70.731434746250045, -33.49467074842471 ], [ -70.731928214015625, -33.495066623625526 ], [ -70.732233421434955, -33.495326033069659 ], [ -70.732576778994826, -33.495654111148149 ], [ -70.733286387256669, -33.496409451734678 ], [ -70.733568705131461, -33.496783308003103 ], [ -70.733797612269655, -33.497111386081201 ], [ -70.734095190740163, -33.497592059325825 ], [ -70.734339359373735, -33.498049843025626 ], [ -70.734934519912045, -33.499285859554504 ], [ -70.73598626830244, -33.501633043172546 ], [ -70.736780647309274, -33.503405854616858 ] ] ] } },
{ "type": "Feature", "properties": { "CUA_CODIGO": "3958219", "CUA_SUP": 2.73, "COMUNA": "MAIPU", "UNIDAD": "52A. COM. RINCONADA DE MAIPU", "DESTACAMEN": "52A. COM. RINCONADA DE MAIPU", "PREFECTURA": "PREF. STGO. RINCONADA", "ZONA": "METROPOLITANA", "NUM_CUAD": "219", "CUA_DESCRI": "Cuadrante 219", "CUA_TIPO": "Urbano", "CUA_ESTADO": "1", "CUA_FTERMI": null, "UNI_CODIGO": "811110520000", "CUA_ANO": "2014", "COD_AUPOL": "3226", "COM_CODIGO": "13119", "SHAPE_LENG": 8.1563825825199991, "SHAPE_AREA": 2.7295974090300001, "COD_DESTAC": "811110520000", "TOOLTIP": "Cuadrante 219&&52A. COM. RINCONADA DE MAIPU", "COD": "CONPCSP", "SUP_KM2": 0.0, "cuadrante": "219", "equipo_asignado": "Móviles", "ranking_pcsp": 4, "Total_PCSP": 15 }, "geometry": { "type": "Polygon", "coordinates": [ [ [ -70.775784445881015, -33.504638741850158 ], [ -70.775738675108073, -33.505519957810463 ], [ -70.775700530189866, -33.506000621328155 ], [ -70.775677643825475, -33.506397359376713 ], [ -70.775670017970867, -33.506809355979215 ], [ -70.775662389182742, -33.506900911214366 ], [ -70.775608987666146, -33.507713461237188 ], [ -70.775586102279647, -33.508213198680778 ], [ -70.775578476424869, -33.508598491591606 ], [ -70.775555589082785, -33.508842638233432 ], [ -70.775540334439995, -33.509353819836967 ], [ -70.775525078819442, -33.509853557280579 ], [ -70.775525081752789, -33.510204517711422 ], [ -70.775509826132307, -33.510627959451767 ], [ -70.775502199299694, -33.511005622596592 ], [ -70.775486944656905, -33.511547322285878 ], [ -70.775479318802255, -33.511970764026209 ], [ -70.77544880756102, -33.51292064592382 ], [ -70.77543355291823, -33.513450901453275 ], [ -70.775441184639817, -33.513649270477565 ], [ -70.775441187573108, -33.514011675068438 ], [ -70.775433558785039, -33.514156636709281 ], [ -70.775433564651792, -33.514751743782035 ], [ -70.77543356954078, -33.515308703003079 ], [ -70.775410684154394, -33.515804625074843 ], [ -70.775410690021147, -33.51644550976517 ], [ -70.775395438311762, -33.517319095959635 ], [ -70.775380180735567, -33.518124017194395 ], [ -70.775372559769835, -33.518581790436656 ], [ -70.775359343838034, -33.519329972926641 ], [ -70.77535826825914, -33.519369295114977 ], [ -70.775349676339033, -33.519817780244175 ], [ -70.775311547065428, -33.521522991365032 ], [ -70.775334442229962, -33.522129541619961 ], [ -70.77534207590702, -33.522594945605988 ], [ -70.775364969115969, -33.523064164963714 ], [ -70.775372603770847, -33.52353338334381 ], [ -70.775380229625512, -33.524002605634955 ], [ -70.775389868768457, -33.524521782701179 ], [ -70.775383003641309, -33.524555195072196 ], [ -70.775232333089548, -33.524564887361123 ], [ -70.776367190640599, -33.524497989917272 ], [ -70.777175893024207, -33.524463662326347 ], [ -70.777473441182792, -33.524471273514102 ], [ -70.777862552398801, -33.524509428210422 ], [ -70.77797698910922, -33.524517054065136 ], [ -70.778694144080134, -33.524513241626664 ], [ -70.779228208136658, -33.524528507025195 ], [ -70.782020567517861, -33.524604802728554 ], [ -70.784141535856349, -33.524650584257351 ], [ -70.786918629838851, -33.524719225749834 ], [ -70.786894935812484, -33.524411738264064 ], [ -70.786739200781938, -33.523410589384973 ], [ -70.786594590170978, -33.522620792745663 ], [ -70.786538971006053, -33.522120218306107 ], [ -70.786405484814793, -33.521653015169989 ], [ -70.786316493368759, -33.521308174783201 ], [ -70.785693556179638, -33.517147841302624 ], [ -70.785426582819412, -33.515434762810735 ], [ -70.78508174243251, -33.513654941711991 ], [ -70.784803644652584, -33.51189736749695 ], [ -70.784469928685439, -33.509739333730238 ], [ -70.784102840437129, -33.507803777600998 ], [ -70.7841842915999, -33.507052615992968 ], [ -70.784186330426166, -33.507043033509824 ], [ -70.784194420593565, -33.507016859438686 ], [ -70.784202034868827, -33.506979977793151 ], [ -70.784205842006429, -33.506953327829933 ], [ -70.784196607459194, -33.506939036268591 ], [ -70.784196620077466, -33.506938919900044 ], [ -70.784138820521378, -33.506852220566032 ], [ -70.784324418479912, -33.506780836735793 ], [ -70.784390575147157, -33.506759335818977 ], [ -70.784393368976396, -33.50675753165234 ], [ -70.784429220955928, -33.506215482888869 ], [ -70.784453403881628, -33.506173113878738 ], [ -70.784474788346756, -33.505844160770664 ], [ -70.784528189863408, -33.50511172182302 ], [ -70.784527673868411, -33.505111811353913 ], [ -70.784526619127405, -33.505111478277954 ], [ -70.784513698654166, -33.505109193995395 ], [ -70.784496780686425, -33.505106267258327 ], [ -70.784343828932947, -33.505080462003704 ], [ -70.784384041824012, -33.504040280624508 ], [ -70.784412595356002, -33.502978089231014 ], [ -70.784434010505038, -33.50225473308484 ], [ -70.784445907810209, -33.501770274823848 ], [ -70.784450666732198, -33.501710788298737 ], [ -70.784383628931721, -33.50169138261964 ], [ -70.784430146931641, -33.498501276225227 ], [ -70.783941313902915, -33.498402272116998 ], [ -70.783194082811349, -33.498173008554318 ], [ -70.78263365827047, -33.497994691254966 ], [ -70.782005305052621, -33.497790901312776 ], [ -70.781215616949126, -33.497553145565512 ], [ -70.780519332120832, -33.497391811657614 ], [ -70.779330554362105, -33.497001213209266 ], [ -70.777946477868056, -33.496542684128379 ], [ -70.77733510608607, -33.496347385393051 ], [ -70.776715244075035, -33.496160576886837 ], [ -70.776171802925603, -33.49608415602524 ], [ -70.775543448729991, -33.4960671736115 ], [ -70.775031630579292, -33.496027802533206 ], [ -70.774821978731836, -33.496885765454635 ], [ -70.774820534522746, -33.496919741037857 ], [ -70.774868806505594, -33.497283839176589 ], [ -70.774937479287701, -33.497829353260045 ], [ -70.77505193262067, -33.498611383241503 ], [ -70.77517401767517, -33.499496413595871 ], [ -70.775227428969856, -33.499855002814847 ], [ -70.775265580732651, -33.500186889319984 ], [ -70.775311362261448, -33.500530219985073 ], [ -70.775336159245057, -33.50069040106785 ], [ -70.775364774533841, -33.500900253364073 ], [ -70.775441077081837, -33.501377101509938 ], [ -70.775452752980129, -33.501473670898513 ], [ -70.775471598100978, -33.501617432779931 ], [ -70.775509749863886, -33.501907357039322 ], [ -70.775563161158573, -33.502281205790098 ], [ -70.775570791902226, -33.502365130281476 ], [ -70.775608229871864, -33.502619295452341 ], [ -70.775608943665134, -33.502700831180732 ], [ -70.775674108104226, -33.503281822746594 ], [ -70.775785177274713, -33.504404102348417 ], [ -70.775790981489877, -33.504504363906108 ], [ -70.775784445881015, -33.504638741850158 ] ] ] } },
{ "type": "Feature", "properties": { "CUA_CODIGO": "39462162", "CUA_SUP": 3.54, "COMUNA": "MAIPU", "UNIDAD": "25A. COM. MAIPU", "DESTACAMEN": "25A. COM. MAIPU", "PREFECTURA": "PREF. STGO. RINCONADA", "ZONA": "METROPOLITANA", "NUM_CUAD": "216B", "CUA_DESCRI": "Cuadrante 216B", "CUA_TIPO": "Urbano", "CUA_ESTADO": "1", "CUA_FTERMI": null, "UNI_CODIGO": "811110250000", "CUA_ANO": "2014", "COD_AUPOL": "3226", "COM_CODIGO": "13119", "SHAPE_LENG": 8.6230064254100007, "SHAPE_AREA": 3.5356410383000001, "COD_DESTAC": "811110250000", "TOOLTIP": "Cuadrante 216B&&25A. COM. MAIPU", "COD": "CONPCSP", "SUP_KM2": 0.0, "cuadrante": "216B", "equipo_asignado": "Motoristas", "ranking_pcsp": 9, "Total_PCSP": 10 }, "geometry": { "type": "Polygon", "coordinates": [ [ [ -70.76239402714566, -33.4930478318078 ], [ -70.763890696019359, -33.492775209991798 ], [ -70.76447730106554, -33.492512639811366 ], [ -70.766075123985786, -33.491869153025846 ], [ -70.766411057573862, -33.491761951314679 ], [ -70.768008369854329, -33.491252223750799 ], [ -70.76982981050179, -33.490673057708989 ], [ -70.771200914176575, -33.49024257773447 ], [ -70.773113960995147, -33.48964194602371 ], [ -70.775108218183675, -33.48901382710136 ], [ -70.778206878000049, -33.488037037400147 ], [ -70.780694302003553, -33.487237949343069 ], [ -70.783868047271994, -33.486217170258449 ], [ -70.783403657714246, -33.486025425743946 ], [ -70.782030253021276, -33.485453325755209 ], [ -70.780343743016033, -33.484744948840998 ], [ -70.77820059252906, -33.483865425760541 ], [ -70.777183605793368, -33.483452737765731 ], [ -70.776474900999929, -33.483165148999944 ], [ -70.776246003461949, -33.483112497689774 ], [ -70.775667540999919, -33.482979438999955 ], [ -70.77556836532824, -33.482928507117784 ], [ -70.77529730333913, -33.482789302643148 ], [ -70.775089703161541, -33.482688573811402 ], [ -70.774481863976007, -33.48242582574948 ], [ -70.774365171056559, -33.482368867690354 ], [ -70.774112270654541, -33.482239534371786 ], [ -70.773978779568154, -33.482171267002336 ], [ -70.773897207881248, -33.482129551224602 ], [ -70.773733418120742, -33.482066214382314 ], [ -70.773049636735095, -33.481800136510856 ], [ -70.772680903031358, -33.48165496989418 ], [ -70.772505152290989, -33.48158577865923 ], [ -70.772129433182727, -33.481357937316417 ], [ -70.772015048101309, -33.481288572597066 ], [ -70.771957110284006, -33.48126681708623 ], [ -70.771770955415604, -33.481196916381293 ], [ -70.771453705388012, -33.481075893272141 ], [ -70.771361760680236, -33.481040564802129 ], [ -70.771180098758236, -33.480965658147284 ], [ -70.7710118257815, -33.480885816793261 ], [ -70.770778077368618, -33.480774908968549 ], [ -70.770691123809797, -33.480733651661353 ], [ -70.770076031953579, -33.480506317349175 ], [ -70.769579390761294, -33.480332407240553 ], [ -70.769213272802972, -33.480204202784357 ], [ -70.768945200165206, -33.480061499927899 ], [ -70.768716737783279, -33.47993988276199 ], [ -70.768524105863719, -33.479881100492598 ], [ -70.768455299535333, -33.479860104013198 ], [ -70.768358988488387, -33.479849548533309 ], [ -70.768339137667567, -33.47974842625576 ], [ -70.768337847953546, -33.479509843275366 ], [ -70.768362603122739, -33.479221967226117 ], [ -70.768392544045639, -33.478873786427982 ], [ -70.768448200381272, -33.478810359214705 ], [ -70.768702016620352, -33.478690418179774 ], [ -70.768609143694448, -33.4786738487565 ], [ -70.76847139162237, -33.478677119294723 ], [ -70.768282161658931, -33.478681612031778 ], [ -70.767918055147618, -33.478690256724008 ], [ -70.767571699847281, -33.478698479963278 ], [ -70.767349835925359, -33.478703747502536 ], [ -70.767173046238895, -33.478673461204721 ], [ -70.767109073821416, -33.478662501924589 ], [ -70.766996256552488, -33.478643174906885 ], [ -70.766962991842888, -33.478647609002849 ], [ -70.76673785124207, -33.478677619637381 ], [ -70.766570319440063, -33.478699951174399 ], [ -70.766332162080062, -33.478679229431179 ], [ -70.766110685591741, -33.478659959067549 ], [ -70.765851503436863, -33.478642909708014 ], [ -70.765704441374339, -33.478649660335634 ], [ -70.765583709540124, -33.478663310820991 ], [ -70.765441860105511, -33.478513223499583 ], [ -70.765426055036357, -33.478435903179843 ], [ -70.765532422045339, -33.478240523836284 ], [ -70.765606826828844, -33.478048582370882 ], [ -70.765660548691699, -33.477889743308033 ], [ -70.76595000522849, -33.477333851796345 ], [ -70.766423151570848, -33.476380442464226 ], [ -70.76670786699998, -33.475764297999824 ], [ -70.765872880888764, -33.475313433999986 ], [ -70.764520356070761, -33.474568880309732 ], [ -70.763188301998753, -33.473825499667711 ], [ -70.762217018759486, -33.473312870206705 ], [ -70.759810382176227, -33.472088610419739 ], [ -70.759666840679643, -33.472334921244574 ], [ -70.758430945718544, -33.474382108778798 ], [ -70.756960003513711, -33.476785659083809 ], [ -70.755390492321112, -33.479462167857079 ], [ -70.753002106701445, -33.483738516215517 ], [ -70.751796540133171, -33.485853944344797 ], [ -70.751098980254994, -33.487097421159483 ], [ -70.750454495308475, -33.488280241188704 ], [ -70.750158776612025, -33.488819491491427 ], [ -70.750269353949705, -33.488930068829113 ], [ -70.75085215737721, -33.489393322634889 ], [ -70.751285523777653, -33.489781857927362 ], [ -70.751699963899966, -33.490123284817685 ], [ -70.752370774129815, -33.490462935047049 ], [ -70.752897232865507, -33.490607287519204 ], [ -70.753177444647235, -33.490726164415037 ], [ -70.753381235567076, -33.490879008093827 ], [ -70.753720886774317, -33.491159219875328 ], [ -70.753846941693041, -33.491216766282214 ], [ -70.754111485222779, -33.491337536197086 ], [ -70.754586995739487, -33.491626239185393 ], [ -70.75530875418832, -33.491863994932594 ], [ -70.755767282291458, -33.491982872806382 ], [ -70.756157880739636, -33.492169680334655 ], [ -70.756624900049701, -33.492322523035789 ], [ -70.75728721907268, -33.492398944875163 ], [ -70.758017468728397, -33.492483857921506 ], [ -70.759010946774083, -33.49261122700198 ], [ -70.759724214016046, -33.49266217424298 ], [ -70.760590322981216, -33.492781052116754 ], [ -70.761244150797495, -33.492857473956185 ], [ -70.761872504992994, -33.492942386024644 ], [ -70.76239402714566, -33.4930478318078 ] ] ] } },
{ "type": "Feature", "properties": { "CUA_CODIGO": "39582202", "CUA_SUP": 1.55, "COMUNA": "MAIPU", "UNIDAD": "52A. COM. RINCONADA DE MAIPU", "DESTACAMEN": "52A. COM. RINCONADA DE MAIPU", "PREFECTURA": "PREF. STGO. RINCONADA", "ZONA": "METROPOLITANA", "NUM_CUAD": "220B", "CUA_DESCRI": "Cuadrante 220B", "CUA_TIPO": "Urbano", "CUA_ESTADO": "1", "CUA_FTERMI": null, "UNI_CODIGO": "811110520000", "CUA_ANO": "2014", "COD_AUPOL": "3226", "COM_CODIGO": "13119", "SHAPE_LENG": 4.90625711694, "SHAPE_AREA": 1.5490174086799999, "COD_DESTAC": "811110520000", "TOOLTIP": "Cuadrante 220B&&52A. COM. RINCONADA DE MAIPU", "COD": "CONPCSP", "SUP_KM2": 0.0, "cuadrante": "220B", "equipo_asignado": "Motoristas", "ranking_pcsp": 7, "Total_PCSP": 13 }, "geometry": { "type": "Polygon", "coordinates": [ [ [ -70.785039412691788, -33.513387418322743 ], [ -70.785081742432453, -33.513654941711877 ], [ -70.785426582819298, -33.515434762810735 ], [ -70.785693556179581, -33.517147841302567 ], [ -70.786316493368702, -33.521308174783151 ], [ -70.78640548481475, -33.521653015169989 ], [ -70.786538971005996, -33.522120218306036 ], [ -70.786594590170921, -33.522620792745663 ], [ -70.786739200781881, -33.52341058938493 ], [ -70.786894935812427, -33.524411738264 ], [ -70.786918629838851, -33.524719225749834 ], [ -70.789492610516049, -33.524788230983518 ], [ -70.795573657136515, -33.524920976980816 ], [ -70.798324581305508, -33.5250015378437 ], [ -70.79901123774664, -33.524959555064122 ], [ -70.799029746763097, -33.524406580119077 ], [ -70.799050915300256, -33.523807174354893 ], [ -70.79907576196257, -33.523125992539391 ], [ -70.799085226927119, -33.52286650651223 ], [ -70.799105140154097, -33.521299531489944 ], [ -70.799135283993792, -33.520175281369404 ], [ -70.799172791489468, -33.518867898564615 ], [ -70.799197137739725, -33.51791978742375 ], [ -70.799245641140487, -33.516069311941408 ], [ -70.799242854356976, -33.5150574408637 ], [ -70.799243702660192, -33.514825733641764 ], [ -70.798589512021479, -33.514447907990814 ], [ -70.7985686440216, -33.514422006990962 ], [ -70.798332625182979, -33.514236733931348 ], [ -70.797788000011735, -33.513806730455038 ], [ -70.797699152021607, -33.513751457990907 ], [ -70.797634110021477, -33.51373121899092 ], [ -70.79731696708609, -33.513708648442041 ], [ -70.796468817649441, -33.513655726808103 ], [ -70.795456607437075, -33.513584156234558 ], [ -70.794259600832504, -33.513500421326739 ], [ -70.793222741710451, -33.513423589803317 ], [ -70.792013516598161, -33.513336532310348 ], [ -70.790824125021004, -33.513254567990948 ], [ -70.790738911020981, -33.513248623991046 ], [ -70.790490943020984, -33.513229551491129 ], [ -70.789903972640843, -33.513187102712941 ], [ -70.789482033936338, -33.513161991295362 ], [ -70.78932739902092, -33.513153262991061 ], [ -70.788969624939966, -33.513122724474378 ], [ -70.788663157156179, -33.51309728700334 ], [ -70.787916953119236, -33.513046794322513 ], [ -70.78764632507739, -33.513028132520851 ], [ -70.787183837416706, -33.512997019395577 ], [ -70.786236494585751, -33.512930302608645 ], [ -70.786115660020812, -33.512921652991103 ], [ -70.786076804020809, -33.512921398991224 ], [ -70.786041948020738, -33.51292678399124 ], [ -70.785999251020769, -33.512939329991241 ], [ -70.785949632020674, -33.512968504491319 ], [ -70.785922021422493, -33.512984738704013 ], [ -70.78587391402074, -33.513021565991252 ], [ -70.785847815020702, -33.513045452991328 ], [ -70.785794812781205, -33.513107409743668 ], [ -70.78577279102052, -33.513133151991219 ], [ -70.78570970729595, -33.513222158063911 ], [ -70.78564983402066, -33.513305878991275 ], [ -70.785470285475654, -33.513330217127752 ], [ -70.785039412691788, -33.513387418322743 ] ] ] } },
{ "type": "Feature", "properties": { "CUA_CODIGO": "39582201", "CUA_SUP": 2.13, "COMUNA": "MAIPU", "UNIDAD": "52A. COM. RINCONADA DE MAIPU", "DESTACAMEN": "52A. COM. RINCONADA DE MAIPU", "PREFECTURA": "PREF. STGO. RINCONADA", "ZONA": "METROPOLITANA", "NUM_CUAD": "220A", "CUA_DESCRI": "Cuadrante 220A", "CUA_TIPO": "Urbano", "CUA_ESTADO": "1", "CUA_FTERMI": null, "UNI_CODIGO": "811110520000", "CUA_ANO": "2014", "COD_AUPOL": "3226", "COM_CODIGO": "13119", "SHAPE_LENG": 5.9621052993800001, "SHAPE_AREA": 2.1283297936, "COD_DESTAC": "811110520000", "TOOLTIP": "Cuadrante 220A&&52A. COM. RINCONADA DE MAIPU", "COD": "CONPCSP", "SUP_KM2": 0.0, "cuadrante": "220A", "equipo_asignado": "Motoristas", "ranking_pcsp": 8, "Total_PCSP": 11 }, "geometry": { "type": "Polygon", "coordinates": [ [ [ -70.785039412691788, -33.513387418322743 ], [ -70.785470285475654, -33.513330217127752 ], [ -70.78564983402066, -33.513305878991275 ], [ -70.78570970729595, -33.513222158063911 ], [ -70.78577279102052, -33.513133151991219 ], [ -70.785794812781205, -33.513107409743668 ], [ -70.785847815020702, -33.513045452991328 ], [ -70.78587391402074, -33.513021565991252 ], [ -70.785922021422493, -33.512984738704013 ], [ -70.785949632020674, -33.512968504491319 ], [ -70.785999251020769, -33.512939329991241 ], [ -70.786041948020738, -33.51292678399124 ], [ -70.786076804020809, -33.512921398991224 ], [ -70.786115660020812, -33.512921652991103 ], [ -70.786236494585751, -33.512930302608645 ], [ -70.787183837416706, -33.512997019395577 ], [ -70.78764632507739, -33.513028132520851 ], [ -70.787916953119236, -33.513046794322513 ], [ -70.788663157156179, -33.51309728700334 ], [ -70.788969624939966, -33.513122724474378 ], [ -70.78932739902092, -33.513153262991061 ], [ -70.789482033936338, -33.513161991295362 ], [ -70.789903972640843, -33.513187102712941 ], [ -70.790490943020984, -33.513229551491129 ], [ -70.790738911020981, -33.513248623991046 ], [ -70.790824125021004, -33.513254567990948 ], [ -70.792013516598161, -33.513336532310348 ], [ -70.793222741710451, -33.513423589803317 ], [ -70.794259600832504, -33.513500421326739 ], [ -70.795456607437075, -33.513584156234558 ], [ -70.796468817649441, -33.513655726808103 ], [ -70.79731696708609, -33.513708648442041 ], [ -70.797634110021477, -33.51373121899092 ], [ -70.797699152021607, -33.513751457990907 ], [ -70.797788000011735, -33.513806730455038 ], [ -70.798332625182979, -33.514236733931348 ], [ -70.7985686440216, -33.514422006990962 ], [ -70.798589512021479, -33.514447907990814 ], [ -70.799243702660192, -33.514825733641764 ], [ -70.799245401932922, -33.514361590903206 ], [ -70.799251742797196, -33.513287605339436 ], [ -70.799245914258222, -33.512692913818007 ], [ -70.799238161067251, -33.511901848173352 ], [ -70.799234486653575, -33.51152694417037 ], [ -70.799224848890788, -33.511003737973162 ], [ -70.799214118392001, -33.510581354002454 ], [ -70.799207233293558, -33.510310336295056 ], [ -70.799201410360922, -33.510081128556244 ], [ -70.799204363461456, -33.509810583574271 ], [ -70.799218159239388, -33.508609096836153 ], [ -70.799231074684201, -33.508219198247609 ], [ -70.799238177152858, -33.508004784995592 ], [ -70.799234666856535, -33.507728695104447 ], [ -70.799225440148518, -33.50700300117586 ], [ -70.799211225257295, -33.506152408372152 ], [ -70.79920078373766, -33.5056479714492 ], [ -70.799171451892619, -33.505225742616801 ], [ -70.799141144019927, -33.504789463969367 ], [ -70.799135874276374, -33.50471360656411 ], [ -70.799009643235308, -33.50411894272326 ], [ -70.798951778603339, -33.503800060550077 ], [ -70.798907431698353, -33.503663318163142 ], [ -70.798830091359946, -33.50342484148814 ], [ -70.798740260581951, -33.503219584820719 ], [ -70.798578983422658, -33.502851078468893 ], [ -70.798501017869569, -33.502720999373935 ], [ -70.798334231143428, -33.502442729477195 ], [ -70.798213202900797, -33.502240803836287 ], [ -70.798051873161455, -33.502014090659429 ], [ -70.797890543422113, -33.501787377482579 ], [ -70.79758346773491, -33.501436977103367 ], [ -70.797498141077881, -33.501344562406757 ], [ -70.797093734543409, -33.500963557865695 ], [ -70.796893207615881, -33.500798587581869 ], [ -70.796676853726069, -33.500625077531197 ], [ -70.796463421039334, -33.500453910207511 ], [ -70.796200623367724, -33.500284241835175 ], [ -70.795993026299129, -33.500159257360117 ], [ -70.795664314730232, -33.49997450531793 ], [ -70.795210513307666, -33.499745934103714 ], [ -70.795039520505327, -33.499664486396 ], [ -70.794950223773355, -33.499630155240872 ], [ -70.794540500513961, -33.499472632423767 ], [ -70.79429689905362, -33.499398616351641 ], [ -70.793579955679093, -33.49920115075809 ], [ -70.793251565421428, -33.499115505225795 ], [ -70.79301600216462, -33.499066932622604 ], [ -70.792823407825495, -33.499027220111763 ], [ -70.791522871795678, -33.498747010432737 ], [ -70.790799634879534, -33.498583842729822 ], [ -70.789074175381359, -33.498198979493338 ], [ -70.787774969993961, -33.49791396060504 ], [ -70.787544253041744, -33.49809266182951 ], [ -70.787201961776987, -33.498291885450158 ], [ -70.786862310569745, -33.498470202749445 ], [ -70.786633046029351, -33.498631536657292 ], [ -70.78630188700663, -33.498750414531166 ], [ -70.785962235799389, -33.498843818784223 ], [ -70.785665041604204, -33.498835327577346 ], [ -70.785164056489009, -33.498741923324133 ], [ -70.78461212413265, -33.498538132404349 ], [ -70.784430146931641, -33.498501276225177 ], [ -70.784383628931664, -33.501691382619597 ], [ -70.784450666732141, -33.501710788298681 ], [ -70.784445907810209, -33.501770274823848 ], [ -70.784434010504981, -33.502254733084783 ], [ -70.784412595355946, -33.502978089230965 ], [ -70.784384041823913, -33.504040280624508 ], [ -70.784343828932947, -33.505080462003662 ], [ -70.784496780686425, -33.505106267258327 ], [ -70.784513698654166, -33.505109193995395 ], [ -70.784526619127348, -33.505111478277911 ], [ -70.784527673868354, -33.5051118113538 ], [ -70.784528189863352, -33.50511172182302 ], [ -70.784474788346643, -33.505844160770664 ], [ -70.784453403881571, -33.506173113878667 ], [ -70.784429220955872, -33.506215482888756 ], [ -70.784393368976282, -33.50675753165234 ], [ -70.784390575147029, -33.506759335818913 ], [ -70.784324418479855, -33.506780836735793 ], [ -70.784138820521321, -33.506852220566032 ], [ -70.784196620077424, -33.506938919900051 ], [ -70.784196607459137, -33.506939036268534 ], [ -70.784205842006429, -33.50695332782982 ], [ -70.78420203486877, -33.506979977793037 ], [ -70.784194420593451, -33.507016859438686 ], [ -70.784186330426166, -33.507043033509767 ], [ -70.7841842915999, -33.507052615992833 ], [ -70.784102840437015, -33.507803777600934 ], [ -70.784469928685439, -33.509739333730181 ], [ -70.784803644652484, -33.511897367496879 ], [ -70.785039412691788, -33.513387418322743 ] ] ] } },
{ "type": "Feature", "properties": { "CUA_CODIGO": "39462153", "CUA_SUP": 2.45, "COMUNA": "MAIPU", "UNIDAD": "25A. COM. MAIPU", "DESTACAMEN": "25A. COM. MAIPU", "PREFECTURA": "PREF. STGO. RINCONADA", "ZONA": "METROPOLITANA", "NUM_CUAD": "215C", "CUA_DESCRI": "Cuadrante 215C", "CUA_TIPO": "Urbano", "CUA_ESTADO": "1", "CUA_FTERMI": null, "UNI_CODIGO": "811110250000", "CUA_ANO": "2014", "COD_AUPOL": "3226", "COM_CODIGO": "13119", "SHAPE_LENG": 7.6832169693100001, "SHAPE_AREA": 2.45182657868, "COD_DESTAC": "811110250000", "TOOLTIP": "Cuadrante 215C&&25A. COM. MAIPU", "COD": "CONPCSP", "SUP_KM2": 0.0, "cuadrante": "215C", "equipo_asignado": "Motoristas", "ranking_pcsp": 6, "Total_PCSP": 13 }, "geometry": { "type": "Polygon", "coordinates": [ [ [ -70.750755484265198, -33.487727837647746 ], [ -70.749903385662776, -33.487046440119748 ], [ -70.749545119624599, -33.486841464521987 ], [ -70.748297051199643, -33.48608272426366 ], [ -70.747732160813769, -33.485497362519318 ], [ -70.747556122394712, -33.485309190028481 ], [ -70.747397471036265, -33.485139603063033 ], [ -70.747106384009555, -33.484774880464954 ], [ -70.746418879097234, -33.483878679853092 ], [ -70.745032148018311, -33.481665081492224 ], [ -70.744955096018145, -33.481542878492228 ], [ -70.743822468599262, -33.480174860864288 ], [ -70.74338991312419, -33.479697160884534 ], [ -70.742728044808132, -33.478940029462706 ], [ -70.742446452279182, -33.478580325459411 ], [ -70.741413140812369, -33.477214996481621 ], [ -70.74118157331128, -33.476912531889646 ], [ -70.740849033737277, -33.476459249176678 ], [ -70.740385097823264, -33.47581428888514 ], [ -70.73970213187323, -33.474864843694661 ], [ -70.739434942667344, -33.474493392202255 ], [ -70.739275020239063, -33.474284991356221 ], [ -70.737457414147741, -33.472080384815335 ], [ -70.736895515915023, -33.471427290736642 ], [ -70.736669522580314, -33.471254894297715 ], [ -70.736466768626258, -33.4711006929424 ], [ -70.736155023135666, -33.470869860355599 ], [ -70.736063124113684, -33.470798439795999 ], [ -70.735868121416388, -33.47066473219143 ], [ -70.735739763878712, -33.470581047577014 ], [ -70.735496729290332, -33.470431873431949 ], [ -70.735092621626848, -33.470195742039664 ], [ -70.734309447023122, -33.469733550762491 ], [ -70.73364380032092, -33.469343634401078 ], [ -70.733588489317128, -33.46930977042927 ], [ -70.733353938033474, -33.469376244717751 ], [ -70.73327847322264, -33.469408318139081 ], [ -70.733187016667216, -33.469443782904079 ], [ -70.733086532717095, -33.469489400115336 ], [ -70.732980931624425, -33.469537360960153 ], [ -70.732782364014497, -33.469625953174948 ], [ -70.732727328203396, -33.469644600617464 ], [ -70.73246219187638, -33.469707008171611 ], [ -70.731445759214068, -33.469982535265551 ], [ -70.730982970787124, -33.47010519469864 ], [ -70.730816270654032, -33.470147953864618 ], [ -70.730236332940194, -33.470299750432844 ], [ -70.729700209296936, -33.470435648785944 ], [ -70.729219720413482, -33.470564676318411 ], [ -70.728754118907261, -33.470710319725178 ], [ -70.728296331610125, -33.470862913092724 ], [ -70.727853806707515, -33.47101932138429 ], [ -70.727851075810236, -33.471020468234379 ], [ -70.727110063778071, -33.471331708990817 ], [ -70.726572009290521, -33.471511439401006 ], [ -70.724708605917215, -33.472082980145274 ], [ -70.722789922116931, -33.472680328733816 ], [ -70.722512972295647, -33.47276271292867 ], [ -70.722390364123669, -33.472959466605737 ], [ -70.722100420897448, -33.47311969431825 ], [ -70.721964005434245, -33.473244180274385 ], [ -70.721892734162111, -33.473304228906841 ], [ -70.721929344663295, -33.473334329215781 ], [ -70.721962107864613, -33.473365336041127 ], [ -70.722012001352596, -33.473450044084025 ], [ -70.722056190440753, -33.473516852020907 ], [ -70.722100644828743, -33.473597138996467 ], [ -70.722145537186577, -33.473699894634258 ], [ -70.722179634082636, -33.473798305646994 ], [ -70.72219748382652, -33.473887952766518 ], [ -70.722220778965607, -33.473982019154612 ], [ -70.722476278157444, -33.475266038796406 ], [ -70.722686231184426, -33.476410847882164 ], [ -70.722753995999767, -33.476815355743767 ], [ -70.722766585609122, -33.47686041537554 ], [ -70.723014720252991, -33.478142255060781 ], [ -70.723031890109439, -33.478210826568159 ], [ -70.723038402999691, -33.47826916918654 ], [ -70.72306152277082, -33.47835424685087 ], [ -70.723118377910623, -33.47851976167744 ], [ -70.723158280829921, -33.478640566708521 ], [ -70.72319273835393, -33.478756950672505 ], [ -70.723287611433932, -33.479218590665241 ], [ -70.723451676553339, -33.480079908260961 ], [ -70.723475656975609, -33.480170005940863 ], [ -70.723506677291198, -33.480253698648994 ], [ -70.723554290098207, -33.480350971120231 ], [ -70.723659573730174, -33.480541118377623 ], [ -70.72375404211499, -33.480697351301508 ], [ -70.723894614244841, -33.480874232659559 ], [ -70.72408736234155, -33.481122773796749 ], [ -70.724155440121137, -33.481228276863249 ], [ -70.724187151115927, -33.481291706047159 ], [ -70.72426107269014, -33.481435450984925 ], [ -70.724298703921761, -33.481541377632254 ], [ -70.724342761708897, -33.481715344287579 ], [ -70.7243644083905, -33.481856851712095 ], [ -70.724611789402331, -33.481803219742567 ], [ -70.724739172075033, -33.481781624322366 ], [ -70.724913430110576, -33.481750247875418 ], [ -70.725119537636203, -33.48170105675802 ], [ -70.725164915628056, -33.481701516311766 ], [ -70.725259651111969, -33.48169749184558 ], [ -70.726033740764251, -33.48193704515829 ], [ -70.726587010881588, -33.481958736806064 ], [ -70.726932441378779, -33.482022882749682 ], [ -70.727159273781368, -33.482363110668814 ], [ -70.727319509587403, -33.482695003671147 ], [ -70.727533155230617, -33.482904820900501 ], [ -70.727784950115108, -33.483057415167366 ], [ -70.728013853656307, -33.483107007382216 ], [ -70.728326689125311, -33.483049781721711 ], [ -70.729257562086502, -33.482797994032012 ], [ -70.729867969730833, -33.482588172306066 ], [ -70.73019606489629, -33.482519501873234 ], [ -70.731291517396073, -33.482537294973156 ], [ -70.731515042262799, -33.4825790069155 ], [ -70.732082901987553, -33.482579006915508 ], [ -70.732650761712421, -33.4825790069155 ], [ -70.733069184410112, -33.4825790069155 ], [ -70.733412889572264, -33.482579006915493 ], [ -70.733756593756482, -33.482593950618188 ], [ -70.734294566075846, -33.482937654802406 ], [ -70.734518720638619, -33.483296303667252 ], [ -70.734757819881679, -33.483490570824529 ], [ -70.735295792201157, -33.483759557473149 ], [ -70.735983201547413, -33.483879106116831 ], [ -70.736805103240442, -33.483983712035865 ], [ -70.737402850370643, -33.483879106116817 ], [ -70.737763322830574, -33.483731060497966 ], [ -70.738254639468721, -33.48356528933806 ], [ -70.73862823203639, -33.483430796013742 ], [ -70.739285752999479, -33.483415852311055 ], [ -70.739958218643153, -33.483430796013749 ], [ -70.740570909476048, -33.483565289338053 ], [ -70.741049106984576, -33.483714726365065 ], [ -70.741587079303997, -33.483998655738617 ], [ -70.74208022051522, -33.484312473495216 ], [ -70.742588305429308, -33.484446965841578 ], [ -70.742991784424305, -33.484521684355109 ], [ -70.743186052559508, -33.484596402868696 ], [ -70.743440094527571, -33.484730896193014 ], [ -70.743709081176064, -33.484775727301106 ], [ -70.744052785360395, -33.484850445814573 ], [ -70.744381546819795, -33.484969994458361 ], [ -70.744650532490482, -33.485044712971899 ], [ -70.744829856922877, -33.485134375188125 ], [ -70.74515861740457, -33.485403360858818 ], [ -70.745726477129324, -33.485702234912885 ], [ -70.745980520075094, -33.485986164286317 ], [ -70.746100068719045, -33.486285038340327 ], [ -70.746309280556886, -33.48658391141651 ], [ -70.746563322524878, -33.486748292146231 ], [ -70.747011633605851, -33.486972446708876 ], [ -70.747549605925258, -33.487390870384395 ], [ -70.748012859731148, -33.487644912352494 ], [ -70.748408583802075, -33.487868654284043 ], [ -70.748700268099583, -33.488018503942151 ], [ -70.749073860667238, -33.488093222455738 ], [ -70.749342846338038, -33.488152997266525 ], [ -70.749671606819504, -33.48833232169892 ], [ -70.750158776612025, -33.488819491491427 ], [ -70.750454495308475, -33.488280241188704 ], [ -70.750755484265198, -33.487727837647746 ] ] ] } },
{ "type": "Feature", "properties": { "CUA_CODIGO": "39462171", "CUA_SUP": 2.75, "COMUNA": "MAIPU", "UNIDAD": "25A. COM. MAIPU", "DESTACAMEN": "25A. COM. MAIPU", "PREFECTURA": "PREF. STGO. RINCONADA", "ZONA": "METROPOLITANA", "NUM_CUAD": "217A", "CUA_DESCRI": "Cuadrante 217A", "CUA_TIPO": "Urbano", "CUA_ESTADO": "1", "CUA_FTERMI": null, "UNI_CODIGO": "811110250000", "CUA_ANO": "2014", "COD_AUPOL": "3226", "COM_CODIGO": "13119", "SHAPE_LENG": 7.2970206476800001, "SHAPE_AREA": 2.75225670745, "COD_DESTAC": "811110250000", "TOOLTIP": "Cuadrante 217A&&25A. COM. MAIPU", "COD": "CONPCSP", "SUP_KM2": 0.0, "cuadrante": "217A", "equipo_asignado": "Móviles", "ranking_pcsp": 2, "Total_PCSP": 17 }, "geometry": { "type": "Polygon", "coordinates": [ [ [ -70.737463557884553, -33.504897905105793 ], [ -70.739850404871959, -33.51010467319184 ], [ -70.73983826060396, -33.510104414073737 ], [ -70.74208687644682, -33.510261791996129 ], [ -70.743632006018174, -33.510280899992154 ], [ -70.746128748631406, -33.510345302210339 ], [ -70.747176447138656, -33.510363278635339 ], [ -70.749752061440347, -33.510434596119808 ], [ -70.753157440428254, -33.510521125225189 ], [ -70.753147137756685, -33.510416025779257 ], [ -70.752994764018581, -33.508963259992072 ], [ -70.752864583018663, -33.507828045992028 ], [ -70.752850905452817, -33.506950644935444 ], [ -70.752751879185439, -33.505924072810274 ], [ -70.752718968601414, -33.505527863937282 ], [ -70.757316644750631, -33.505543097038696 ], [ -70.757324220943815, -33.505039209224151 ], [ -70.757385253204404, -33.501266475282144 ], [ -70.757378795819477, -33.50028650161903 ], [ -70.757440309157005, -33.498518705492927 ], [ -70.757440309157005, -33.497070673119488 ], [ -70.757418369302115, -33.495205782526568 ], [ -70.757308669050303, -33.494459826484956 ], [ -70.75706733064726, -33.494021029388762 ], [ -70.756716292970168, -33.493450592185695 ], [ -70.755838697799675, -33.492858215127796 ], [ -70.755202441032168, -33.492397478176713 ], [ -70.754237085464752, -33.491739281554366 ], [ -70.753846941692984, -33.491216766282143 ], [ -70.753720886774317, -33.491159219875328 ], [ -70.753381235567076, -33.490879008093827 ], [ -70.753177444647179, -33.490726164415037 ], [ -70.752897232865507, -33.49060728751914 ], [ -70.752370774129759, -33.490462935047049 ], [ -70.75169996389991, -33.490123284817685 ], [ -70.751285523777597, -33.489781857927362 ], [ -70.750852157377153, -33.489393322634889 ], [ -70.750269353949705, -33.488930068829063 ], [ -70.750158776612025, -33.488819491491363 ], [ -70.749916872977792, -33.489216627262124 ], [ -70.749008263518476, -33.490771419492141 ], [ -70.748145487691545, -33.492272709324652 ], [ -70.747705287405438, -33.492998444931452 ], [ -70.746789194918165, -33.494681913593119 ], [ -70.746372789242059, -33.495479033030165 ], [ -70.745782331999976, -33.496395205999931 ], [ -70.745311824849466, -33.496984545530601 ], [ -70.744457723733888, -33.498054360410492 ], [ -70.743360375753355, -33.499322977266495 ], [ -70.742755137694303, -33.500021884293282 ], [ -70.742086454883008, -33.500766131096952 ], [ -70.741411281999888, -33.501513788999937 ], [ -70.740346804244666, -33.50224859959183 ], [ -70.739352879774515, -33.502725530070499 ], [ -70.736780647309217, -33.503405854616808 ], [ -70.736826828395138, -33.50350891670292 ], [ -70.737463557884553, -33.504897905105793 ] ] ] } },
{ "type": "Feature", "properties": { "CUA_CODIGO": "39462183", "CUA_SUP": 0.83, "COMUNA": "MAIPU", "UNIDAD": "25A. COM. MAIPU", "DESTACAMEN": "25A. COM. MAIPU", "PREFECTURA": "PREF. STGO. RINCONADA", "ZONA": "METROPOLITANA", "NUM_CUAD": "218C", "CUA_DESCRI": "Cuadrante 218C", "CUA_TIPO": "Urbano", "CUA_ESTADO": "1", "CUA_FTERMI": null, "UNI_CODIGO": "811110250000", "CUA_ANO": "2014", "COD_AUPOL": "3226", "COM_CODIGO": "13119", "SHAPE_LENG": 4.0179398767399999, "SHAPE_AREA": 0.83484841684, "COD_DESTAC": "811110250000", "TOOLTIP": "Cuadrante 218C&&25A. COM. MAIPU", "COD": "CONPCSP", "SUP_KM2": 0.0, "cuadrante": "218C", "equipo_asignado": "Delta", "ranking_pcsp": 18, "Total_PCSP": 2 }, "geometry": { "type": "Polygon", "coordinates": [ [ [ -70.752718968601414, -33.505527863937282 ], [ -70.752751879185439, -33.505924072810274 ], [ -70.752850905452817, -33.506950644935444 ], [ -70.752864583018663, -33.507828045992028 ], [ -70.752994764018581, -33.508963259992072 ], [ -70.753147137756685, -33.510416025779257 ], [ -70.753190036853141, -33.510853641311598 ], [ -70.753238473018882, -33.511349091992031 ], [ -70.753234661518661, -33.511688607492147 ], [ -70.753175342893201, -33.511938691635294 ], [ -70.753108775018688, -33.512245566992078 ], [ -70.752872256018691, -33.512726231992083 ], [ -70.752635735018544, -33.513035230992038 ], [ -70.752701242803596, -33.513077047364277 ], [ -70.752756327018574, -33.513093748992105 ], [ -70.752934607962743, -33.513128524760816 ], [ -70.753009595018568, -33.513138227992044 ], [ -70.753119046018753, -33.513146610992123 ], [ -70.753685878821045, -33.513160949747714 ], [ -70.754016728018883, -33.513168739991947 ], [ -70.755003686573843, -33.513179325672859 ], [ -70.755657133018815, -33.513183988992012 ], [ -70.755657137018773, -33.513470097991842 ], [ -70.756256736877958, -33.51342238183814 ], [ -70.757177036820167, -33.513351740338919 ], [ -70.75733581959679, -33.513351644012516 ], [ -70.757335688571118, -33.513340384739074 ], [ -70.757358569068515, -33.512394317235483 ], [ -70.757424922899872, -33.512400854504612 ], [ -70.758739563040535, -33.512564235655809 ], [ -70.759835412093764, -33.512701037805861 ], [ -70.761358818077042, -33.512895806019692 ], [ -70.763279294019355, -33.513130534991539 ], [ -70.763209247455563, -33.512375873528185 ], [ -70.76319271064574, -33.512188867485122 ], [ -70.763115960019263, -33.511169093991725 ], [ -70.763084474107075, -33.510799042584601 ], [ -70.763081160398656, -33.510715592465253 ], [ -70.763092183290269, -33.510648552519513 ], [ -70.763159492296779, -33.510281023928307 ], [ -70.763179349019367, -33.510265830991777 ], [ -70.763369495409222, -33.510221804049309 ], [ -70.764995827622045, -33.509921896279927 ], [ -70.764854813519207, -33.509527459491721 ], [ -70.764433453519246, -33.508265966991701 ], [ -70.764171929519364, -33.507505626491593 ], [ -70.763901740676602, -33.506673687484749 ], [ -70.763897583477672, -33.506489251435646 ], [ -70.763965908019372, -33.50554291999191 ], [ -70.757316644750631, -33.50554309703886 ], [ -70.752718968601414, -33.505527863937282 ] ] ] } }
]
}
