{
"type": "FeatureCollection",
"name": "puntos_focalizados_pcsp",
"crs": { "type": "name", "properties": { "name": "urn:ogc:def:crs:OGC:1.3:CRS84" } },
"features": [
{ "type": "Feature", "properties": { "id_pauta": "PF_PCSP_20260907_20261004", "id_punto": "PF_PCSP_20260907_20261004_218C_001", "equipo": "Delta", "cuadrante": "218C", "orden_ruta": 1, "interseccion": "Alberto Llona & Av. 5 De Abril", "meta_pcsp": "Robos violentos", "metas_pcsp_asociadas": "Robos violentos", "motivo_survey": "Robos violentos", "origen_meta_publica": "casos_en_punto", "problematica_principal": "Robos violentos", "problematicas_asociadas": "Robos violentos + Porte de arma cortante o punzante", "casos_total": 3, "casos_meta_pcsp": 1, "casos_complementarios_pcsp": 2, "puntaje_pcsp": 14.0, "tiene_meta_pcsp": true, "casos_robos_violentos": 1, "casos_robo_lugar_habitado": 0, "casos_alcohol_drogas": 0, "casos_acoso_sexual_callejero": 0, "casos_amenazas_con_armas": 0, "casos_amenazas_o_rina": 0, "casos_ley_armas": 0, "casos_ley_drogas": 0, "casos_lesiones": 0, "casos_porte_arma_cortante_punzante": 2, "casos_robo_vehiculo_motorizado": 0, "casos_robo_por_sorpresa": 0, "casos_secuestro_intento_secuestro": 0, "latitud": -33.510466, "longitud": -70.755613, "distancia_interseccion_m": 2.7, "criterio_interseccion": "interseccion_dentro_cuadrante", "intersecciones_agrupadas": "Alberto Llona & Av. 5 De Abril", "grid_ids_origen": "218C_D00313", "tamano_grilla_m": 50, "url_google_maps": "https://www.google.com/maps/dir/?api=1&origin=Current%20Location&destination=-33.5104660,-70.7556130&travelmode=walking" }, "geometry": { "type": "Point", "coordinates": [ -70.755613, -33.510466 ] } },
{ "type": "Feature", "properties": { "id_pauta": "PF_PCSP_20260907_20261004", "id_punto": "PF_PCSP_20260907_20261004_218C_002", "equipo": "Delta", "cuadrante": "218C", "orden_ruta": 2, "interseccion": "Av. 5 De Abril & Corredor Transantiago 5 De Abril", "meta_pcsp": "Robo en lugar habitado", "metas_pcsp_asociadas": "Robo en lugar habitado", "motivo_survey": "Robo en lugar habitado", "origen_meta_publica": "meta_dominante_cuadrante", "problematica_principal": "Crímenes y simples delitos Ley de Armas", "problematicas_asociadas": "Crímenes y simples delitos Ley de Armas + Lesiones", "casos_total": 2, "casos_meta_pcsp": 0, "casos_complementarios_pcsp": 2, "puntaje_pcsp": 4.0, "tiene_meta_pcsp": false, "casos_robos_violentos": 0, "casos_robo_lugar_habitado": 0, "casos_alcohol_drogas": 0, "casos_acoso_sexual_callejero": 0, "casos_amenazas_con_armas": 0, "casos_amenazas_o_rina": 0, "casos_ley_armas": 1, "casos_ley_drogas": 0, "casos_lesiones": 1, "casos_porte_arma_cortante_punzante": 0, "casos_robo_vehiculo_motorizado": 0, "casos_robo_por_sorpresa": 0, "casos_secuestro_intento_secuestro": 0, "latitud": -33.5104315, "longitud": -70.7539364, "distancia_interseccion_m": 18.2, "criterio_interseccion": "interseccion_dentro_cuadrante", "intersecciones_agrupadas": "Av. 5 De Abril & Corredor Transantiago 5 De Abril", "grid_ids_origen": "218C_D00205 | 218C_D00386", "tamano_grilla_m": 50, "url_google_maps": "https://www.google.com/maps/dir/?api=1&origin=Current%20Location&destination=-33.5104315,-70.7539364&travelmode=walking" }, "geometry": { "type": "Point", "coordinates": [ -70.7539364, -33.5104315 ] } },
{ "type": "Feature", "properties": { "id_pauta": "PF_PCSP_20260907_20261004", "id_punto": "PF_PCSP_20260907_20261004_218C_003", "equipo": "Delta", "cuadrante": "218C", "orden_ruta": 3, "interseccion": "Av. 5 De Abril & Av. Los Pajaritos", "meta_pcsp": "Alcohol y drogas en vía pública", "metas_pcsp_asociadas": "Alcohol y drogas en vía pública", "motivo_survey": "Alcohol y drogas", "origen_meta_publica": "casos_en_punto", "problematica_principal": "Alcohol y drogas en vía pública", "problematicas_asociadas": "Alcohol y drogas en vía pública + Robo de vehículo motorizado + Robo por sorpresa", "casos_total": 3, "casos_meta_pcsp": 1, "casos_complementarios_pcsp": 2, "puntaje_pcsp": 14.0, "tiene_meta_pcsp": true, "casos_robos_violentos": 0, "casos_robo_lugar_habitado": 0, "casos_alcohol_drogas": 1, "casos_acoso_sexual_callejero": 0, "casos_amenazas_con_armas": 0, "casos_amenazas_o_rina": 0, "casos_ley_armas": 0, "casos_ley_drogas": 0, "casos_lesiones": 0, "casos_porte_arma_cortante_punzante": 0, "casos_robo_vehiculo_motorizado": 1, "casos_robo_por_sorpresa": 1, "casos_secuestro_intento_secuestro": 0, "latitud": -33.5105017, "longitud": -70.757457, "distancia_interseccion_m": 1.5, "criterio_interseccion": "interseccion_dentro_cuadrante", "intersecciones_agrupadas": "Av. 5 De Abril & Av. Los Pajaritos", "grid_ids_origen": "218C_D00259", "tamano_grilla_m": 50, "url_google_maps": "https://www.google.com/maps/dir/?api=1&origin=Current%20Location&destination=-33.5105017,-70.7574570&travelmode=walking" }, "geometry": { "type": "Point", "coordinates": [ -70.757457, -33.5105017 ] } },
{ "type": "Feature", "properties": { "id_pauta": "PF_PCSP_20260907_20261004", "id_punto": "PF_PCSP_20260907_20261004_218C_004", "equipo": "Delta", "cuadrante": "218C", "orden_ruta": 4, "interseccion": "Chacabuco & Monumento", "meta_pcsp": "Robo en lugar habitado", "metas_pcsp_asociadas": "Robo en lugar habitado", "motivo_survey": "Robo en lugar habitado", "origen_meta_publica": "meta_dominante_cuadrante", "problematica_principal": "Amenazas con armas", "problematicas_asociadas": "Amenazas con armas", "casos_total": 2, "casos_meta_pcsp": 0, "casos_complementarios_pcsp": 2, "puntaje_pcsp": 4.0, "tiene_meta_pcsp": false, "casos_robos_violentos": 0, "casos_robo_lugar_habitado": 0, "casos_alcohol_drogas": 0, "casos_acoso_sexual_callejero": 0, "casos_amenazas_con_armas": 2, "casos_amenazas_o_rina": 0, "casos_ley_armas": 0, "casos_ley_drogas": 0, "casos_lesiones": 0, "casos_porte_arma_cortante_punzante": 0, "casos_robo_vehiculo_motorizado": 0, "casos_robo_por_sorpresa": 0, "casos_secuestro_intento_secuestro": 0, "latitud": -33.5090479, "longitud": -70.7588612, "distancia_interseccion_m": 2.7, "criterio_interseccion": "interseccion_dentro_cuadrante", "intersecciones_agrupadas": "Chacabuco & Monumento", "grid_ids_origen": "218C_D00208 | 218C_D00227", "tamano_grilla_m": 50, "url_google_maps": "https://www.google.com/maps/dir/?api=1&origin=Current%20Location&destination=-33.5090479,-70.7588612&travelmode=walking" }, "geometry": { "type": "Point", "coordinates": [ -70.7588612, -33.5090479 ] } },
{ "type": "Feature", "properties": { "id_pauta": "PF_PCSP_20260907_20261004", "id_punto": "PF_PCSP_20260907_20261004_218C_005", "equipo": "Delta", "cuadrante": "218C", "orden_ruta": 5, "interseccion": "Chacabuco & Pje. Isla De Pascua", "meta_pcsp": "Robo en lugar habitado", "metas_pcsp_asociadas": "Robo en lugar habitado", "motivo_survey": "Robo en lugar habitado", "origen_meta_publica": "casos_en_punto", "problematica_principal": "Robo en lugar habitado", "problematicas_asociadas": "Robo en lugar habitado + Lesiones", "casos_total": 3, "casos_meta_pcsp": 1, "casos_complementarios_pcsp": 2, "puntaje_pcsp": 14.0, "tiene_meta_pcsp": true, "casos_robos_violentos": 0, "casos_robo_lugar_habitado": 1, "casos_alcohol_drogas": 0, "casos_acoso_sexual_callejero": 0, "casos_amenazas_con_armas": 0, "casos_amenazas_o_rina": 0, "casos_ley_armas": 0, "casos_ley_drogas": 0, "casos_lesiones": 2, "casos_porte_arma_cortante_punzante": 0, "casos_robo_vehiculo_motorizado": 0, "casos_robo_por_sorpresa": 0, "casos_secuestro_intento_secuestro": 0, "latitud": -33.5090789, "longitud": -70.761279, "distancia_interseccion_m": 26.5, "criterio_interseccion": "interseccion_dentro_cuadrante", "intersecciones_agrupadas": "Chacabuco & Hermanos Carrera | Chacabuco & Pje. Isla De Pascua", "grid_ids_origen": "218C_D00101 | 218C_D00137", "tamano_grilla_m": 50, "url_google_maps": "https://www.google.com/maps/dir/?api=1&origin=Current%20Location&destination=-33.5090789,-70.7612790&travelmode=walking" }, "geometry": { "type": "Point", "coordinates": [ -70.761279, -33.5090789 ] } },
{ "type": "Feature", "properties": { "id_pauta": "PF_PCSP_20260907_20261004", "id_punto": "PF_PCSP_20260907_20261004_218C_006", "equipo": "Delta", "cuadrante": "218C", "orden_ruta": 6, "interseccion": "Camino A Rinconada & Corredor Transantiago 5 De Abril", "meta_pcsp": "Robo en lugar habitado", "metas_pcsp_asociadas": "Robo en lugar habitado", "motivo_survey": "Robo en lugar habitado", "origen_meta_publica": "meta_dominante_cuadrante", "problematica_principal": "Amenazas o riña", "problematicas_asociadas": "Amenazas o riña", "casos_total": 1, "casos_meta_pcsp": 0, "casos_complementarios_pcsp": 1, "puntaje_pcsp": 2.0, "tiene_meta_pcsp": false, "casos_robos_violentos": 0, "casos_robo_lugar_habitado": 0, "casos_alcohol_drogas": 0, "casos_acoso_sexual_callejero": 0, "casos_amenazas_con_armas": 0, "casos_amenazas_o_rina": 1, "casos_ley_armas": 0, "casos_ley_drogas": 0, "casos_lesiones": 0, "casos_porte_arma_cortante_punzante": 0, "casos_robo_vehiculo_motorizado": 0, "casos_robo_por_sorpresa": 0, "casos_secuestro_intento_secuestro": 0, "latitud": -33.510762, "longitud": -70.7630384, "distancia_interseccion_m": 6.2, "criterio_interseccion": "interseccion_dentro_cuadrante", "intersecciones_agrupadas": "Camino A Rinconada & Corredor Transantiago 5 De Abril", "grid_ids_origen": "218C_D00060", "tamano_grilla_m": 50, "url_google_maps": "https://www.google.com/maps/dir/?api=1&origin=Current%20Location&destination=-33.5107620,-70.7630384&travelmode=walking" }, "geometry": { "type": "Point", "coordinates": [ -70.7630384, -33.510762 ] } },
{ "type": "Feature", "properties": { "id_pauta": "PF_PCSP_20260907_20261004", "id_punto": "PF_PCSP_20260907_20261004_215C_007", "equipo": "Motoristas", "cuadrante": "215C", "orden_ruta": 1, "interseccion": "Manchester & Orleans", "meta_pcsp": "Robos violentos", "metas_pcsp_asociadas": "Robos violentos", "motivo_survey": "Robos violentos", "origen_meta_publica": "casos_en_punto", "problematica_principal": "Robos violentos", "problematicas_asociadas": "Robos violentos", "casos_total": 1, "casos_meta_pcsp": 1, "casos_complementarios_pcsp": 0, "puntaje_pcsp": 10.0, "tiene_meta_pcsp": true, "casos_robos_violentos": 1, "casos_robo_lugar_habitado": 0, "casos_alcohol_drogas": 0, "casos_acoso_sexual_callejero": 0, "casos_amenazas_con_armas": 0, "casos_amenazas_o_rina": 0, "casos_ley_armas": 0, "casos_ley_drogas": 0, "casos_lesiones": 0, "casos_porte_arma_cortante_punzante": 0, "casos_robo_vehiculo_motorizado": 0, "casos_robo_por_sorpresa": 0, "casos_secuestro_intento_secuestro": 0, "latitud": -33.4734547, "longitud": -70.736242, "distancia_interseccion_m": 2.7, "criterio_interseccion": "interseccion_dentro_cuadrante", "intersecciones_agrupadas": "Manchester & Orleans", "grid_ids_origen": "G01514", "tamano_grilla_m": 400, "url_google_maps": "https://www.google.com/maps/dir/?api=1&origin=Current%20Location&destination=-33.4734547,-70.7362420&travelmode=driving" }, "geometry": { "type": "Point", "coordinates": [ -70.736242, -33.4734547 ] } },
{ "type": "Feature", "properties": { "id_pauta": "PF_PCSP_20260907_20261004", "id_punto": "PF_PCSP_20260907_20261004_215C_008", "equipo": "Motoristas", "cuadrante": "215C", "orden_ruta": 2, "interseccion": "Berkley & Miami", "meta_pcsp": "Robos violentos", "metas_pcsp_asociadas": "Robos violentos", "motivo_survey": "Robos violentos", "origen_meta_publica": "meta_dominante_cuadrante", "problematica_principal": "Amenazas con armas", "problematicas_asociadas": "Amenazas con armas", "casos_total": 1, "casos_meta_pcsp": 0, "casos_complementarios_pcsp": 1, "puntaje_pcsp": 2.0, "tiene_meta_pcsp": false, "casos_robos_violentos": 0, "casos_robo_lugar_habitado": 0, "casos_alcohol_drogas": 0, "casos_acoso_sexual_callejero": 0, "casos_amenazas_con_armas": 1, "casos_amenazas_o_rina": 0, "casos_ley_armas": 0, "casos_ley_drogas": 0, "casos_lesiones": 0, "casos_porte_arma_cortante_punzante": 0, "casos_robo_vehiculo_motorizado": 0, "casos_robo_por_sorpresa": 0, "casos_secuestro_intento_secuestro": 0, "latitud": -33.4755323, "longitud": -70.7391381, "distancia_interseccion_m": 15.6, "criterio_interseccion": "interseccion_dentro_cuadrante", "intersecciones_agrupadas": "Berkley & Miami", "grid_ids_origen": "G01513", "tamano_grilla_m": 400, "url_google_maps": "https://www.google.com/maps/dir/?api=1&origin=Current%20Location&destination=-33.4755323,-70.7391381&travelmode=driving" }, "geometry": { "type": "Point", "coordinates": [ -70.7391381, -33.4755323 ] } },
{ "type": "Feature", "properties": { "id_pauta": "PF_PCSP_20260907_20261004", "id_punto": "PF_PCSP_20260907_20261004_215C_009", "equipo": "Motoristas", "cuadrante": "215C", "orden_ruta": 3, "interseccion": "Av. Los Pajaritos & Pje. Pilatos", "meta_pcsp": "Robos violentos", "metas_pcsp_asociadas": "Robos violentos", "motivo_survey": "Robos violentos", "origen_meta_publica": "meta_dominante_cuadrante", "problematica_principal": "Amenazas con armas", "problematicas_asociadas": "Amenazas con armas", "casos_total": 1, "casos_meta_pcsp": 0, "casos_complementarios_pcsp": 1, "puntaje_pcsp": 2.0, "tiene_meta_pcsp": false, "casos_robos_violentos": 0, "casos_robo_lugar_habitado": 0, "casos_alcohol_drogas": 0, "casos_acoso_sexual_callejero": 0, "casos_amenazas_con_armas": 1, "casos_amenazas_o_rina": 0, "casos_ley_armas": 0, "casos_ley_drogas": 0, "casos_lesiones": 0, "casos_porte_arma_cortante_punzante": 0, "casos_robo_vehiculo_motorizado": 0, "casos_robo_por_sorpresa": 0, "casos_secuestro_intento_secuestro": 0, "latitud": -33.4794839, "longitud": -70.7428884, "distancia_interseccion_m": 24.4, "criterio_interseccion": "interseccion_dentro_cuadrante", "intersecciones_agrupadas": "Av. Los Pajaritos & Pje. Pilatos", "grid_ids_origen": "G01479", "tamano_grilla_m": 400, "url_google_maps": "https://www.google.com/maps/dir/?api=1&origin=Current%20Location&destination=-33.4794839,-70.7428884&travelmode=driving" }, "geometry": { "type": "Point", "coordinates": [ -70.7428884, -33.4794839 ] } },
{ "type": "Feature", "properties": { "id_pauta": "PF_PCSP_20260907_20261004", "id_punto": "PF_PCSP_20260907_20261004_215C_010", "equipo": "Motoristas", "cuadrante": "215C", "orden_ruta": 4, "interseccion": "Av. Los Pajaritos & Pje. Los Apóstoles", "meta_pcsp": "Robos violentos", "metas_pcsp_asociadas": "Robos violentos", "motivo_survey": "Robos violentos", "origen_meta_publica": "meta_dominante_cuadrante", "problematica_principal": "Robo por sorpresa", "problematicas_asociadas": "Robo por sorpresa", "casos_total": 1, "casos_meta_pcsp": 0, "casos_complementarios_pcsp": 1, "puntaje_pcsp": 2.0, "tiene_meta_pcsp": false, "casos_robos_violentos": 0, "casos_robo_lugar_habitado": 0, "casos_alcohol_drogas": 0, "casos_acoso_sexual_callejero": 0, "casos_amenazas_con_armas": 0, "casos_amenazas_o_rina": 0, "casos_ley_armas": 0, "casos_ley_drogas": 0, "casos_lesiones": 0, "casos_porte_arma_cortante_punzante": 0, "casos_robo_vehiculo_motorizado": 0, "casos_robo_por_sorpresa": 1, "casos_secuestro_intento_secuestro": 0, "latitud": -33.4838066, "longitud": -70.7460586, "distancia_interseccion_m": 66.7, "criterio_interseccion": "interseccion_dentro_cuadrante", "intersecciones_agrupadas": "Av. Los Pajaritos & Pje. Los Apóstoles", "grid_ids_origen": "G01445", "tamano_grilla_m": 400, "url_google_maps": "https://www.google.com/maps/dir/?api=1&origin=Current%20Location&destination=-33.4838066,-70.7460586&travelmode=driving" }, "geometry": { "type": "Point", "coordinates": [ -70.7460586, -33.4838066 ] } },
{ "type": "Feature", "properties": { "id_pauta": "PF_PCSP_20260907_20261004", "id_punto": "PF_PCSP_20260907_20261004_215C_011", "equipo": "Motoristas", "cuadrante": "215C", "orden_ruta": 5, "interseccion": "Av. Las Torres & Av. Simón Bolívar", "meta_pcsp": "Robos violentos", "metas_pcsp_asociadas": "Robos violentos", "motivo_survey": "Robos violentos", "origen_meta_publica": "casos_en_punto", "problematica_principal": "Robos violentos", "problematicas_asociadas": "Robos violentos", "casos_total": 1, "casos_meta_pcsp": 1, "casos_complementarios_pcsp": 0, "puntaje_pcsp": 10.0, "tiene_meta_pcsp": true, "casos_robos_violentos": 1, "casos_robo_lugar_habitado": 0, "casos_alcohol_drogas": 0, "casos_acoso_sexual_callejero": 0, "casos_amenazas_con_armas": 0, "casos_amenazas_o_rina": 0, "casos_ley_armas": 0, "casos_ley_drogas": 0, "casos_lesiones": 0, "casos_porte_arma_cortante_punzante": 0, "casos_robo_vehiculo_motorizado": 0, "casos_robo_por_sorpresa": 0, "casos_secuestro_intento_secuestro": 0, "latitud": -33.4794588, "longitud": -70.7315294, "distancia_interseccion_m": 4.3, "criterio_interseccion": "interseccion_dentro_cuadrante", "intersecciones_agrupadas": "Av. Las Torres & Av. Simón Bolívar", "grid_ids_origen": "G01545", "tamano_grilla_m": 400, "url_google_maps": "https://www.google.com/maps/dir/?api=1&origin=Current%20Location&destination=-33.4794588,-70.7315294&travelmode=driving" }, "geometry": { "type": "Point", "coordinates": [ -70.7315294, -33.4794588 ] } },
{ "type": "Feature", "properties": { "id_pauta": "PF_PCSP_20260907_20261004", "id_punto": "PF_PCSP_20260907_20261004_215C_012", "equipo": "Motoristas", "cuadrante": "215C", "orden_ruta": 6, "interseccion": "Av. Simón Bolívar & Av. Sta. Corina", "meta_pcsp": "Robos violentos", "metas_pcsp_asociadas": "Robos violentos", "motivo_survey": "Robos violentos", "origen_meta_publica": "meta_dominante_cuadrante", "problematica_principal": "Amenazas o riña", "problematicas_asociadas": "Amenazas o riña + Robo de vehículo motorizado", "casos_total": 2, "casos_meta_pcsp": 0, "casos_complementarios_pcsp": 2, "puntaje_pcsp": 4.0, "tiene_meta_pcsp": false, "casos_robos_violentos": 0, "casos_robo_lugar_habitado": 0, "casos_alcohol_drogas": 0, "casos_acoso_sexual_callejero": 0, "casos_amenazas_con_armas": 0, "casos_amenazas_o_rina": 1, "casos_ley_armas": 0, "casos_ley_drogas": 0, "casos_lesiones": 0, "casos_porte_arma_cortante_punzante": 0, "casos_robo_vehiculo_motorizado": 1, "casos_robo_por_sorpresa": 0, "casos_secuestro_intento_secuestro": 0, "latitud": -33.4733295, "longitud": -70.7223958, "distancia_interseccion_m": 0.4, "criterio_interseccion": "interseccion_dentro_cuadrante", "intersecciones_agrupadas": "Av. Simón Bolívar & Av. Sta. Corina | Av. Sta. Corina & Pje. Ramón Y Cajal", "grid_ids_origen": "G01613", "tamano_grilla_m": 400, "url_google_maps": "https://www.google.com/maps/dir/?api=1&origin=Current%20Location&destination=-33.4733295,-70.7223958&travelmode=driving" }, "geometry": { "type": "Point", "coordinates": [ -70.7223958, -33.4733295 ] } },
{ "type": "Feature", "properties": { "id_pauta": "PF_PCSP_20260907_20261004", "id_punto": "PF_PCSP_20260907_20261004_216B_013", "equipo": "Motoristas", "cuadrante": "216B", "orden_ruta": 1, "interseccion": "De La Música & Pje. Los Tenores", "meta_pcsp": "Robo en lugar habitado", "metas_pcsp_asociadas": "Robo en lugar habitado", "motivo_survey": "Robo en lugar habitado", "origen_meta_publica": "casos_en_punto", "problematica_principal": "Robo en lugar habitado", "problematicas_asociadas": "Robo en lugar habitado", "casos_total": 2, "casos_meta_pcsp": 2, "casos_complementarios_pcsp": 0, "puntaje_pcsp": 20.0, "tiene_meta_pcsp": true, "casos_robos_violentos": 0, "casos_robo_lugar_habitado": 2, "casos_alcohol_drogas": 0, "casos_acoso_sexual_callejero": 0, "casos_amenazas_con_armas": 0, "casos_amenazas_o_rina": 0, "casos_ley_armas": 0, "casos_ley_drogas": 0, "casos_lesiones": 0, "casos_porte_arma_cortante_punzante": 0, "casos_robo_vehiculo_motorizado": 0, "casos_robo_por_sorpresa": 0, "casos_secuestro_intento_secuestro": 0, "latitud": -33.4897316, "longitud": -70.761705, "distancia_interseccion_m": 11.2, "criterio_interseccion": "interseccion_dentro_cuadrante", "intersecciones_agrupadas": "De La Música & Pje. Los Tenores", "grid_ids_origen": "G01311", "tamano_grilla_m": 400, "url_google_maps": "https://www.google.com/maps/dir/?api=1&origin=Current%20Location&destination=-33.4897316,-70.7617050&travelmode=driving" }, "geometry": { "type": "Point", "coordinates": [ -70.761705, -33.4897316 ] } },
{ "type": "Feature", "properties": { "id_pauta": "PF_PCSP_20260907_20261004", "id_punto": "PF_PCSP_20260907_20261004_216B_014", "equipo": "Motoristas", "cuadrante": "216B", "orden_ruta": 2, "interseccion": "Batalla De Chorrillos & Pdte. Jorge Alessandri Rodríguez", "meta_pcsp": "Robo en lugar habitado", "metas_pcsp_asociadas": "Robo en lugar habitado", "motivo_survey": "Robo en lugar habitado", "origen_meta_publica": "casos_en_punto", "problematica_principal": "Robo en lugar habitado", "problematicas_asociadas": "Robo en lugar habitado", "casos_total": 1, "casos_meta_pcsp": 1, "casos_complementarios_pcsp": 0, "puntaje_pcsp": 10.0, "tiene_meta_pcsp": true, "casos_robos_violentos": 0, "casos_robo_lugar_habitado": 1, "casos_alcohol_drogas": 0, "casos_acoso_sexual_callejero": 0, "casos_amenazas_con_armas": 0, "casos_amenazas_o_rina": 0, "casos_ley_armas": 0, "casos_ley_drogas": 0, "casos_lesiones": 0, "casos_porte_arma_cortante_punzante": 0, "casos_robo_vehiculo_motorizado": 0, "casos_robo_por_sorpresa": 0, "casos_secuestro_intento_secuestro": 0, "latitud": -33.4838899, "longitud": -70.7628441, "distancia_interseccion_m": 26.9, "criterio_interseccion": "interseccion_dentro_cuadrante", "intersecciones_agrupadas": "Batalla De Chorrillos & Pdte. Jorge Alessandri Rodríguez", "grid_ids_origen": "G01313", "tamano_grilla_m": 400, "url_google_maps": "https://www.google.com/maps/dir/?api=1&origin=Current%20Location&destination=-33.4838899,-70.7628441&travelmode=driving" }, "geometry": { "type": "Point", "coordinates": [ -70.7628441, -33.4838899 ] } },
{ "type": "Feature", "properties": { "id_pauta": "PF_PCSP_20260907_20261004", "id_punto": "PF_PCSP_20260907_20261004_216B_015", "equipo": "Motoristas", "cuadrante": "216B", "orden_ruta": 3, "interseccion": "Los Copihues & Los Jardines De Maipú", "meta_pcsp": "Robos violentos", "metas_pcsp_asociadas": "Robos violentos", "motivo_survey": "Robos violentos", "origen_meta_publica": "casos_en_punto", "problematica_principal": "Robos violentos", "problematicas_asociadas": "Robos violentos", "casos_total": 1, "casos_meta_pcsp": 1, "casos_complementarios_pcsp": 0, "puntaje_pcsp": 10.0, "tiene_meta_pcsp": true, "casos_robos_violentos": 1, "casos_robo_lugar_habitado": 0, "casos_alcohol_drogas": 0, "casos_acoso_sexual_callejero": 0, "casos_amenazas_con_armas": 0, "casos_amenazas_o_rina": 0, "casos_ley_armas": 0, "casos_ley_drogas": 0, "casos_lesiones": 0, "casos_porte_arma_cortante_punzante": 0, "casos_robo_vehiculo_motorizado": 0, "casos_robo_por_sorpresa": 0, "casos_secuestro_intento_secuestro": 0, "latitud": -33.4842857, "longitud": -70.7668806, "distancia_interseccion_m": 1.6, "criterio_interseccion": "interseccion_dentro_cuadrante", "intersecciones_agrupadas": "Los Copihues & Los Jardines De Maipú", "grid_ids_origen": "G01280", "tamano_grilla_m": 400, "url_google_maps": "https://www.google.com/maps/dir/?api=1&origin=Current%20Location&destination=-33.4842857,-70.7668806&travelmode=driving" }, "geometry": { "type": "Point", "coordinates": [ -70.7668806, -33.484285699999987 ] } },
{ "type": "Feature", "properties": { "id_pauta": "PF_PCSP_20260907_20261004", "id_punto": "PF_PCSP_20260907_20261004_216B_016", "equipo": "Motoristas", "cuadrante": "216B", "orden_ruta": 4, "interseccion": "Pje. Batalla De Maipú & Teatro Municipal", "meta_pcsp": "Robo en lugar habitado", "metas_pcsp_asociadas": "Robo en lugar habitado", "motivo_survey": "Robo en lugar habitado", "origen_meta_publica": "meta_dominante_cuadrante", "problematica_principal": "Amenazas o riña", "problematicas_asociadas": "Amenazas o riña + Robo de vehículo motorizado", "casos_total": 2, "casos_meta_pcsp": 0, "casos_complementarios_pcsp": 2, "puntaje_pcsp": 4.0, "tiene_meta_pcsp": false, "casos_robos_violentos": 0, "casos_robo_lugar_habitado": 0, "casos_alcohol_drogas": 0, "casos_acoso_sexual_callejero": 0, "casos_amenazas_con_armas": 0, "casos_amenazas_o_rina": 1, "casos_ley_armas": 0, "casos_ley_drogas": 0, "casos_lesiones": 0, "casos_porte_arma_cortante_punzante": 0, "casos_robo_vehiculo_motorizado": 1, "casos_robo_por_sorpresa": 0, "casos_secuestro_intento_secuestro": 0, "latitud": -33.4903925, "longitud": -70.7703907, "distancia_interseccion_m": 26.2, "criterio_interseccion": "interseccion_dentro_cuadrante", "intersecciones_agrupadas": "Av. La Sinfonía & Teatro Municipal | Pje. Batalla De Maipú & Teatro Municipal", "grid_ids_origen": "G01245", "tamano_grilla_m": 400, "url_google_maps": "https://www.google.com/maps/dir/?api=1&origin=Current%20Location&destination=-33.4903925,-70.7703907&travelmode=driving" }, "geometry": { "type": "Point", "coordinates": [ -70.7703907, -33.490392499999984 ] } },
{ "type": "Feature", "properties": { "id_pauta": "PF_PCSP_20260907_20261004", "id_punto": "PF_PCSP_20260907_20261004_216B_017", "equipo": "Motoristas", "cuadrante": "216B", "orden_ruta": 5, "interseccion": "Los Tulipanes & Provincias Unidas", "meta_pcsp": "Robo en lugar habitado", "metas_pcsp_asociadas": "Robo en lugar habitado", "motivo_survey": "Robo en lugar habitado", "origen_meta_publica": "meta_dominante_cuadrante", "problematica_principal": "Lesiones", "problematicas_asociadas": "Lesiones", "casos_total": 1, "casos_meta_pcsp": 0, "casos_complementarios_pcsp": 1, "puntaje_pcsp": 2.0, "tiene_meta_pcsp": false, "casos_robos_violentos": 0, "casos_robo_lugar_habitado": 0, "casos_alcohol_drogas": 0, "casos_acoso_sexual_callejero": 0, "casos_amenazas_con_armas": 0, "casos_amenazas_o_rina": 0, "casos_ley_armas": 0, "casos_ley_drogas": 0, "casos_lesiones": 1, "casos_porte_arma_cortante_punzante": 0, "casos_robo_vehiculo_motorizado": 0, "casos_robo_por_sorpresa": 0, "casos_secuestro_intento_secuestro": 0, "latitud": -33.4874723, "longitud": -70.7749075, "distancia_interseccion_m": 5.5, "criterio_interseccion": "interseccion_dentro_cuadrante", "intersecciones_agrupadas": "Los Tulipanes & Provincias Unidas", "grid_ids_origen": "G01213", "tamano_grilla_m": 400, "url_google_maps": "https://www.google.com/maps/dir/?api=1&origin=Current%20Location&destination=-33.4874723,-70.7749075&travelmode=driving" }, "geometry": { "type": "Point", "coordinates": [ -70.7749075, -33.487472299999986 ] } },
{ "type": "Feature", "properties": { "id_pauta": "PF_PCSP_20260907_20261004", "id_punto": "PF_PCSP_20260907_20261004_216B_018", "equipo": "Motoristas", "cuadrante": "216B", "orden_ruta": 6, "interseccion": "Isabel Riquelme & Río Colorado", "meta_pcsp": "Robo en lugar habitado", "metas_pcsp_asociadas": "Robo en lugar habitado", "motivo_survey": "Robo en lugar habitado", "origen_meta_publica": "meta_dominante_cuadrante", "problematica_principal": "Amenazas o riña", "problematicas_asociadas": "Amenazas o riña", "casos_total": 1, "casos_meta_pcsp": 0, "casos_complementarios_pcsp": 1, "puntaje_pcsp": 2.0, "tiene_meta_pcsp": false, "casos_robos_violentos": 0, "casos_robo_lugar_habitado": 0, "casos_alcohol_drogas": 0, "casos_acoso_sexual_callejero": 0, "casos_amenazas_con_armas": 0, "casos_amenazas_o_rina": 1, "casos_ley_armas": 0, "casos_ley_drogas": 0, "casos_lesiones": 0, "casos_porte_arma_cortante_punzante": 0, "casos_robo_vehiculo_motorizado": 0, "casos_robo_por_sorpresa": 0, "casos_secuestro_intento_secuestro": 0, "latitud": -33.4893245, "longitud": -70.7528624, "distancia_interseccion_m": 48.1, "criterio_interseccion": "interseccion_dentro_cuadrante", "intersecciones_agrupadas": "Isabel Riquelme & Río Colorado", "grid_ids_origen": "G01377", "tamano_grilla_m": 400, "url_google_maps": "https://www.google.com/maps/dir/?api=1&origin=Current%20Location&destination=-33.4893245,-70.7528624&travelmode=driving" }, "geometry": { "type": "Point", "coordinates": [ -70.7528624, -33.489324499999988 ] } },
{ "type": "Feature", "properties": { "id_pauta": "PF_PCSP_20260907_20261004", "id_punto": "PF_PCSP_20260907_20261004_217B_019", "equipo": "Motoristas", "cuadrante": "217B", "orden_ruta": 1, "interseccion": "Pje. Camilo Henríquez & Pje. Padre Alberto Hurtado", "meta_pcsp": "Alcohol y drogas en vía pública", "metas_pcsp_asociadas": "Alcohol y drogas en vía pública", "motivo_survey": "Alcohol y drogas", "origen_meta_publica": "casos_en_punto", "problematica_principal": "Alcohol y drogas en vía pública", "problematicas_asociadas": "Alcohol y drogas en vía pública + Amenazas con armas + Lesiones", "casos_total": 3, "casos_meta_pcsp": 1, "casos_complementarios_pcsp": 2, "puntaje_pcsp": 14.0, "tiene_meta_pcsp": true, "casos_robos_violentos": 0, "casos_robo_lugar_habitado": 0, "casos_alcohol_drogas": 1, "casos_acoso_sexual_callejero": 0, "casos_amenazas_con_armas": 1, "casos_amenazas_o_rina": 0, "casos_ley_armas": 0, "casos_ley_drogas": 0, "casos_lesiones": 1, "casos_porte_arma_cortante_punzante": 0, "casos_robo_vehiculo_motorizado": 0, "casos_robo_por_sorpresa": 0, "casos_secuestro_intento_secuestro": 0, "latitud": -33.5223376, "longitud": -70.7561524, "distancia_interseccion_m": 1.5, "criterio_interseccion": "interseccion_dentro_cuadrante", "intersecciones_agrupadas": "Alberto Llona & Vicente Reyes | Pje. Camilo Henríquez & Pje. Padre Alberto Hurtado", "grid_ids_origen": "G01368", "tamano_grilla_m": 400, "url_google_maps": "https://www.google.com/maps/dir/?api=1&origin=Current%20Location&destination=-33.5223376,-70.7561524&travelmode=driving" }, "geometry": { "type": "Point", "coordinates": [ -70.7561524, -33.5223376 ] } },
{ "type": "Feature", "properties": { "id_pauta": "PF_PCSP_20260907_20261004", "id_punto": "PF_PCSP_20260907_20261004_217B_020", "equipo": "Motoristas", "cuadrante": "217B", "orden_ruta": 2, "interseccion": "Alberto Llona & Av. Los Pajaritos", "meta_pcsp": "Alcohol y drogas en vía pública", "metas_pcsp_asociadas": "Alcohol y drogas en vía pública", "motivo_survey": "Alcohol y drogas", "origen_meta_publica": "meta_dominante_cuadrante", "problematica_principal": "Amenazas o riña", "problematicas_asociadas": "Amenazas o riña + Porte de arma cortante o punzante", "casos_total": 2, "casos_meta_pcsp": 0, "casos_complementarios_pcsp": 2, "puntaje_pcsp": 4.0, "tiene_meta_pcsp": false, "casos_robos_violentos": 0, "casos_robo_lugar_habitado": 0, "casos_alcohol_drogas": 0, "casos_acoso_sexual_callejero": 0, "casos_amenazas_con_armas": 0, "casos_amenazas_o_rina": 1, "casos_ley_armas": 0, "casos_ley_drogas": 0, "casos_lesiones": 0, "casos_porte_arma_cortante_punzante": 1, "casos_robo_vehiculo_motorizado": 0, "casos_robo_por_sorpresa": 0, "casos_secuestro_intento_secuestro": 0, "latitud": -33.5266998, "longitud": -70.7569718, "distancia_interseccion_m": 12.0, "criterio_interseccion": "interseccion_dentro_cuadrante", "intersecciones_agrupadas": "Alberto Llona & Av. Los Pajaritos", "grid_ids_origen": "G01367", "tamano_grilla_m": 400, "url_google_maps": "https://www.google.com/maps/dir/?api=1&origin=Current%20Location&destination=-33.5266998,-70.7569718&travelmode=driving" }, "geometry": { "type": "Point", "coordinates": [ -70.7569718, -33.5266998 ] } },
{ "type": "Feature", "properties": { "id_pauta": "PF_PCSP_20260907_20261004", "id_punto": "PF_PCSP_20260907_20261004_217B_021", "equipo": "Motoristas", "cuadrante": "217B", "orden_ruta": 3, "interseccion": "Capri & Pje. El Canelo", "meta_pcsp": "Robo en lugar habitado", "metas_pcsp_asociadas": "Robo en lugar habitado", "motivo_survey": "Robo en lugar habitado", "origen_meta_publica": "casos_en_punto", "problematica_principal": "Robo en lugar habitado", "problematicas_asociadas": "Robo en lugar habitado", "casos_total": 1, "casos_meta_pcsp": 1, "casos_complementarios_pcsp": 0, "puntaje_pcsp": 10.0, "tiene_meta_pcsp": true, "casos_robos_violentos": 0, "casos_robo_lugar_habitado": 1, "casos_alcohol_drogas": 0, "casos_acoso_sexual_callejero": 0, "casos_amenazas_con_armas": 0, "casos_amenazas_o_rina": 0, "casos_ley_armas": 0, "casos_ley_drogas": 0, "casos_lesiones": 0, "casos_porte_arma_cortante_punzante": 0, "casos_robo_vehiculo_motorizado": 0, "casos_robo_por_sorpresa": 0, "casos_secuestro_intento_secuestro": 0, "latitud": -33.5156802, "longitud": -70.7491277, "distancia_interseccion_m": 34.1, "criterio_interseccion": "interseccion_dentro_cuadrante", "intersecciones_agrupadas": "Capri & Pje. El Canelo", "grid_ids_origen": "G01403", "tamano_grilla_m": 400, "url_google_maps": "https://www.google.com/maps/dir/?api=1&origin=Current%20Location&destination=-33.5156802,-70.7491277&travelmode=driving" }, "geometry": { "type": "Point", "coordinates": [ -70.7491277, -33.5156802 ] } },
{ "type": "Feature", "properties": { "id_pauta": "PF_PCSP_20260907_20261004", "id_punto": "PF_PCSP_20260907_20261004_217B_022", "equipo": "Motoristas", "cuadrante": "217B", "orden_ruta": 4, "interseccion": "Av. Segunda Transversal & José Manuel Irarrázaval", "meta_pcsp": "Alcohol y drogas en vía pública", "metas_pcsp_asociadas": "Alcohol y drogas en vía pública", "motivo_survey": "Alcohol y drogas", "origen_meta_publica": "casos_en_punto", "problematica_principal": "Alcohol y drogas en vía pública", "problematicas_asociadas": "Alcohol y drogas en vía pública", "casos_total": 1, "casos_meta_pcsp": 1, "casos_complementarios_pcsp": 0, "puntaje_pcsp": 10.0, "tiene_meta_pcsp": true, "casos_robos_violentos": 0, "casos_robo_lugar_habitado": 0, "casos_alcohol_drogas": 1, "casos_acoso_sexual_callejero": 0, "casos_amenazas_con_armas": 0, "casos_amenazas_o_rina": 0, "casos_ley_armas": 0, "casos_ley_drogas": 0, "casos_lesiones": 0, "casos_porte_arma_cortante_punzante": 0, "casos_robo_vehiculo_motorizado": 0, "casos_robo_por_sorpresa": 0, "casos_secuestro_intento_secuestro": 0, "latitud": -33.5133834, "longitud": -70.7473753, "distancia_interseccion_m": 0.9, "criterio_interseccion": "interseccion_dentro_cuadrante", "intersecciones_agrupadas": "Av. Segunda Transversal & José Manuel Irarrázaval", "grid_ids_origen": "G01437", "tamano_grilla_m": 400, "url_google_maps": "https://www.google.com/maps/dir/?api=1&origin=Current%20Location&destination=-33.5133834,-70.7473753&travelmode=driving" }, "geometry": { "type": "Point", "coordinates": [ -70.7473753, -33.5133834 ] } },
{ "type": "Feature", "properties": { "id_pauta": "PF_PCSP_20260907_20261004", "id_punto": "PF_PCSP_20260907_20261004_217B_023", "equipo": "Motoristas", "cuadrante": "217B", "orden_ruta": 5, "interseccion": "Av. Esquina Blanca & Capri", "meta_pcsp": "Alcohol y drogas en vía pública", "metas_pcsp_asociadas": "Alcohol y drogas en vía pública", "motivo_survey": "Alcohol y drogas", "origen_meta_publica": "meta_dominante_cuadrante", "problematica_principal": "Robo de vehículo motorizado", "problematicas_asociadas": "Robo de vehículo motorizado", "casos_total": 1, "casos_meta_pcsp": 0, "casos_complementarios_pcsp": 1, "puntaje_pcsp": 2.0, "tiene_meta_pcsp": false, "casos_robos_violentos": 0, "casos_robo_lugar_habitado": 0, "casos_alcohol_drogas": 0, "casos_acoso_sexual_callejero": 0, "casos_amenazas_con_armas": 0, "casos_amenazas_o_rina": 0, "casos_ley_armas": 0, "casos_ley_drogas": 0, "casos_lesiones": 0, "casos_porte_arma_cortante_punzante": 0, "casos_robo_vehiculo_motorizado": 1, "casos_robo_por_sorpresa": 0, "casos_secuestro_intento_secuestro": 0, "latitud": -33.5109981, "longitud": -70.7490453, "distancia_interseccion_m": 3.5, "criterio_interseccion": "interseccion_dentro_cuadrante", "intersecciones_agrupadas": "Av. Esquina Blanca & Capri", "grid_ids_origen": "G01404", "tamano_grilla_m": 400, "url_google_maps": "https://www.google.com/maps/dir/?api=1&origin=Current%20Location&destination=-33.5109981,-70.7490453&travelmode=driving" }, "geometry": { "type": "Point", "coordinates": [ -70.7490453, -33.5109981 ] } },
{ "type": "Feature", "properties": { "id_pauta": "PF_PCSP_20260907_20261004", "id_punto": "PF_PCSP_20260907_20261004_217B_024", "equipo": "Motoristas", "cuadrante": "217B", "orden_ruta": 6, "interseccion": "Av. Esquina Blanca & Camino A Melipilla", "meta_pcsp": "Alcohol y drogas en vía pública", "metas_pcsp_asociadas": "Alcohol y drogas en vía pública", "motivo_survey": "Alcohol y drogas", "origen_meta_publica": "meta_dominante_cuadrante", "problematica_principal": "Robo por sorpresa", "problematicas_asociadas": "Robo por sorpresa", "casos_total": 1, "casos_meta_pcsp": 0, "casos_complementarios_pcsp": 1, "puntaje_pcsp": 2.0, "tiene_meta_pcsp": false, "casos_robos_violentos": 0, "casos_robo_lugar_habitado": 0, "casos_alcohol_drogas": 0, "casos_acoso_sexual_callejero": 0, "casos_amenazas_con_armas": 0, "casos_amenazas_o_rina": 0, "casos_ley_armas": 0, "casos_ley_drogas": 0, "casos_lesiones": 0, "casos_porte_arma_cortante_punzante": 0, "casos_robo_vehiculo_motorizado": 0, "casos_robo_por_sorpresa": 1, "casos_secuestro_intento_secuestro": 0, "latitud": -33.5119925, "longitud": -70.727721, "distancia_interseccion_m": 46.8, "criterio_interseccion": "interseccion_dentro_cuadrante", "intersecciones_agrupadas": "Av. Esquina Blanca & Camino A Melipilla", "grid_ids_origen": "G01569", "tamano_grilla_m": 400, "url_google_maps": "https://www.google.com/maps/dir/?api=1&origin=Current%20Location&destination=-33.5119925,-70.7277210&travelmode=driving" }, "geometry": { "type": "Point", "coordinates": [ -70.727721, -33.511992499999984 ] } },
{ "type": "Feature", "properties": { "id_pauta": "PF_PCSP_20260907_20261004", "id_punto": "PF_PCSP_20260907_20261004_218B_025", "equipo": "Motoristas", "cuadrante": "218B", "orden_ruta": 1, "interseccion": "Campanario & Pje. El Príncipe", "meta_pcsp": "Robo en lugar habitado", "metas_pcsp_asociadas": "Robo en lugar habitado", "motivo_survey": "Robo en lugar habitado", "origen_meta_publica": "casos_en_punto", "problematica_principal": "Robo en lugar habitado", "problematicas_asociadas": "Robo en lugar habitado", "casos_total": 1, "casos_meta_pcsp": 1, "casos_complementarios_pcsp": 0, "puntaje_pcsp": 10.0, "tiene_meta_pcsp": true, "casos_robos_violentos": 0, "casos_robo_lugar_habitado": 1, "casos_alcohol_drogas": 0, "casos_acoso_sexual_callejero": 0, "casos_amenazas_con_armas": 0, "casos_amenazas_o_rina": 0, "casos_ley_armas": 0, "casos_ley_drogas": 0, "casos_lesiones": 0, "casos_porte_arma_cortante_punzante": 0, "casos_robo_vehiculo_motorizado": 0, "casos_robo_por_sorpresa": 0, "casos_secuestro_intento_secuestro": 0, "latitud": -33.5196596, "longitud": -70.771463, "distancia_interseccion_m": 2.2, "criterio_interseccion": "interseccion_dentro_cuadrante", "intersecciones_agrupadas": "Campanario & Pje. El Príncipe", "grid_ids_origen": "G01237", "tamano_grilla_m": 400, "url_google_maps": "https://www.google.com/maps/dir/?api=1&origin=Current%20Location&destination=-33.5196596,-70.7714630&travelmode=driving" }, "geometry": { "type": "Point", "coordinates": [ -70.771463, -33.5196596 ] } },
{ "type": "Feature", "properties": { "id_pauta": "PF_PCSP_20260907_20261004", "id_punto": "PF_PCSP_20260907_20261004_218B_026", "equipo": "Motoristas", "cuadrante": "218B", "orden_ruta": 2, "interseccion": "Pje. Monti & Pje. Pomaire", "meta_pcsp": "Robo en lugar habitado", "metas_pcsp_asociadas": "Robo en lugar habitado", "motivo_survey": "Robo en lugar habitado", "origen_meta_publica": "meta_dominante_cuadrante", "problematica_principal": "Porte de arma cortante o punzante", "problematicas_asociadas": "Porte de arma cortante o punzante", "casos_total": 1, "casos_meta_pcsp": 0, "casos_complementarios_pcsp": 1, "puntaje_pcsp": 2.0, "tiene_meta_pcsp": false, "casos_robos_violentos": 0, "casos_robo_lugar_habitado": 0, "casos_alcohol_drogas": 0, "casos_acoso_sexual_callejero": 0, "casos_amenazas_con_armas": 0, "casos_amenazas_o_rina": 0, "casos_ley_armas": 0, "casos_ley_drogas": 0, "casos_lesiones": 0, "casos_porte_arma_cortante_punzante": 1, "casos_robo_vehiculo_motorizado": 0, "casos_robo_por_sorpresa": 0, "casos_secuestro_intento_secuestro": 0, "latitud": -33.5192311, "longitud": -70.7731428, "distancia_interseccion_m": 33.8, "criterio_interseccion": "interseccion_dentro_cuadrante", "intersecciones_agrupadas": "Pje. Monti & Pje. Pomaire", "grid_ids_origen": "G01237", "tamano_grilla_m": 400, "url_google_maps": "https://www.google.com/maps/dir/?api=1&origin=Current%20Location&destination=-33.5192311,-70.7731428&travelmode=driving" }, "geometry": { "type": "Point", "coordinates": [ -70.7731428, -33.5192311 ] } },
{ "type": "Feature", "properties": { "id_pauta": "PF_PCSP_20260907_20261004", "id_punto": "PF_PCSP_20260907_20261004_218B_027", "equipo": "Motoristas", "cuadrante": "218B", "orden_ruta": 3, "interseccion": "Av. Portales & El Carmen", "meta_pcsp": "Robo en lugar habitado", "metas_pcsp_asociadas": "Robo en lugar habitado", "motivo_survey": "Robo en lugar habitado", "origen_meta_publica": "meta_dominante_cuadrante", "problematica_principal": "Amenazas o riña", "problematicas_asociadas": "Amenazas o riña", "casos_total": 1, "casos_meta_pcsp": 0, "casos_complementarios_pcsp": 1, "puntaje_pcsp": 2.0, "tiene_meta_pcsp": false, "casos_robos_violentos": 0, "casos_robo_lugar_habitado": 0, "casos_alcohol_drogas": 0, "casos_acoso_sexual_callejero": 0, "casos_amenazas_con_armas": 0, "casos_amenazas_o_rina": 1, "casos_ley_armas": 0, "casos_ley_drogas": 0, "casos_lesiones": 0, "casos_porte_arma_cortante_punzante": 0, "casos_robo_vehiculo_motorizado": 0, "casos_robo_por_sorpresa": 0, "casos_secuestro_intento_secuestro": 0, "latitud": -33.5174334, "longitud": -70.7634182, "distancia_interseccion_m": 1.7, "criterio_interseccion": "interseccion_dentro_cuadrante", "intersecciones_agrupadas": "Av. Portales & El Carmen", "grid_ids_origen": "G01303", "tamano_grilla_m": 400, "url_google_maps": "https://www.google.com/maps/dir/?api=1&origin=Current%20Location&destination=-33.5174334,-70.7634182&travelmode=driving" }, "geometry": { "type": "Point", "coordinates": [ -70.7634182, -33.5174334 ] } },
{ "type": "Feature", "properties": { "id_pauta": "PF_PCSP_20260907_20261004", "id_punto": "PF_PCSP_20260907_20261004_218B_028", "equipo": "Motoristas", "cuadrante": "218B", "orden_ruta": 4, "interseccion": "Av. Los Pajaritos & Av. Sur", "meta_pcsp": "Robo en lugar habitado", "metas_pcsp_asociadas": "Robo en lugar habitado", "motivo_survey": "Robo en lugar habitado", "origen_meta_publica": "meta_dominante_cuadrante", "problematica_principal": "Lesiones", "problematicas_asociadas": "Lesiones", "casos_total": 1, "casos_meta_pcsp": 0, "casos_complementarios_pcsp": 1, "puntaje_pcsp": 2.0, "tiene_meta_pcsp": false, "casos_robos_violentos": 0, "casos_robo_lugar_habitado": 0, "casos_alcohol_drogas": 0, "casos_acoso_sexual_callejero": 0, "casos_amenazas_con_armas": 0, "casos_amenazas_o_rina": 0, "casos_ley_armas": 0, "casos_ley_drogas": 0, "casos_lesiones": 1, "casos_porte_arma_cortante_punzante": 0, "casos_robo_vehiculo_motorizado": 0, "casos_robo_por_sorpresa": 0, "casos_secuestro_intento_secuestro": 0, "latitud": -33.5208723, "longitud": -70.7573699, "distancia_interseccion_m": 19.4, "criterio_interseccion": "interseccion_dentro_cuadrante", "intersecciones_agrupadas": "Av. Los Pajaritos & Av. Sur", "grid_ids_origen": "G01335", "tamano_grilla_m": 400, "url_google_maps": "https://www.google.com/maps/dir/?api=1&origin=Current%20Location&destination=-33.5208723,-70.7573699&travelmode=driving" }, "geometry": { "type": "Point", "coordinates": [ -70.7573699, -33.5208723 ] } },
{ "type": "Feature", "properties": { "id_pauta": "PF_PCSP_20260907_20261004", "id_punto": "PF_PCSP_20260907_20261004_218B_029", "equipo": "Motoristas", "cuadrante": "218B", "orden_ruta": 5, "interseccion": "Nueva O'Higgins & Sta. Elena", "meta_pcsp": "Robo en lugar habitado", "metas_pcsp_asociadas": "Robo en lugar habitado", "motivo_survey": "Robo en lugar habitado", "origen_meta_publica": "meta_dominante_cuadrante", "problematica_principal": "Robo de vehículo motorizado", "problematicas_asociadas": "Robo de vehículo motorizado", "casos_total": 1, "casos_meta_pcsp": 0, "casos_complementarios_pcsp": 1, "puntaje_pcsp": 2.0, "tiene_meta_pcsp": false, "casos_robos_violentos": 0, "casos_robo_lugar_habitado": 0, "casos_alcohol_drogas": 0, "casos_acoso_sexual_callejero": 0, "casos_amenazas_con_armas": 0, "casos_amenazas_o_rina": 0, "casos_ley_armas": 0, "casos_ley_drogas": 0, "casos_lesiones": 0, "casos_porte_arma_cortante_punzante": 0, "casos_robo_vehiculo_motorizado": 1, "casos_robo_por_sorpresa": 0, "casos_secuestro_intento_secuestro": 0, "latitud": -33.5240537, "longitud": -70.7630508, "distancia_interseccion_m": 2.1, "criterio_interseccion": "interseccion_dentro_cuadrante", "intersecciones_agrupadas": "Nueva O'Higgins & Sta. Elena", "grid_ids_origen": "G01302", "tamano_grilla_m": 400, "url_google_maps": "https://www.google.com/maps/dir/?api=1&origin=Current%20Location&destination=-33.5240537,-70.7630508&travelmode=driving" }, "geometry": { "type": "Point", "coordinates": [ -70.7630508, -33.5240537 ] } },
{ "type": "Feature", "properties": { "id_pauta": "PF_PCSP_20260907_20261004", "id_punto": "PF_PCSP_20260907_20261004_218B_030", "equipo": "Motoristas", "cuadrante": "218B", "orden_ruta": 6, "interseccion": "José Manuel Borgoño & República", "meta_pcsp": "Robo en lugar habitado", "metas_pcsp_asociadas": "Robo en lugar habitado", "motivo_survey": "Robo en lugar habitado", "origen_meta_publica": "meta_dominante_cuadrante", "problematica_principal": "Amenazas con armas", "problematicas_asociadas": "Amenazas con armas", "casos_total": 2, "casos_meta_pcsp": 0, "casos_complementarios_pcsp": 2, "puntaje_pcsp": 4.0, "tiene_meta_pcsp": false, "casos_robos_violentos": 0, "casos_robo_lugar_habitado": 0, "casos_alcohol_drogas": 0, "casos_acoso_sexual_callejero": 0, "casos_amenazas_con_armas": 2, "casos_amenazas_o_rina": 0, "casos_ley_armas": 0, "casos_ley_drogas": 0, "casos_lesiones": 0, "casos_porte_arma_cortante_punzante": 0, "casos_robo_vehiculo_motorizado": 0, "casos_robo_por_sorpresa": 0, "casos_secuestro_intento_secuestro": 0, "latitud": -33.5110737, "longitud": -70.7672706, "distancia_interseccion_m": 71.7, "criterio_interseccion": "interseccion_dentro_cuadrante", "intersecciones_agrupadas": "José Manuel Borgoño & República", "grid_ids_origen": "G01272", "tamano_grilla_m": 400, "url_google_maps": "https://www.google.com/maps/dir/?api=1&origin=Current%20Location&destination=-33.5110737,-70.7672706&travelmode=driving" }, "geometry": { "type": "Point", "coordinates": [ -70.7672706, -33.5110737 ] } },
{ "type": "Feature", "properties": { "id_pauta": "PF_PCSP_20260907_20261004", "id_punto": "PF_PCSP_20260907_20261004_220B_031", "equipo": "Motoristas", "cuadrante": "220B", "orden_ruta": 1, "interseccion": "La Galaxia & Pje. Esquilo", "meta_pcsp": "Alcohol y drogas en vía pública", "metas_pcsp_asociadas": "Alcohol y drogas en vía pública", "motivo_survey": "Alcohol y drogas", "origen_meta_publica": "casos_en_punto", "problematica_principal": "Alcohol y drogas en vía pública", "problematicas_asociadas": "Alcohol y drogas en vía pública", "casos_total": 1, "casos_meta_pcsp": 1, "casos_complementarios_pcsp": 0, "puntaje_pcsp": 10.0, "tiene_meta_pcsp": true, "casos_robos_violentos": 0, "casos_robo_lugar_habitado": 0, "casos_alcohol_drogas": 1, "casos_acoso_sexual_callejero": 0, "casos_amenazas_con_armas": 0, "casos_amenazas_o_rina": 0, "casos_ley_armas": 0, "casos_ley_drogas": 0, "casos_lesiones": 0, "casos_porte_arma_cortante_punzante": 0, "casos_robo_vehiculo_motorizado": 0, "casos_robo_por_sorpresa": 0, "casos_secuestro_intento_secuestro": 0, "latitud": -33.5182025, "longitud": -70.7944939, "distancia_interseccion_m": 1.5, "criterio_interseccion": "interseccion_dentro_cuadrante", "intersecciones_agrupadas": "La Galaxia & Pje. Esquilo", "grid_ids_origen": "G01072", "tamano_grilla_m": 400, "url_google_maps": "https://www.google.com/maps/dir/?api=1&origin=Current%20Location&destination=-33.5182025,-70.7944939&travelmode=driving" }, "geometry": { "type": "Point", "coordinates": [ -70.7944939, -33.5182025 ] } },
{ "type": "Feature", "properties": { "id_pauta": "PF_PCSP_20260907_20261004", "id_punto": "PF_PCSP_20260907_20261004_220B_032", "equipo": "Motoristas", "cuadrante": "220B", "orden_ruta": 2, "interseccion": "San José & Séneca", "meta_pcsp": "Robo en lugar habitado", "metas_pcsp_asociadas": "Robo en lugar habitado", "motivo_survey": "Robo en lugar habitado", "origen_meta_publica": "meta_dominante_cuadrante", "problematica_principal": "Amenazas con armas", "problematicas_asociadas": "Amenazas con armas", "casos_total": 1, "casos_meta_pcsp": 0, "casos_complementarios_pcsp": 1, "puntaje_pcsp": 2.0, "tiene_meta_pcsp": false, "casos_robos_violentos": 0, "casos_robo_lugar_habitado": 0, "casos_alcohol_drogas": 0, "casos_acoso_sexual_callejero": 0, "casos_amenazas_con_armas": 1, "casos_amenazas_o_rina": 0, "casos_ley_armas": 0, "casos_ley_drogas": 0, "casos_lesiones": 0, "casos_porte_arma_cortante_punzante": 0, "casos_robo_vehiculo_motorizado": 0, "casos_robo_por_sorpresa": 0, "casos_secuestro_intento_secuestro": 0, "latitud": -33.5173484, "longitud": -70.7933663, "distancia_interseccion_m": 2.4, "criterio_interseccion": "interseccion_dentro_cuadrante", "intersecciones_agrupadas": "San José & Séneca", "grid_ids_origen": "G01072", "tamano_grilla_m": 400, "url_google_maps": "https://www.google.com/maps/dir/?api=1&origin=Current%20Location&destination=-33.5173484,-70.7933663&travelmode=driving" }, "geometry": { "type": "Point", "coordinates": [ -70.7933663, -33.5173484 ] } },
{ "type": "Feature", "properties": { "id_pauta": "PF_PCSP_20260907_20261004", "id_punto": "PF_PCSP_20260907_20261004_220B_033", "equipo": "Motoristas", "cuadrante": "220B", "orden_ruta": 3, "interseccion": "Lo Vásquez & Valle De Los Reyes", "meta_pcsp": "Robo en lugar habitado", "metas_pcsp_asociadas": "Robo en lugar habitado", "motivo_survey": "Robo en lugar habitado", "origen_meta_publica": "casos_en_punto", "problematica_principal": "Robo en lugar habitado", "problematicas_asociadas": "Robo en lugar habitado", "casos_total": 1, "casos_meta_pcsp": 1, "casos_complementarios_pcsp": 0, "puntaje_pcsp": 10.0, "tiene_meta_pcsp": true, "casos_robos_violentos": 0, "casos_robo_lugar_habitado": 1, "casos_alcohol_drogas": 0, "casos_acoso_sexual_callejero": 0, "casos_amenazas_con_armas": 0, "casos_amenazas_o_rina": 0, "casos_ley_armas": 0, "casos_ley_drogas": 0, "casos_lesiones": 0, "casos_porte_arma_cortante_punzante": 0, "casos_robo_vehiculo_motorizado": 0, "casos_robo_por_sorpresa": 0, "casos_secuestro_intento_secuestro": 0, "latitud": -33.5157564, "longitud": -70.7985729, "distancia_interseccion_m": 49.5, "criterio_interseccion": "interseccion_dentro_cuadrante", "intersecciones_agrupadas": "Lo Vásquez & Valle De Los Reyes", "grid_ids_origen": "G01040", "tamano_grilla_m": 400, "url_google_maps": "https://www.google.com/maps/dir/?api=1&origin=Current%20Location&destination=-33.5157564,-70.7985729&travelmode=driving" }, "geometry": { "type": "Point", "coordinates": [ -70.7985729, -33.5157564 ] } },
{ "type": "Feature", "properties": { "id_pauta": "PF_PCSP_20260907_20261004", "id_punto": "PF_PCSP_20260907_20261004_220B_034", "equipo": "Motoristas", "cuadrante": "220B", "orden_ruta": 4, "interseccion": "Campanario & Los Picachos", "meta_pcsp": "Robo en lugar habitado", "metas_pcsp_asociadas": "Robo en lugar habitado", "motivo_survey": "Robo en lugar habitado", "origen_meta_publica": "meta_dominante_cuadrante", "problematica_principal": "Amenazas con armas", "problematicas_asociadas": "Amenazas con armas", "casos_total": 1, "casos_meta_pcsp": 0, "casos_complementarios_pcsp": 1, "puntaje_pcsp": 2.0, "tiene_meta_pcsp": false, "casos_robos_violentos": 0, "casos_robo_lugar_habitado": 0, "casos_alcohol_drogas": 0, "casos_acoso_sexual_callejero": 0, "casos_amenazas_con_armas": 1, "casos_amenazas_o_rina": 0, "casos_ley_armas": 0, "casos_ley_drogas": 0, "casos_lesiones": 0, "casos_porte_arma_cortante_punzante": 0, "casos_robo_vehiculo_motorizado": 0, "casos_robo_por_sorpresa": 0, "casos_secuestro_intento_secuestro": 0, "latitud": -33.5205962, "longitud": -70.7982541, "distancia_interseccion_m": 76.4, "criterio_interseccion": "interseccion_dentro_cuadrante", "intersecciones_agrupadas": "Campanario & Los Picachos", "grid_ids_origen": "G01039", "tamano_grilla_m": 400, "url_google_maps": "https://www.google.com/maps/dir/?api=1&origin=Current%20Location&destination=-33.5205962,-70.7982541&travelmode=driving" }, "geometry": { "type": "Point", "coordinates": [ -70.7982541, -33.5205962 ] } },
{ "type": "Feature", "properties": { "id_pauta": "PF_PCSP_20260907_20261004", "id_punto": "PF_PCSP_20260907_20261004_220B_035", "equipo": "Motoristas", "cuadrante": "220B", "orden_ruta": 5, "interseccion": "Av. Sur & El Conquistador", "meta_pcsp": "Robos violentos", "metas_pcsp_asociadas": "Robos violentos", "motivo_survey": "Robos violentos", "origen_meta_publica": "casos_en_punto", "problematica_principal": "Robos violentos", "problematicas_asociadas": "Robos violentos", "casos_total": 1, "casos_meta_pcsp": 1, "casos_complementarios_pcsp": 0, "puntaje_pcsp": 10.0, "tiene_meta_pcsp": true, "casos_robos_violentos": 1, "casos_robo_lugar_habitado": 0, "casos_alcohol_drogas": 0, "casos_acoso_sexual_callejero": 0, "casos_amenazas_con_armas": 0, "casos_amenazas_o_rina": 0, "casos_ley_armas": 0, "casos_ley_drogas": 0, "casos_lesiones": 0, "casos_porte_arma_cortante_punzante": 0, "casos_robo_vehiculo_motorizado": 0, "casos_robo_por_sorpresa": 0, "casos_secuestro_intento_secuestro": 0, "latitud": -33.5223293, "longitud": -70.7969385, "distancia_interseccion_m": 1.3, "criterio_interseccion": "interseccion_dentro_cuadrante", "intersecciones_agrupadas": "Av. Sur & El Conquistador", "grid_ids_origen": "G01038", "tamano_grilla_m": 400, "url_google_maps": "https://www.google.com/maps/dir/?api=1&origin=Current%20Location&destination=-33.5223293,-70.7969385&travelmode=driving" }, "geometry": { "type": "Point", "coordinates": [ -70.7969385, -33.5223293 ] } },
{ "type": "Feature", "properties": { "id_pauta": "PF_PCSP_20260907_20261004", "id_punto": "PF_PCSP_20260907_20261004_220B_036", "equipo": "Motoristas", "cuadrante": "220B", "orden_ruta": 6, "interseccion": "Av. Sur & Pje. Cerro Negro", "meta_pcsp": "Robo en lugar habitado", "metas_pcsp_asociadas": "Robo en lugar habitado", "motivo_survey": "Robo en lugar habitado", "origen_meta_publica": "casos_en_punto", "problematica_principal": "Robo en lugar habitado", "problematicas_asociadas": "Robo en lugar habitado", "casos_total": 1, "casos_meta_pcsp": 1, "casos_complementarios_pcsp": 0, "puntaje_pcsp": 10.0, "tiene_meta_pcsp": true, "casos_robos_violentos": 0, "casos_robo_lugar_habitado": 1, "casos_alcohol_drogas": 0, "casos_acoso_sexual_callejero": 0, "casos_amenazas_con_armas": 0, "casos_amenazas_o_rina": 0, "casos_ley_armas": 0, "casos_ley_drogas": 0, "casos_lesiones": 0, "casos_porte_arma_cortante_punzante": 0, "casos_robo_vehiculo_motorizado": 0, "casos_robo_por_sorpresa": 0, "casos_secuestro_intento_secuestro": 0, "latitud": -33.5222265, "longitud": -70.7938569, "distancia_interseccion_m": 20.8, "criterio_interseccion": "interseccion_dentro_cuadrante", "intersecciones_agrupadas": "Av. Sur & Pje. Cerro Negro", "grid_ids_origen": "G01071", "tamano_grilla_m": 400, "url_google_maps": "https://www.google.com/maps/dir/?api=1&origin=Current%20Location&destination=-33.5222265,-70.7938569&travelmode=driving" }, "geometry": { "type": "Point", "coordinates": [ -70.7938569, -33.5222265 ] } },
{ "type": "Feature", "properties": { "id_pauta": "PF_PCSP_20260907_20261004", "id_punto": "PF_PCSP_20260907_20261004_215B_037", "equipo": "Móviles", "cuadrante": "215B", "orden_ruta": 1, "interseccion": "Gustavo Eiffel & Pje. Tucán", "meta_pcsp": "Robo en lugar habitado", "metas_pcsp_asociadas": "Robo en lugar habitado", "motivo_survey": "Robo en lugar habitado", "origen_meta_publica": "casos_en_punto", "problematica_principal": "Robo en lugar habitado", "problematicas_asociadas": "Robo en lugar habitado + Amenazas o riña", "casos_total": 2, "casos_meta_pcsp": 1, "casos_complementarios_pcsp": 1, "puntaje_pcsp": 12.0, "tiene_meta_pcsp": true, "casos_robos_violentos": 0, "casos_robo_lugar_habitado": 1, "casos_alcohol_drogas": 0, "casos_acoso_sexual_callejero": 0, "casos_amenazas_con_armas": 0, "casos_amenazas_o_rina": 1, "casos_ley_armas": 0, "casos_ley_drogas": 0, "casos_lesiones": 0, "casos_porte_arma_cortante_punzante": 0, "casos_robo_vehiculo_motorizado": 0, "casos_robo_por_sorpresa": 0, "casos_secuestro_intento_secuestro": 0, "latitud": -33.4705373, "longitud": -70.7501048, "distancia_interseccion_m": 1.6, "criterio_interseccion": "interseccion_dentro_cuadrante", "intersecciones_agrupadas": "Av. El Descanso & Gustavo Eiffel | Gustavo Eiffel & Pje. Tucán", "grid_ids_origen": "G01415 | G01416", "tamano_grilla_m": 400, "url_google_maps": "https://www.google.com/maps/dir/?api=1&origin=Current%20Location&destination=-33.4705373,-70.7501048&travelmode=driving" }, "geometry": { "type": "Point", "coordinates": [ -70.7501048, -33.4705373 ] } },
{ "type": "Feature", "properties": { "id_pauta": "PF_PCSP_20260907_20261004", "id_punto": "PF_PCSP_20260907_20261004_215B_038", "equipo": "Móviles", "cuadrante": "215B", "orden_ruta": 2, "interseccion": "Av. Longitudinal & Pje. La Curruca", "meta_pcsp": "Alcohol y drogas en vía pública", "metas_pcsp_asociadas": "Alcohol y drogas en vía pública", "motivo_survey": "Alcohol y drogas", "origen_meta_publica": "casos_en_punto", "problematica_principal": "Alcohol y drogas en vía pública", "problematicas_asociadas": "Alcohol y drogas en vía pública", "casos_total": 1, "casos_meta_pcsp": 1, "casos_complementarios_pcsp": 0, "puntaje_pcsp": 10.0, "tiene_meta_pcsp": true, "casos_robos_violentos": 0, "casos_robo_lugar_habitado": 0, "casos_alcohol_drogas": 1, "casos_acoso_sexual_callejero": 0, "casos_amenazas_con_armas": 0, "casos_amenazas_o_rina": 0, "casos_ley_armas": 0, "casos_ley_drogas": 0, "casos_lesiones": 0, "casos_porte_arma_cortante_punzante": 0, "casos_robo_vehiculo_motorizado": 0, "casos_robo_por_sorpresa": 0, "casos_secuestro_intento_secuestro": 0, "latitud": -33.4730445, "longitud": -70.7485803, "distancia_interseccion_m": 0.5, "criterio_interseccion": "interseccion_dentro_cuadrante", "intersecciones_agrupadas": "Av. Longitudinal & Pje. La Curruca", "grid_ids_origen": "G01415", "tamano_grilla_m": 400, "url_google_maps": "https://www.google.com/maps/dir/?api=1&origin=Current%20Location&destination=-33.4730445,-70.7485803&travelmode=driving" }, "geometry": { "type": "Point", "coordinates": [ -70.7485803, -33.4730445 ] } },
{ "type": "Feature", "properties": { "id_pauta": "PF_PCSP_20260907_20261004", "id_punto": "PF_PCSP_20260907_20261004_215B_039", "equipo": "Móviles", "cuadrante": "215B", "orden_ruta": 3, "interseccion": "Camilo José Cela & Carmen Conde", "meta_pcsp": "Robos violentos", "metas_pcsp_asociadas": "Robos violentos", "motivo_survey": "Robos violentos", "origen_meta_publica": "casos_en_punto", "problematica_principal": "Robos violentos", "problematicas_asociadas": "Robos violentos", "casos_total": 1, "casos_meta_pcsp": 1, "casos_complementarios_pcsp": 0, "puntaje_pcsp": 10.0, "tiene_meta_pcsp": true, "casos_robos_violentos": 1, "casos_robo_lugar_habitado": 0, "casos_alcohol_drogas": 0, "casos_acoso_sexual_callejero": 0, "casos_amenazas_con_armas": 0, "casos_amenazas_o_rina": 0, "casos_ley_armas": 0, "casos_ley_drogas": 0, "casos_lesiones": 0, "casos_porte_arma_cortante_punzante": 0, "casos_robo_vehiculo_motorizado": 0, "casos_robo_por_sorpresa": 0, "casos_secuestro_intento_secuestro": 0, "latitud": -33.4661275, "longitud": -70.7578672, "distancia_interseccion_m": 47.4, "criterio_interseccion": "interseccion_dentro_cuadrante", "intersecciones_agrupadas": "Camilo José Cela & Carmen Conde", "grid_ids_origen": "G01351", "tamano_grilla_m": 400, "url_google_maps": "https://www.google.com/maps/dir/?api=1&origin=Current%20Location&destination=-33.4661275,-70.7578672&travelmode=driving" }, "geometry": { "type": "Point", "coordinates": [ -70.7578672, -33.4661275 ] } },
{ "type": "Feature", "properties": { "id_pauta": "PF_PCSP_20260907_20261004", "id_punto": "PF_PCSP_20260907_20261004_215B_040", "equipo": "Móviles", "cuadrante": "215B", "orden_ruta": 4, "interseccion": "Jacinto Benavente & Marqués De Santillana", "meta_pcsp": "Robo en lugar habitado", "metas_pcsp_asociadas": "Robo en lugar habitado", "motivo_survey": "Robo en lugar habitado", "origen_meta_publica": "casos_en_punto", "problematica_principal": "Robo en lugar habitado", "problematicas_asociadas": "Robo en lugar habitado", "casos_total": 1, "casos_meta_pcsp": 1, "casos_complementarios_pcsp": 0, "puntaje_pcsp": 10.0, "tiene_meta_pcsp": true, "casos_robos_violentos": 0, "casos_robo_lugar_habitado": 1, "casos_alcohol_drogas": 0, "casos_acoso_sexual_callejero": 0, "casos_amenazas_con_armas": 0, "casos_amenazas_o_rina": 0, "casos_ley_armas": 0, "casos_ley_drogas": 0, "casos_lesiones": 0, "casos_porte_arma_cortante_punzante": 0, "casos_robo_vehiculo_motorizado": 0, "casos_robo_por_sorpresa": 0, "casos_secuestro_intento_secuestro": 0, "latitud": -33.4649829, "longitud": -70.7596457, "distancia_interseccion_m": 48.0, "criterio_interseccion": "interseccion_dentro_cuadrante", "intersecciones_agrupadas": "Jacinto Benavente & Marqués De Santillana", "grid_ids_origen": "G01351", "tamano_grilla_m": 400, "url_google_maps": "https://www.google.com/maps/dir/?api=1&origin=Current%20Location&destination=-33.4649829,-70.7596457&travelmode=driving" }, "geometry": { "type": "Point", "coordinates": [ -70.7596457, -33.4649829 ] } },
{ "type": "Feature", "properties": { "id_pauta": "PF_PCSP_20260907_20261004", "id_punto": "PF_PCSP_20260907_20261004_217A_041", "equipo": "Móviles", "cuadrante": "217A", "orden_ruta": 1, "interseccion": "Anunciación & Pje. Karin", "meta_pcsp": "Robo en lugar habitado", "metas_pcsp_asociadas": "Robo en lugar habitado", "motivo_survey": "Robo en lugar habitado", "origen_meta_publica": "casos_en_punto", "problematica_principal": "Robo en lugar habitado", "problematicas_asociadas": "Robo en lugar habitado + Amenazas o riña + Lesiones", "casos_total": 3, "casos_meta_pcsp": 1, "casos_complementarios_pcsp": 2, "puntaje_pcsp": 14.0, "tiene_meta_pcsp": true, "casos_robos_violentos": 0, "casos_robo_lugar_habitado": 1, "casos_alcohol_drogas": 0, "casos_acoso_sexual_callejero": 0, "casos_amenazas_con_armas": 0, "casos_amenazas_o_rina": 1, "casos_ley_armas": 0, "casos_ley_drogas": 0, "casos_lesiones": 1, "casos_porte_arma_cortante_punzante": 0, "casos_robo_vehiculo_motorizado": 0, "casos_robo_por_sorpresa": 0, "casos_secuestro_intento_secuestro": 0, "latitud": -33.4953132, "longitud": -70.756071, "distancia_interseccion_m": 8.3, "criterio_interseccion": "interseccion_dentro_cuadrante", "intersecciones_agrupadas": "Anunciación & Judith | Anunciación & Pje. Karin", "grid_ids_origen": "G01376", "tamano_grilla_m": 400, "url_google_maps": "https://www.google.com/maps/dir/?api=1&origin=Current%20Location&destination=-33.4953132,-70.7560710&travelmode=driving" }, "geometry": { "type": "Point", "coordinates": [ -70.756071, -33.4953132 ] } },
{ "type": "Feature", "properties": { "id_pauta": "PF_PCSP_20260907_20261004", "id_punto": "PF_PCSP_20260907_20261004_217A_042", "equipo": "Móviles", "cuadrante": "217A", "orden_ruta": 2, "interseccion": "Primera Transversal & Rafael Riesco", "meta_pcsp": "Robos violentos", "metas_pcsp_asociadas": "Robos violentos", "motivo_survey": "Robos violentos", "origen_meta_publica": "casos_en_punto", "problematica_principal": "Robos violentos", "problematicas_asociadas": "Robos violentos + Amenazas o riña", "casos_total": 2, "casos_meta_pcsp": 1, "casos_complementarios_pcsp": 1, "puntaje_pcsp": 12.0, "tiene_meta_pcsp": true, "casos_robos_violentos": 1, "casos_robo_lugar_habitado": 0, "casos_alcohol_drogas": 0, "casos_acoso_sexual_callejero": 0, "casos_amenazas_con_armas": 0, "casos_amenazas_o_rina": 1, "casos_ley_armas": 0, "casos_ley_drogas": 0, "casos_lesiones": 0, "casos_porte_arma_cortante_punzante": 0, "casos_robo_vehiculo_motorizado": 0, "casos_robo_por_sorpresa": 0, "casos_secuestro_intento_secuestro": 0, "latitud": -33.496302, "longitud": -70.751466, "distancia_interseccion_m": 13.7, "criterio_interseccion": "interseccion_dentro_cuadrante", "intersecciones_agrupadas": "Primera Transversal & Rafael Riesco", "grid_ids_origen": "G01408", "tamano_grilla_m": 400, "url_google_maps": "https://www.google.com/maps/dir/?api=1&origin=Current%20Location&destination=-33.4963020,-70.7514660&travelmode=driving" }, "geometry": { "type": "Point", "coordinates": [ -70.751466, -33.496302 ] } },
{ "type": "Feature", "properties": { "id_pauta": "PF_PCSP_20260907_20261004", "id_punto": "PF_PCSP_20260907_20261004_217A_043", "equipo": "Móviles", "cuadrante": "217A", "orden_ruta": 3, "interseccion": "El Greco & Pje. Nº2", "meta_pcsp": "Robo en lugar habitado", "metas_pcsp_asociadas": "Robo en lugar habitado", "motivo_survey": "Robo en lugar habitado", "origen_meta_publica": "casos_en_punto", "problematica_principal": "Robo en lugar habitado", "problematicas_asociadas": "Robo en lugar habitado", "casos_total": 1, "casos_meta_pcsp": 1, "casos_complementarios_pcsp": 0, "puntaje_pcsp": 10.0, "tiene_meta_pcsp": true, "casos_robos_violentos": 0, "casos_robo_lugar_habitado": 1, "casos_alcohol_drogas": 0, "casos_acoso_sexual_callejero": 0, "casos_amenazas_con_armas": 0, "casos_amenazas_o_rina": 0, "casos_ley_armas": 0, "casos_ley_drogas": 0, "casos_lesiones": 0, "casos_porte_arma_cortante_punzante": 0, "casos_robo_vehiculo_motorizado": 0, "casos_robo_por_sorpresa": 0, "casos_secuestro_intento_secuestro": 0, "latitud": -33.4986089, "longitud": -70.7505476, "distancia_interseccion_m": 14.2, "criterio_interseccion": "interseccion_dentro_cuadrante", "intersecciones_agrupadas": "El Greco & Pje. Nº2", "grid_ids_origen": "G01408", "tamano_grilla_m": 400, "url_google_maps": "https://www.google.com/maps/dir/?api=1&origin=Current%20Location&destination=-33.4986089,-70.7505476&travelmode=driving" }, "geometry": { "type": "Point", "coordinates": [ -70.7505476, -33.4986089 ] } },
{ "type": "Feature", "properties": { "id_pauta": "PF_PCSP_20260907_20261004", "id_punto": "PF_PCSP_20260907_20261004_217A_044", "equipo": "Móviles", "cuadrante": "217A", "orden_ruta": 4, "interseccion": "Acuario & Aries", "meta_pcsp": "Robo en lugar habitado", "metas_pcsp_asociadas": "Robo en lugar habitado", "motivo_survey": "Robo en lugar habitado", "origen_meta_publica": "meta_dominante_cuadrante", "problematica_principal": "Lesiones", "problematicas_asociadas": "Lesiones", "casos_total": 1, "casos_meta_pcsp": 0, "casos_complementarios_pcsp": 1, "puntaje_pcsp": 2.0, "tiene_meta_pcsp": false, "casos_robos_violentos": 0, "casos_robo_lugar_habitado": 0, "casos_alcohol_drogas": 0, "casos_acoso_sexual_callejero": 0, "casos_amenazas_con_armas": 0, "casos_amenazas_o_rina": 0, "casos_ley_armas": 0, "casos_ley_drogas": 0, "casos_lesiones": 1, "casos_porte_arma_cortante_punzante": 0, "casos_robo_vehiculo_motorizado": 0, "casos_robo_por_sorpresa": 0, "casos_secuestro_intento_secuestro": 0, "latitud": -33.4978557, "longitud": -70.7477278, "distancia_interseccion_m": 0.9, "criterio_interseccion": "interseccion_dentro_cuadrante", "intersecciones_agrupadas": "Acuario & Aries", "grid_ids_origen": "G01441", "tamano_grilla_m": 400, "url_google_maps": "https://www.google.com/maps/dir/?api=1&origin=Current%20Location&destination=-33.4978557,-70.7477278&travelmode=driving" }, "geometry": { "type": "Point", "coordinates": [ -70.7477278, -33.4978557 ] } },
{ "type": "Feature", "properties": { "id_pauta": "PF_PCSP_20260907_20261004", "id_punto": "PF_PCSP_20260907_20261004_217A_045", "equipo": "Móviles", "cuadrante": "217A", "orden_ruta": 5, "interseccion": "Pamela & Pje. Conde De La Comquista", "meta_pcsp": "Alcohol y drogas en vía pública", "metas_pcsp_asociadas": "Alcohol y drogas en vía pública", "motivo_survey": "Alcohol y drogas", "origen_meta_publica": "casos_en_punto", "problematica_principal": "Alcohol y drogas en vía pública", "problematicas_asociadas": "Alcohol y drogas en vía pública", "casos_total": 1, "casos_meta_pcsp": 1, "casos_complementarios_pcsp": 0, "puntaje_pcsp": 10.0, "tiene_meta_pcsp": true, "casos_robos_violentos": 0, "casos_robo_lugar_habitado": 0, "casos_alcohol_drogas": 1, "casos_acoso_sexual_callejero": 0, "casos_amenazas_con_armas": 0, "casos_amenazas_o_rina": 0, "casos_ley_armas": 0, "casos_ley_drogas": 0, "casos_lesiones": 0, "casos_porte_arma_cortante_punzante": 0, "casos_robo_vehiculo_motorizado": 0, "casos_robo_por_sorpresa": 0, "casos_secuestro_intento_secuestro": 0, "latitud": -33.5031112, "longitud": -70.745192, "distancia_interseccion_m": 44.3, "criterio_interseccion": "interseccion_dentro_cuadrante", "intersecciones_agrupadas": "Pamela & Pje. Conde De La Comquista", "grid_ids_origen": "G01439", "tamano_grilla_m": 400, "url_google_maps": "https://www.google.com/maps/dir/?api=1&origin=Current%20Location&destination=-33.5031112,-70.7451920&travelmode=driving" }, "geometry": { "type": "Point", "coordinates": [ -70.745192, -33.5031112 ] } },
{ "type": "Feature", "properties": { "id_pauta": "PF_PCSP_20260907_20261004", "id_punto": "PF_PCSP_20260907_20261004_217A_046", "equipo": "Móviles", "cuadrante": "217A", "orden_ruta": 6, "interseccion": "1 Sur & Primera Transversal", "meta_pcsp": "Robo en lugar habitado", "metas_pcsp_asociadas": "Robo en lugar habitado", "motivo_survey": "Robo en lugar habitado", "origen_meta_publica": "meta_dominante_cuadrante", "problematica_principal": "Robo por sorpresa", "problematicas_asociadas": "Robo por sorpresa", "casos_total": 1, "casos_meta_pcsp": 0, "casos_complementarios_pcsp": 1, "puntaje_pcsp": 2.0, "tiene_meta_pcsp": false, "casos_robos_violentos": 0, "casos_robo_lugar_habitado": 0, "casos_alcohol_drogas": 0, "casos_acoso_sexual_callejero": 0, "casos_amenazas_con_armas": 0, "casos_amenazas_o_rina": 0, "casos_ley_armas": 0, "casos_ley_drogas": 0, "casos_lesiones": 0, "casos_porte_arma_cortante_punzante": 0, "casos_robo_vehiculo_motorizado": 0, "casos_robo_por_sorpresa": 1, "casos_secuestro_intento_secuestro": 0, "latitud": -33.505496, "longitud": -70.7527397, "distancia_interseccion_m": 71.5, "criterio_interseccion": "interseccion_dentro_cuadrante", "intersecciones_agrupadas": "1 Sur & Primera Transversal", "grid_ids_origen": "G01373", "tamano_grilla_m": 400, "url_google_maps": "https://www.google.com/maps/dir/?api=1&origin=Current%20Location&destination=-33.5054960,-70.7527397&travelmode=driving" }, "geometry": { "type": "Point", "coordinates": [ -70.7527397, -33.505496 ] } },
{ "type": "Feature", "properties": { "id_pauta": "PF_PCSP_20260907_20261004", "id_punto": "PF_PCSP_20260907_20261004_218A_047", "equipo": "Móviles", "cuadrante": "218A", "orden_ruta": 1, "interseccion": "Av. De La Victoria & Maipú", "meta_pcsp": "Robo en lugar habitado", "metas_pcsp_asociadas": "Robo en lugar habitado", "motivo_survey": "Robo en lugar habitado", "origen_meta_publica": "casos_en_punto", "problematica_principal": "Robo en lugar habitado", "problematicas_asociadas": "Robo en lugar habitado + Amenazas o riña", "casos_total": 2, "casos_meta_pcsp": 1, "casos_complementarios_pcsp": 1, "puntaje_pcsp": 12.0, "tiene_meta_pcsp": true, "casos_robos_violentos": 0, "casos_robo_lugar_habitado": 1, "casos_alcohol_drogas": 0, "casos_acoso_sexual_callejero": 0, "casos_amenazas_con_armas": 0, "casos_amenazas_o_rina": 1, "casos_ley_armas": 0, "casos_ley_drogas": 0, "casos_lesiones": 0, "casos_porte_arma_cortante_punzante": 0, "casos_robo_vehiculo_motorizado": 0, "casos_robo_por_sorpresa": 0, "casos_secuestro_intento_secuestro": 0, "latitud": -33.5070935, "longitud": -70.7687625, "distancia_interseccion_m": 8.3, "criterio_interseccion": "interseccion_dentro_cuadrante", "intersecciones_agrupadas": "Av. De La Victoria & Maipú", "grid_ids_origen": "G01273", "tamano_grilla_m": 400, "url_google_maps": "https://www.google.com/maps/dir/?api=1&origin=Current%20Location&destination=-33.5070935,-70.7687625&travelmode=driving" }, "geometry": { "type": "Point", "coordinates": [ -70.7687625, -33.5070935 ] } },
{ "type": "Feature", "properties": { "id_pauta": "PF_PCSP_20260907_20261004", "id_punto": "PF_PCSP_20260907_20261004_218A_048", "equipo": "Móviles", "cuadrante": "218A", "orden_ruta": 2, "interseccion": "El Porvenir & Miraflores", "meta_pcsp": "Robos violentos", "metas_pcsp_asociadas": "Robos violentos", "motivo_survey": "Robos violentos", "origen_meta_publica": "casos_en_punto", "problematica_principal": "Robos violentos", "problematicas_asociadas": "Robos violentos", "casos_total": 1, "casos_meta_pcsp": 1, "casos_complementarios_pcsp": 0, "puntaje_pcsp": 10.0, "tiene_meta_pcsp": true, "casos_robos_violentos": 1, "casos_robo_lugar_habitado": 0, "casos_alcohol_drogas": 0, "casos_acoso_sexual_callejero": 0, "casos_amenazas_con_armas": 0, "casos_amenazas_o_rina": 0, "casos_ley_armas": 0, "casos_ley_drogas": 0, "casos_lesiones": 0, "casos_porte_arma_cortante_punzante": 0, "casos_robo_vehiculo_motorizado": 0, "casos_robo_por_sorpresa": 0, "casos_secuestro_intento_secuestro": 0, "latitud": -33.500925, "longitud": -70.7732997, "distancia_interseccion_m": 3.9, "criterio_interseccion": "interseccion_dentro_cuadrante", "intersecciones_agrupadas": "El Porvenir & Miraflores", "grid_ids_origen": "G01242", "tamano_grilla_m": 400, "url_google_maps": "https://www.google.com/maps/dir/?api=1&origin=Current%20Location&destination=-33.5009250,-70.7732997&travelmode=driving" }, "geometry": { "type": "Point", "coordinates": [ -70.7732997, -33.500925 ] } },
{ "type": "Feature", "properties": { "id_pauta": "PF_PCSP_20260907_20261004", "id_punto": "PF_PCSP_20260907_20261004_218A_049", "equipo": "Móviles", "cuadrante": "218A", "orden_ruta": 3, "interseccion": "Gral. San Martín & Pje. Las Montañas", "meta_pcsp": "Robo en lugar habitado", "metas_pcsp_asociadas": "Robo en lugar habitado", "motivo_survey": "Robo en lugar habitado", "origen_meta_publica": "meta_dominante_cuadrante", "problematica_principal": "Amenazas con armas", "problematicas_asociadas": "Amenazas con armas", "casos_total": 3, "casos_meta_pcsp": 0, "casos_complementarios_pcsp": 3, "puntaje_pcsp": 6.0, "tiene_meta_pcsp": false, "casos_robos_violentos": 0, "casos_robo_lugar_habitado": 0, "casos_alcohol_drogas": 0, "casos_acoso_sexual_callejero": 0, "casos_amenazas_con_armas": 3, "casos_amenazas_o_rina": 0, "casos_ley_armas": 0, "casos_ley_drogas": 0, "casos_lesiones": 0, "casos_porte_arma_cortante_punzante": 0, "casos_robo_vehiculo_motorizado": 0, "casos_robo_por_sorpresa": 0, "casos_secuestro_intento_secuestro": 0, "latitud": -33.4980687, "longitud": -70.7642021, "distancia_interseccion_m": 45.7, "criterio_interseccion": "interseccion_dentro_cuadrante", "intersecciones_agrupadas": "Gral. San Martín & Pje. Las Montañas", "grid_ids_origen": "G01309", "tamano_grilla_m": 400, "url_google_maps": "https://www.google.com/maps/dir/?api=1&origin=Current%20Location&destination=-33.4980687,-70.7642021&travelmode=driving" }, "geometry": { "type": "Point", "coordinates": [ -70.7642021, -33.4980687 ] } },
{ "type": "Feature", "properties": { "id_pauta": "PF_PCSP_20260907_20261004", "id_punto": "PF_PCSP_20260907_20261004_218A_050", "equipo": "Móviles", "cuadrante": "218A", "orden_ruta": 4, "interseccion": "Libertador Bernardo O'Higgins & Manuel Rodríguez", "meta_pcsp": "Robo en lugar habitado", "metas_pcsp_asociadas": "Robo en lugar habitado", "motivo_survey": "Robo en lugar habitado", "origen_meta_publica": "meta_dominante_cuadrante", "problematica_principal": "Amenazas o riña", "problematicas_asociadas": "Amenazas o riña", "casos_total": 1, "casos_meta_pcsp": 0, "casos_complementarios_pcsp": 1, "puntaje_pcsp": 2.0, "tiene_meta_pcsp": false, "casos_robos_violentos": 0, "casos_robo_lugar_habitado": 0, "casos_alcohol_drogas": 0, "casos_acoso_sexual_callejero": 0, "casos_amenazas_con_armas": 0, "casos_amenazas_o_rina": 1, "casos_ley_armas": 0, "casos_ley_drogas": 0, "casos_lesiones": 0, "casos_porte_arma_cortante_punzante": 0, "casos_robo_vehiculo_motorizado": 0, "casos_robo_por_sorpresa": 0, "casos_secuestro_intento_secuestro": 0, "latitud": -33.5012919, "longitud": -70.7602046, "distancia_interseccion_m": 17.6, "criterio_interseccion": "interseccion_dentro_cuadrante", "intersecciones_agrupadas": "Libertador Bernardo O'Higgins & Manuel Rodríguez", "grid_ids_origen": "G01341", "tamano_grilla_m": 400, "url_google_maps": "https://www.google.com/maps/dir/?api=1&origin=Current%20Location&destination=-33.5012919,-70.7602046&travelmode=driving" }, "geometry": { "type": "Point", "coordinates": [ -70.7602046, -33.5012919 ] } },
{ "type": "Feature", "properties": { "id_pauta": "PF_PCSP_20260907_20261004", "id_punto": "PF_PCSP_20260907_20261004_218A_051", "equipo": "Móviles", "cuadrante": "218A", "orden_ruta": 5, "interseccion": "Argentina & Av. Los Pajaritos", "meta_pcsp": "Robo en lugar habitado", "metas_pcsp_asociadas": "Robo en lugar habitado", "motivo_survey": "Robo en lugar habitado", "origen_meta_publica": "meta_dominante_cuadrante", "problematica_principal": "Robo de vehículo motorizado", "problematicas_asociadas": "Robo de vehículo motorizado", "casos_total": 1, "casos_meta_pcsp": 0, "casos_complementarios_pcsp": 1, "puntaje_pcsp": 2.0, "tiene_meta_pcsp": false, "casos_robos_violentos": 0, "casos_robo_lugar_habitado": 0, "casos_alcohol_drogas": 0, "casos_acoso_sexual_callejero": 0, "casos_amenazas_con_armas": 0, "casos_amenazas_o_rina": 0, "casos_ley_armas": 0, "casos_ley_drogas": 0, "casos_lesiones": 0, "casos_porte_arma_cortante_punzante": 0, "casos_robo_vehiculo_motorizado": 1, "casos_robo_por_sorpresa": 0, "casos_secuestro_intento_secuestro": 0, "latitud": -33.4985657, "longitud": -70.7575299, "distancia_interseccion_m": 25.0, "criterio_interseccion": "interseccion_dentro_cuadrante", "intersecciones_agrupadas": "Argentina & Av. Los Pajaritos", "grid_ids_origen": "G01342", "tamano_grilla_m": 400, "url_google_maps": "https://www.google.com/maps/dir/?api=1&origin=Current%20Location&destination=-33.4985657,-70.7575299&travelmode=driving" }, "geometry": { "type": "Point", "coordinates": [ -70.7575299, -33.4985657 ] } },
{ "type": "Feature", "properties": { "id_pauta": "PF_PCSP_20260907_20261004", "id_punto": "PF_PCSP_20260907_20261004_218A_052", "equipo": "Móviles", "cuadrante": "218A", "orden_ruta": 6, "interseccion": "Av. Los Pajaritos & Pje. Elena Revuelta", "meta_pcsp": "Robo en lugar habitado", "metas_pcsp_asociadas": "Robo en lugar habitado", "motivo_survey": "Robo en lugar habitado", "origen_meta_publica": "meta_dominante_cuadrante", "problematica_principal": "Robo por sorpresa", "problematicas_asociadas": "Robo por sorpresa", "casos_total": 1, "casos_meta_pcsp": 0, "casos_complementarios_pcsp": 1, "puntaje_pcsp": 2.0, "tiene_meta_pcsp": false, "casos_robos_violentos": 0, "casos_robo_lugar_habitado": 0, "casos_alcohol_drogas": 0, "casos_acoso_sexual_callejero": 0, "casos_amenazas_con_armas": 0, "casos_amenazas_o_rina": 0, "casos_ley_armas": 0, "casos_ley_drogas": 0, "casos_lesiones": 0, "casos_porte_arma_cortante_punzante": 0, "casos_robo_vehiculo_motorizado": 0, "casos_robo_por_sorpresa": 1, "casos_secuestro_intento_secuestro": 0, "latitud": -33.4958924, "longitud": -70.7575521, "distancia_interseccion_m": 49.2, "criterio_interseccion": "interseccion_dentro_cuadrante", "intersecciones_agrupadas": "Av. Los Pajaritos & Pje. Elena Revuelta", "grid_ids_origen": "G01342", "tamano_grilla_m": 400, "url_google_maps": "https://www.google.com/maps/dir/?api=1&origin=Current%20Location&destination=-33.4958924,-70.7575521&travelmode=driving" }, "geometry": { "type": "Point", "coordinates": [ -70.7575521, -33.4958924 ] } },
{ "type": "Feature", "properties": { "id_pauta": "PF_PCSP_20260907_20261004", "id_punto": "PF_PCSP_20260907_20261004_219_053", "equipo": "Móviles", "cuadrante": "219", "orden_ruta": 1, "interseccion": "Diego Barros Ortiz & Pje. Monjas Francesas", "meta_pcsp": "Robo en lugar habitado", "metas_pcsp_asociadas": "Robo en lugar habitado", "motivo_survey": "Robo en lugar habitado", "origen_meta_publica": "casos_en_punto", "problematica_principal": "Robo en lugar habitado", "problematicas_asociadas": "Robo en lugar habitado", "casos_total": 2, "casos_meta_pcsp": 2, "casos_complementarios_pcsp": 0, "puntaje_pcsp": 20.0, "tiene_meta_pcsp": true, "casos_robos_violentos": 0, "casos_robo_lugar_habitado": 2, "casos_alcohol_drogas": 0, "casos_acoso_sexual_callejero": 0, "casos_amenazas_con_armas": 0, "casos_amenazas_o_rina": 0, "casos_ley_armas": 0, "casos_ley_drogas": 0, "casos_lesiones": 0, "casos_porte_arma_cortante_punzante": 0, "casos_robo_vehiculo_motorizado": 0, "casos_robo_por_sorpresa": 0, "casos_secuestro_intento_secuestro": 0, "latitud": -33.5230959, "longitud": -70.7851159, "distancia_interseccion_m": 15.3, "criterio_interseccion": "interseccion_dentro_cuadrante", "intersecciones_agrupadas": "Diego Barros Ortiz & Pje. Monjas Francesas", "grid_ids_origen": "G01137", "tamano_grilla_m": 400, "url_google_maps": "https://www.google.com/maps/dir/?api=1&origin=Current%20Location&destination=-33.5230959,-70.7851159&travelmode=driving" }, "geometry": { "type": "Point", "coordinates": [ -70.7851159, -33.5230959 ] } },
{ "type": "Feature", "properties": { "id_pauta": "PF_PCSP_20260907_20261004", "id_punto": "PF_PCSP_20260907_20261004_219_054", "equipo": "Móviles", "cuadrante": "219", "orden_ruta": 2, "interseccion": "Av. 3 Poniente & Campanario", "meta_pcsp": "Robo en lugar habitado", "metas_pcsp_asociadas": "Robo en lugar habitado", "motivo_survey": "Robo en lugar habitado", "origen_meta_publica": "meta_dominante_cuadrante", "problematica_principal": "Crímenes y simples delitos Ley de Armas", "problematicas_asociadas": "Crímenes y simples delitos Ley de Armas", "casos_total": 1, "casos_meta_pcsp": 0, "casos_complementarios_pcsp": 1, "puntaje_pcsp": 2.0, "tiene_meta_pcsp": false, "casos_robos_violentos": 0, "casos_robo_lugar_habitado": 0, "casos_alcohol_drogas": 0, "casos_acoso_sexual_callejero": 0, "casos_amenazas_con_armas": 0, "casos_amenazas_o_rina": 0, "casos_ley_armas": 1, "casos_ley_drogas": 0, "casos_lesiones": 0, "casos_porte_arma_cortante_punzante": 0, "casos_robo_vehiculo_motorizado": 0, "casos_robo_por_sorpresa": 0, "casos_secuestro_intento_secuestro": 0, "latitud": -33.5200061, "longitud": -70.7792179, "distancia_interseccion_m": 2.3, "criterio_interseccion": "interseccion_dentro_cuadrante", "intersecciones_agrupadas": "Av. 3 Poniente & Campanario", "grid_ids_origen": "G01171", "tamano_grilla_m": 400, "url_google_maps": "https://www.google.com/maps/dir/?api=1&origin=Current%20Location&destination=-33.5200061,-70.7792179&travelmode=driving" }, "geometry": { "type": "Point", "coordinates": [ -70.77921790000002, -33.5200061 ] } },
{ "type": "Feature", "properties": { "id_pauta": "PF_PCSP_20260907_20261004", "id_punto": "PF_PCSP_20260907_20261004_219_055", "equipo": "Móviles", "cuadrante": "219", "orden_ruta": 3, "interseccion": "Av. 3 Poniente & Av. Portales", "meta_pcsp": "Robo en lugar habitado", "metas_pcsp_asociadas": "Robo en lugar habitado", "motivo_survey": "Robo en lugar habitado", "origen_meta_publica": "meta_dominante_cuadrante", "problematica_principal": "Lesiones", "problematicas_asociadas": "Lesiones", "casos_total": 2, "casos_meta_pcsp": 0, "casos_complementarios_pcsp": 2, "puntaje_pcsp": 4.0, "tiene_meta_pcsp": false, "casos_robos_violentos": 0, "casos_robo_lugar_habitado": 0, "casos_alcohol_drogas": 0, "casos_acoso_sexual_callejero": 0, "casos_amenazas_con_armas": 0, "casos_amenazas_o_rina": 0, "casos_ley_armas": 0, "casos_ley_drogas": 0, "casos_lesiones": 2, "casos_porte_arma_cortante_punzante": 0, "casos_robo_vehiculo_motorizado": 0, "casos_robo_por_sorpresa": 0, "casos_secuestro_intento_secuestro": 0, "latitud": -33.5181943, "longitud": -70.779164, "distancia_interseccion_m": 1.4, "criterio_interseccion": "interseccion_dentro_cuadrante", "intersecciones_agrupadas": "Av. 3 Poniente & Av. Portales", "grid_ids_origen": "G01171", "tamano_grilla_m": 400, "url_google_maps": "https://www.google.com/maps/dir/?api=1&origin=Current%20Location&destination=-33.5181943,-70.7791640&travelmode=driving" }, "geometry": { "type": "Point", "coordinates": [ -70.779164, -33.5181943 ] } },
{ "type": "Feature", "properties": { "id_pauta": "PF_PCSP_20260907_20261004", "id_punto": "PF_PCSP_20260907_20261004_219_056", "equipo": "Móviles", "cuadrante": "219", "orden_ruta": 4, "interseccion": "Av. Portales & Pje. Los Zorzales", "meta_pcsp": "Robo en lugar habitado", "metas_pcsp_asociadas": "Robo en lugar habitado", "motivo_survey": "Robo en lugar habitado", "origen_meta_publica": "meta_dominante_cuadrante", "problematica_principal": "Porte de arma cortante o punzante", "problematicas_asociadas": "Porte de arma cortante o punzante", "casos_total": 1, "casos_meta_pcsp": 0, "casos_complementarios_pcsp": 1, "puntaje_pcsp": 2.0, "tiene_meta_pcsp": false, "casos_robos_violentos": 0, "casos_robo_lugar_habitado": 0, "casos_alcohol_drogas": 0, "casos_acoso_sexual_callejero": 0, "casos_amenazas_con_armas": 0, "casos_amenazas_o_rina": 0, "casos_ley_armas": 0, "casos_ley_drogas": 0, "casos_lesiones": 0, "casos_porte_arma_cortante_punzante": 1, "casos_robo_vehiculo_motorizado": 0, "casos_robo_por_sorpresa": 0, "casos_secuestro_intento_secuestro": 0, "latitud": -33.5181762, "longitud": -70.7773737, "distancia_interseccion_m": 22.2, "criterio_interseccion": "interseccion_dentro_cuadrante", "intersecciones_agrupadas": "Av. Portales & Pje. Los Zorzales", "grid_ids_origen": "G01204", "tamano_grilla_m": 400, "url_google_maps": "https://www.google.com/maps/dir/?api=1&origin=Current%20Location&destination=-33.5181762,-70.7773737&travelmode=driving" }, "geometry": { "type": "Point", "coordinates": [ -70.7773737, -33.5181762 ] } },
{ "type": "Feature", "properties": { "id_pauta": "PF_PCSP_20260907_20261004", "id_punto": "PF_PCSP_20260907_20261004_219_057", "equipo": "Móviles", "cuadrante": "219", "orden_ruta": 5, "interseccion": "Pje. Las Quinchas & Pje. Los Zarzales", "meta_pcsp": "Robos violentos", "metas_pcsp_asociadas": "Robos violentos", "motivo_survey": "Robos violentos", "origen_meta_publica": "casos_en_punto", "problematica_principal": "Robos violentos", "problematicas_asociadas": "Robos violentos", "casos_total": 1, "casos_meta_pcsp": 1, "casos_complementarios_pcsp": 0, "puntaje_pcsp": 10.0, "tiene_meta_pcsp": true, "casos_robos_violentos": 1, "casos_robo_lugar_habitado": 0, "casos_alcohol_drogas": 0, "casos_acoso_sexual_callejero": 0, "casos_amenazas_con_armas": 0, "casos_amenazas_o_rina": 0, "casos_ley_armas": 0, "casos_ley_drogas": 0, "casos_lesiones": 0, "casos_porte_arma_cortante_punzante": 0, "casos_robo_vehiculo_motorizado": 0, "casos_robo_por_sorpresa": 0, "casos_secuestro_intento_secuestro": 0, "latitud": -33.5133948, "longitud": -70.7814602, "distancia_interseccion_m": 11.2, "criterio_interseccion": "interseccion_dentro_cuadrante", "intersecciones_agrupadas": "Pje. Las Quinchas & Pje. Los Zarzales", "grid_ids_origen": "G01172", "tamano_grilla_m": 400, "url_google_maps": "https://www.google.com/maps/dir/?api=1&origin=Current%20Location&destination=-33.5133948,-70.7814602&travelmode=driving" }, "geometry": { "type": "Point", "coordinates": [ -70.7814602, -33.5133948 ] } },
{ "type": "Feature", "properties": { "id_pauta": "PF_PCSP_20260907_20261004", "id_punto": "PF_PCSP_20260907_20261004_219_058", "equipo": "Móviles", "cuadrante": "219", "orden_ruta": 6, "interseccion": "Av. El Olimpo & Medialuna", "meta_pcsp": "Alcohol y drogas en vía pública", "metas_pcsp_asociadas": "Alcohol y drogas en vía pública", "motivo_survey": "Alcohol y drogas", "origen_meta_publica": "casos_en_punto", "problematica_principal": "Alcohol y drogas en vía pública", "problematicas_asociadas": "Alcohol y drogas en vía pública", "casos_total": 1, "casos_meta_pcsp": 1, "casos_complementarios_pcsp": 0, "puntaje_pcsp": 10.0, "tiene_meta_pcsp": true, "casos_robos_violentos": 0, "casos_robo_lugar_habitado": 0, "casos_alcohol_drogas": 1, "casos_acoso_sexual_callejero": 0, "casos_amenazas_con_armas": 0, "casos_amenazas_o_rina": 0, "casos_ley_armas": 0, "casos_ley_drogas": 0, "casos_lesiones": 0, "casos_porte_arma_cortante_punzante": 0, "casos_robo_vehiculo_motorizado": 0, "casos_robo_por_sorpresa": 0, "casos_secuestro_intento_secuestro": 0, "latitud": -33.5088432, "longitud": -70.7755863, "distancia_interseccion_m": 9.8, "criterio_interseccion": "interseccion_dentro_cuadrante", "intersecciones_agrupadas": "Av. El Olimpo & Medialuna", "grid_ids_origen": "G01207", "tamano_grilla_m": 400, "url_google_maps": "https://www.google.com/maps/dir/?api=1&origin=Current%20Location&destination=-33.5088432,-70.7755863&travelmode=driving" }, "geometry": { "type": "Point", "coordinates": [ -70.7755863, -33.508843199999987 ] } },
{ "type": "Feature", "properties": { "id_pauta": "PF_PCSP_20260907_20261004", "id_punto": "PF_PCSP_20260907_20261004_221C_059", "equipo": "Móviles", "cuadrante": "221C", "orden_ruta": 1, "interseccion": "Av. El Olimpo & Pje. Nido De Águilas", "meta_pcsp": "Robo en lugar habitado", "metas_pcsp_asociadas": "Robo en lugar habitado", "motivo_survey": "Robo en lugar habitado", "origen_meta_publica": "casos_en_punto", "problematica_principal": "Robo en lugar habitado", "problematicas_asociadas": "Robo en lugar habitado", "casos_total": 1, "casos_meta_pcsp": 1, "casos_complementarios_pcsp": 0, "puntaje_pcsp": 10.0, "tiene_meta_pcsp": true, "casos_robos_violentos": 0, "casos_robo_lugar_habitado": 1, "casos_alcohol_drogas": 0, "casos_acoso_sexual_callejero": 0, "casos_amenazas_con_armas": 0, "casos_amenazas_o_rina": 0, "casos_ley_armas": 0, "casos_ley_drogas": 0, "casos_lesiones": 0, "casos_porte_arma_cortante_punzante": 0, "casos_robo_vehiculo_motorizado": 0, "casos_robo_por_sorpresa": 0, "casos_secuestro_intento_secuestro": 0, "latitud": -33.5272121, "longitud": -70.7750651, "distancia_interseccion_m": 29.9, "criterio_interseccion": "interseccion_dentro_cuadrante", "intersecciones_agrupadas": "Av. El Olimpo & Pje. Nido De Águilas", "grid_ids_origen": "G01202", "tamano_grilla_m": 400, "url_google_maps": "https://www.google.com/maps/dir/?api=1&origin=Current%20Location&destination=-33.5272121,-70.7750651&travelmode=driving" }, "geometry": { "type": "Point", "coordinates": [ -70.7750651, -33.5272121 ] } },
{ "type": "Feature", "properties": { "id_pauta": "PF_PCSP_20260907_20261004", "id_punto": "PF_PCSP_20260907_20261004_221C_060", "equipo": "Móviles", "cuadrante": "221C", "orden_ruta": 2, "interseccion": "Av. Nueva San Martín & Del Rey", "meta_pcsp": "Robo en lugar habitado", "metas_pcsp_asociadas": "Robo en lugar habitado", "motivo_survey": "Robo en lugar habitado", "origen_meta_publica": "meta_dominante_cuadrante", "problematica_principal": "Amenazas con armas", "problematicas_asociadas": "Amenazas con armas", "casos_total": 1, "casos_meta_pcsp": 0, "casos_complementarios_pcsp": 1, "puntaje_pcsp": 2.0, "tiene_meta_pcsp": false, "casos_robos_violentos": 0, "casos_robo_lugar_habitado": 0, "casos_alcohol_drogas": 0, "casos_acoso_sexual_callejero": 0, "casos_amenazas_con_armas": 1, "casos_amenazas_o_rina": 0, "casos_ley_armas": 0, "casos_ley_drogas": 0, "casos_lesiones": 0, "casos_porte_arma_cortante_punzante": 0, "casos_robo_vehiculo_motorizado": 0, "casos_robo_por_sorpresa": 0, "casos_secuestro_intento_secuestro": 0, "latitud": -33.5249042, "longitud": -70.7704437, "distancia_interseccion_m": 22.9, "criterio_interseccion": "interseccion_dentro_cuadrante", "intersecciones_agrupadas": "Av. Nueva San Martín & Del Rey", "grid_ids_origen": "G01268", "tamano_grilla_m": 400, "url_google_maps": "https://www.google.com/maps/dir/?api=1&origin=Current%20Location&destination=-33.5249042,-70.7704437&travelmode=driving" }, "geometry": { "type": "Point", "coordinates": [ -70.7704437, -33.5249042 ] } },
{ "type": "Feature", "properties": { "id_pauta": "PF_PCSP_20260907_20261004", "id_punto": "PF_PCSP_20260907_20261004_221C_061", "equipo": "Móviles", "cuadrante": "221C", "orden_ruta": 3, "interseccion": "Los Diamantes & Pje. Javier De La Rosa", "meta_pcsp": "Robo en lugar habitado", "metas_pcsp_asociadas": "Robo en lugar habitado", "motivo_survey": "Robo en lugar habitado", "origen_meta_publica": "meta_dominante_cuadrante", "problematica_principal": "Amenazas o riña", "problematicas_asociadas": "Amenazas o riña + Lesiones", "casos_total": 2, "casos_meta_pcsp": 0, "casos_complementarios_pcsp": 2, "puntaje_pcsp": 4.0, "tiene_meta_pcsp": false, "casos_robos_violentos": 0, "casos_robo_lugar_habitado": 0, "casos_alcohol_drogas": 0, "casos_acoso_sexual_callejero": 0, "casos_amenazas_con_armas": 0, "casos_amenazas_o_rina": 1, "casos_ley_armas": 0, "casos_ley_drogas": 0, "casos_lesiones": 1, "casos_porte_arma_cortante_punzante": 0, "casos_robo_vehiculo_motorizado": 0, "casos_robo_por_sorpresa": 0, "casos_secuestro_intento_secuestro": 0, "latitud": -33.5255525, "longitud": -70.7670186, "distancia_interseccion_m": 70.5, "criterio_interseccion": "interseccion_dentro_cuadrante", "intersecciones_agrupadas": "Los Diamantes & Pje. Javier De La Rosa", "grid_ids_origen": "G01268", "tamano_grilla_m": 400, "url_google_maps": "https://www.google.com/maps/dir/?api=1&origin=Current%20Location&destination=-33.5255525,-70.7670186&travelmode=driving" }, "geometry": { "type": "Point", "coordinates": [ -70.7670186, -33.5255525 ] } },
{ "type": "Feature", "properties": { "id_pauta": "PF_PCSP_20260907_20261004", "id_punto": "PF_PCSP_20260907_20261004_221C_062", "equipo": "Móviles", "cuadrante": "221C", "orden_ruta": 4, "interseccion": "Luis Hernández Parker & Pje. Hugo Silva Endeiza", "meta_pcsp": "Robo en lugar habitado", "metas_pcsp_asociadas": "Robo en lugar habitado", "motivo_survey": "Robo en lugar habitado", "origen_meta_publica": "meta_dominante_cuadrante", "problematica_principal": "Robo de vehículo motorizado", "problematicas_asociadas": "Robo de vehículo motorizado", "casos_total": 1, "casos_meta_pcsp": 0, "casos_complementarios_pcsp": 1, "puntaje_pcsp": 2.0, "tiene_meta_pcsp": false, "casos_robos_violentos": 0, "casos_robo_lugar_habitado": 0, "casos_alcohol_drogas": 0, "casos_acoso_sexual_callejero": 0, "casos_amenazas_con_armas": 0, "casos_amenazas_o_rina": 0, "casos_ley_armas": 0, "casos_ley_drogas": 0, "casos_lesiones": 0, "casos_porte_arma_cortante_punzante": 0, "casos_robo_vehiculo_motorizado": 1, "casos_robo_por_sorpresa": 0, "casos_secuestro_intento_secuestro": 0, "latitud": -33.5296577, "longitud": -70.7674971, "distancia_interseccion_m": 14.8, "criterio_interseccion": "interseccion_dentro_cuadrante", "intersecciones_agrupadas": "Luis Hernández Parker & Pje. Hugo Silva Endeiza", "grid_ids_origen": "G01267", "tamano_grilla_m": 400, "url_google_maps": "https://www.google.com/maps/dir/?api=1&origin=Current%20Location&destination=-33.5296577,-70.7674971&travelmode=driving" }, "geometry": { "type": "Point", "coordinates": [ -70.7674971, -33.5296577 ] } },
{ "type": "Feature", "properties": { "id_pauta": "PF_PCSP_20260907_20261004", "id_punto": "PF_PCSP_20260907_20261004_221C_063", "equipo": "Móviles", "cuadrante": "221C", "orden_ruta": 5, "interseccion": "Los Diamantes & Pje. Alfonso Reyes Mesa", "meta_pcsp": "Robo en lugar habitado", "metas_pcsp_asociadas": "Robo en lugar habitado", "motivo_survey": "Robo en lugar habitado", "origen_meta_publica": "meta_dominante_cuadrante", "problematica_principal": "Crímenes y simples delitos Ley de Armas", "problematicas_asociadas": "Crímenes y simples delitos Ley de Armas", "casos_total": 1, "casos_meta_pcsp": 0, "casos_complementarios_pcsp": 1, "puntaje_pcsp": 2.0, "tiene_meta_pcsp": false, "casos_robos_violentos": 0, "casos_robo_lugar_habitado": 0, "casos_alcohol_drogas": 0, "casos_acoso_sexual_callejero": 0, "casos_amenazas_con_armas": 0, "casos_amenazas_o_rina": 0, "casos_ley_armas": 1, "casos_ley_drogas": 0, "casos_lesiones": 0, "casos_porte_arma_cortante_punzante": 0, "casos_robo_vehiculo_motorizado": 0, "casos_robo_por_sorpresa": 0, "casos_secuestro_intento_secuestro": 0, "latitud": -33.5307587, "longitud": -70.7670156, "distancia_interseccion_m": 34.6, "criterio_interseccion": "interseccion_dentro_cuadrante", "intersecciones_agrupadas": "Los Diamantes & Pje. Alfonso Reyes Mesa", "grid_ids_origen": "G01267", "tamano_grilla_m": 400, "url_google_maps": "https://www.google.com/maps/dir/?api=1&origin=Current%20Location&destination=-33.5307587,-70.7670156&travelmode=driving" }, "geometry": { "type": "Point", "coordinates": [ -70.7670156, -33.5307587 ] } },
{ "type": "Feature", "properties": { "id_pauta": "PF_PCSP_20260907_20261004", "id_punto": "PF_PCSP_20260907_20261004_221C_064", "equipo": "Móviles", "cuadrante": "221C", "orden_ruta": 6, "interseccion": "Andrés Amenabar Vergara & Hermógenes Pérez De Arce", "meta_pcsp": "Robo en lugar habitado", "metas_pcsp_asociadas": "Robo en lugar habitado", "motivo_survey": "Robo en lugar habitado", "origen_meta_publica": "meta_dominante_cuadrante", "problematica_principal": "Lesiones", "problematicas_asociadas": "Lesiones", "casos_total": 1, "casos_meta_pcsp": 0, "casos_complementarios_pcsp": 1, "puntaje_pcsp": 2.0, "tiene_meta_pcsp": false, "casos_robos_violentos": 0, "casos_robo_lugar_habitado": 0, "casos_alcohol_drogas": 0, "casos_acoso_sexual_callejero": 0, "casos_amenazas_con_armas": 0, "casos_amenazas_o_rina": 0, "casos_ley_armas": 0, "casos_ley_drogas": 0, "casos_lesiones": 1, "casos_porte_arma_cortante_punzante": 0, "casos_robo_vehiculo_motorizado": 0, "casos_robo_por_sorpresa": 0, "casos_secuestro_intento_secuestro": 0, "latitud": -33.5319756, "longitud": -70.768505, "distancia_interseccion_m": 1.5, "criterio_interseccion": "interseccion_dentro_cuadrante", "intersecciones_agrupadas": "Andrés Amenabar Vergara & Hermógenes Pérez De Arce", "grid_ids_origen": "G01266", "tamano_grilla_m": 400, "url_google_maps": "https://www.google.com/maps/dir/?api=1&origin=Current%20Location&destination=-33.5319756,-70.7685050&travelmode=driving" }, "geometry": { "type": "Point", "coordinates": [ -70.768505, -33.5319756 ] } }
]
}
